{
"type": "FeatureCollection",
"name": "iso_400m_lisboa",
"crs": { "type": "name", "properties": { "name": "urn:ogc:def:crs:OGC:1.3:CRS84" } },
"features": [
{ "type": "Feature", "properties": { }, "geometry": { "type": "Polygon", "coordinates": [ [ [ -9.211126025210108, 38.690376443304345 ], [ -9.211531547953275, 38.6902215220763 ], [ -9.211954491374652, 38.690098497639163 ], [ -9.212390782783393, 38.690008554614003 ], [ -9.212836221015522, 38.689952559069148 ], [ -9.213286516871891, 38.689931050184569 ], [ -9.213737334401902, 38.689944235062654 ], [ -9.214184332636313, 38.689991986735222 ], [ -9.214623207368167, 38.690073845385875 ], [ -9.215049732580459, 38.690189022776217 ], [ -9.21545980112243, 38.690336409832753 ], [ -9.215849464243705, 38.690514587322419 ], [ -9.216214969606238, 38.690721839513273 ], [ -9.216552797408664, 38.690956170689837 ], [ -9.216859694275648, 38.691215324363732 ], [ -9.217132704586163, 38.691496804995452 ], [ -9.21736919893913, 38.691797902017953 ], [ -9.217566899482224, 38.692115715931592 ], [ -9.217715831077339, 38.692430146912542 ], [ -9.217862980803462, 38.692399804849956 ], [ -9.218308429064157, 38.69234378832688 ], [ -9.218758737759966, 38.692322258182251 ], [ -9.219209570816696, 38.692335421723136 ], [ -9.219527622988309, 38.692369382138395 ], [ -9.219928668133319, 38.692252699577899 ], [ -9.220364961874614, 38.692162726784844 ], [ -9.220810406491797, 38.692106700777174 ], [ -9.221260712724227, 38.69208516102811 ], [ -9.221711544521417, 38.692098314937148 ], [ -9.222158560776808, 38.692146035834256 ], [ -9.222597457110018, 38.69222786419936 ], [ -9.223024007296152, 38.692343012085573 ], [ -9.223434103944122, 38.692490370703524 ], [ -9.223823798033074, 38.6926685210939 ], [ -9.22418933692693, 38.692875747785756 ], [ -9.224527200501621, 38.69311005530912 ], [ -9.224834135037511, 38.693369187403476 ], [ -9.225107184551003, 38.693650648737112 ], [ -9.225343719263643, 38.693951728928901 ], [ -9.225541460934572, 38.69426952864135 ], [ -9.22567044140353, 38.694541756746275 ], [ -9.225956942569873, 38.694550104933221 ], [ -9.226403976561221, 38.694597809314928 ], [ -9.226842892404109, 38.694679621419759 ], [ -9.227269463685879, 38.694794753457408 ], [ -9.227679582812405, 38.694942096791081 ], [ -9.227773761775399, 38.694985145192327 ], [ -9.22808729768375, 38.695018598570371 ], [ -9.228526217877219, 38.695100404284346 ], [ -9.228952794227155, 38.695215530096078 ], [ -9.229362919090663, 38.695362867428713 ], [ -9.229752643175328, 38.695540997527885 ], [ -9.230118213556377, 38.695748205118065 ], [ -9.230456109806672, 38.695982494913238 ], [ -9.230469869700221, 38.695994109883664 ], [ -9.230635408797328, 38.696108890054006 ], [ -9.230942378069741, 38.696368005470681 ], [ -9.231215462868999, 38.69664945187828 ], [ -9.231452033076957, 38.69695051903949 ], [ -9.23164981011101, 38.697268307742362 ], [ -9.231806888878936, 38.697599757712474 ], [ -9.23192175614099, 38.69794167707721 ], [ -9.231993305101891, 38.698290773098627 ], [ -9.2320208460914, 38.698643683879233 ], [ -9.23200411322984, 38.698997010735532 ], [ -9.231943267013436, 38.699347350927582 ], [ -9.231838892793668, 38.699691330429665 ], [ -9.23169199516423, 38.70002563642624 ], [ -9.231503988308834, 38.700347049220099 ], [ -9.231276682401852, 38.70065247324559 ], [ -9.231125431016299, 38.700816353715332 ], [ -9.231037213489042, 38.700967164979765 ], [ -9.230809903674238, 38.701272588123835 ], [ -9.230545483351642, 38.70155908074117 ], [ -9.230246498817932, 38.701823883514784 ], [ -9.229915829366124, 38.702064446000122 ], [ -9.229556659559922, 38.702278451196783 ], [ -9.229172448563251, 38.702463837872209 ], [ -9.228766896820371, 38.702618820421897 ], [ -9.228343910407739, 38.702741906074642 ], [ -9.227907563401308, 38.702831909276483 ], [ -9.227462058622278, 38.702887963114954 ], [ -9.227011687140076, 38.702909527672922 ], [ -9.226644719284195, 38.702898839888825 ], [ -9.226593562693598, 38.70292931821055 ], [ -9.226209340369461, 38.703114695290679 ], [ -9.225803778341193, 38.703269667691934 ], [ -9.225380782784377, 38.703392742740789 ], [ -9.224944427863091, 38.703482734985478 ], [ -9.224780233721273, 38.703503389820966 ], [ -9.224726989552734, 38.703550539760286 ], [ -9.22439629341741, 38.703791086950673 ], [ -9.224037098236787, 38.704005075494514 ], [ -9.223652863419305, 38.704190444319636 ], [ -9.223247289638788, 38.704345407993465 ], [ -9.222824283184073, 38.704468473926624 ], [ -9.222387918324257, 38.704558456755088 ], [ -9.221942398052599, 38.704614489762669 ], [ -9.221492013587827, 38.704636033232944 ], [ -9.221431775393368, 38.70463427611616 ], [ -9.221303319461324, 38.704853803685459 ], [ -9.221075955868406, 38.705159208486826 ], [ -9.221003115491278, 38.705238107633917 ], [ -9.221033426444755, 38.705386094521664 ], [ -9.221060917167387, 38.705739008208255 ], [ -9.221044129500854, 38.706092333884222 ], [ -9.220983224468975, 38.70644266882087 ], [ -9.2208787879895, 38.706786639042932 ], [ -9.220731825255641, 38.707120931824058 ], [ -9.220543751078079, 38.707442327594151 ], [ -9.220349585772036, 38.707703125093595 ], [ -9.22026846294448, 38.707887648034479 ], [ -9.220080384746606, 38.708209043076998 ], [ -9.219853005603428, 38.708514445557483 ], [ -9.219804095762267, 38.708567419782057 ], [ -9.219837250823039, 38.708637396097245 ], [ -9.219952080261864, 38.708979327160172 ], [ -9.220023583462147, 38.709328430545888 ], [ -9.220051071193911, 38.709681344285848 ], [ -9.220034278089988, 38.71003466966787 ], [ -9.219973365226441, 38.710385003966081 ], [ -9.219868918596317, 38.71072897321131 ], [ -9.219721943490484, 38.711063264686587 ], [ -9.219533854838694, 38.711384658834383 ], [ -9.21944865885308, 38.711499083016449 ], [ -9.219452691856208, 38.711550866095841 ], [ -9.219435895584519, 38.711904191329801 ], [ -9.219374978421541, 38.712254525271362 ], [ -9.219270526401679, 38.712598493954815 ], [ -9.219123544867655, 38.712932784668553 ], [ -9.218935448811084, 38.713254177862375 ], [ -9.218708049265366, 38.713559578159177 ], [ -9.218554196048393, 38.713726200387633 ], [ -9.218594023714013, 38.713767248812367 ], [ -9.218830599713131, 38.714068340595503 ], [ -9.219028370341489, 38.714386149861411 ], [ -9.219185430567959, 38.714717616137641 ], [ -9.219300267330738, 38.715059547394532 ], [ -9.21937177412763, 38.715408650779523 ], [ -9.219399261693829, 38.71576156432409 ], [ -9.21938246466356, 38.716114889317936 ], [ -9.219321544150509, 38.716465223038888 ], [ -9.219217086221205, 38.716809191523339 ], [ -9.219070096275161, 38.717143482061601 ], [ -9.218881989384904, 38.717464875105108 ], [ -9.218654576688071, 38.717770275278205 ], [ -9.218390047961879, 38.718056741195291 ], [ -9.218090950547117, 38.71832151379634 ], [ -9.217760164824137, 38.718562042927189 ], [ -9.217400876476743, 38.718776011908531 ], [ -9.217016545810905, 38.718961359856493 ], [ -9.216971482405144, 38.718978571426057 ], [ -9.216722957285038, 38.719247691824087 ], [ -9.216423848756161, 38.719512460267467 ], [ -9.216093051936115, 38.719752984792969 ], [ -9.215733752615611, 38.719966948765624 ], [ -9.215349411206352, 38.720152291349784 ], [ -9.214943729409116, 38.720307227365531 ], [ -9.214520614553477, 38.720430264489757 ], [ -9.214084141953025, 38.720520217635936 ], [ -9.213638515639172, 38.720576220373751 ], [ -9.213188027852441, 38.720597733278353 ], [ -9.212737017682192, 38.720584549128716 ], [ -9.212605226495219, 38.720570475635824 ], [ -9.212505106135543, 38.720567548517813 ], [ -9.212364511425859, 38.720552534635608 ], [ -9.212092586298406, 38.720683654622732 ], [ -9.211686894224348, 38.720838579466609 ], [ -9.211263770394014, 38.720961604916987 ], [ -9.210827290207492, 38.721051545999842 ], [ -9.210381657769307, 38.721107536401036 ], [ -9.209931165379009, 38.721129036814553 ], [ -9.20948015217032, 38.72111584013976 ], [ -9.209354306902826, 38.721102398135926 ], [ -9.20969548848295, 38.721194504302723 ], [ -9.210105725135167, 38.721341906975319 ], [ -9.210495545546388, 38.721520099144492 ], [ -9.210861195864162, 38.721727364937259 ], [ -9.211199154891322, 38.721961708507408 ], [ -9.211506167988768, 38.722220873247515 ], [ -9.211779278415907, 38.722502363511758 ], [ -9.212015855807092, 38.722803468640585 ], [ -9.212213621509733, 38.723121289056479 ], [ -9.212370670539833, 38.723452764179648 ], [ -9.212485489943088, 38.723794701895152 ], [ -9.212556973384153, 38.724143809288215 ], [ -9.212584431822828, 38.724496724351646 ], [ -9.212567600173553, 38.724850048360437 ], [ -9.212506639883134, 38.725200378601777 ], [ -9.212463725056931, 38.725341630119637 ], [ -9.212535887740025, 38.725402541709705 ], [ -9.212809014558598, 38.725684029184301 ], [ -9.213045607030626, 38.725985131854031 ], [ -9.213243386358263, 38.726302950165071 ], [ -9.213400447426251, 38.726634423557904 ], [ -9.213515277164296, 38.726976359934341 ], [ -9.213586769137448, 38.727325466392472 ], [ -9.213614234223247, 38.727678380934172 ], [ -9.213597407272021, 38.728031704839445 ], [ -9.213536449685224, 38.728382035396528 ], [ -9.2134319478861, 38.728725998672161 ], [ -9.213284907696373, 38.729060282006706 ], [ -9.213096744672219, 38.729381665920847 ], [ -9.212869270491735, 38.729687055126682 ], [ -9.212604675524192, 38.729973508344145 ], [ -9.212305507748333, 38.730238266635354 ], [ -9.211974648222222, 38.730478779983841 ], [ -9.211615283340597, 38.73069273186222 ], [ -9.211285656088794, 38.730851650454419 ], [ -9.211320992700827, 38.730881476017764 ], [ -9.211594136187939, 38.731162965839509 ], [ -9.211830742231832, 38.731464070503449 ], [ -9.212028531903846, 38.731781890436615 ], [ -9.212185599988972, 38.732113365063881 ], [ -9.212300433349187, 38.732455302275206 ], [ -9.21237192551448, 38.732804409160643 ], [ -9.212399387360373, 38.733157323717947 ], [ -9.212382553768204, 38.733510647226964 ], [ -9.212321586203222, 38.73386097697972 ], [ -9.212217071184593, 38.734204939050684 ], [ -9.212182534117474, 38.73428344732293 ], [ -9.212179412886556, 38.73430138205093 ], [ -9.212074896590643, 38.734645343988312 ], [ -9.211927838545243, 38.734979625548249 ], [ -9.211739654478365, 38.735301007268518 ], [ -9.211512156270659, 38.735606393882257 ], [ -9.211247534522725, 38.735892844134312 ], [ -9.210948337471185, 38.736157599115309 ], [ -9.210617446456052, 38.736398108840604 ], [ -9.210399376429034, 38.736527925105875 ], [ -9.210394246998732, 38.736635522280935 ], [ -9.210333267395832, 38.736985850990017 ], [ -9.210228738593882, 38.737329811304576 ], [ -9.210081666674441, 38.737664090593412 ], [ -9.209893467499089, 38.737985469416103 ], [ -9.20966595309396, 38.738290852533673 ], [ -9.20940131421564, 38.738577298724586 ], [ -9.209102099265738, 38.73884204911856 ], [ -9.208771189756678, 38.739082553775113 ], [ -9.208411772564661, 38.739296496250461 ], [ -9.208027309236893, 38.739481815915816 ], [ -9.207621502648738, 38.739636727811899 ], [ -9.207198261332104, 38.739759739847813 ], [ -9.2068847861034, 38.739824307194986 ], [ -9.206935333553504, 38.73988863332805 ], [ -9.207133125833849, 38.740206461072084 ], [ -9.207221546987107, 38.740393071611301 ], [ -9.20750523007845, 38.740469639158924 ], [ -9.207915573610981, 38.74061704752198 ], [ -9.20830549466009, 38.74079524499043 ], [ -9.208671238404394, 38.741002515640446 ], [ -9.209009282747127, 38.741236863579211 ], [ -9.209316372227578, 38.7414960321574 ], [ -9.209589549369447, 38.741777525692399 ], [ -9.209826183164379, 38.742078633493314 ], [ -9.210023994416256, 38.742396455957049 ], [ -9.210181077701991, 38.742727932484186 ], [ -9.210295919736879, 38.743069870946385 ], [ -9.210367413967047, 38.743418978421715 ], [ -9.210394871247786, 38.743771892902224 ], [ -9.210383230514044, 38.744016060523769 ], [ -9.210564185390469, 38.744246307180163 ], [ -9.210762006092189, 38.744564128145747 ], [ -9.210919097752596, 38.744895603442565 ], [ -9.211033947006287, 38.745237540954143 ], [ -9.211096090635774, 38.745540963493319 ], [ -9.211177270772621, 38.745549630036152 ], [ -9.211616483796298, 38.745631494359223 ], [ -9.212043336938983, 38.745746676947405 ], [ -9.212453719893155, 38.745894068677536 ], [ -9.212843680881603, 38.746072250271908 ], [ -9.21320946469849, 38.746279505959542 ], [ -9.213547548861296, 38.746513839991763 ], [ -9.213854677525953, 38.746772995853206 ], [ -9.214127892838908, 38.747054477983774 ], [ -9.214364563424256, 38.747355575802487 ], [ -9.214562409731597, 38.747673389802422 ], [ -9.214719526000232, 38.748004859465794 ], [ -9.214834398627758, 38.748346792730388 ], [ -9.21490592076559, 38.748695896724442 ], [ -9.214933403000126, 38.749048809473614 ], [ -9.214916580015855, 38.749402132275208 ], [ -9.214855613175336, 38.749752462428098 ], [ -9.214751088990257, 38.750096426002891 ], [ -9.21460401349729, 38.750430710337 ], [ -9.214415802592034, 38.750752095941372 ], [ -9.214188268413226, 38.75105748751168 ], [ -9.213923601907574, 38.751343943744956 ], [ -9.213624351742519, 38.751608705674052 ], [ -9.213293399769455, 38.751849223247341 ], [ -9.213281526796795, 38.751856290150812 ], [ -9.213306440114836, 38.751930448573951 ], [ -9.213377958818146, 38.752279553348018 ], [ -9.213405435325525, 38.752632466331974 ], [ -9.213388604376496, 38.752985788820922 ], [ -9.213327627410219, 38.753336118116692 ], [ -9.213223091035786, 38.753680080298096 ], [ -9.213076001407176, 38.754014362715949 ], [ -9.212887774556053, 38.754335745899617 ], [ -9.212856522999346, 38.754377687613996 ], [ -9.212849530796037, 38.754400693737161 ], [ -9.212702438013334, 38.754734975690617 ], [ -9.212514207655463, 38.755056358284932 ], [ -9.212286652048443, 38.755361746244709 ], [ -9.212021962345325, 38.755648198301706 ], [ -9.21172268743695, 38.75591295552897 ], [ -9.211391709413036, 38.756153467920093 ], [ -9.211032215809583, 38.7563674189566 ], [ -9.210647668909765, 38.756552747927145 ], [ -9.210241772393973, 38.756707669782656 ], [ -9.209818435660447, 38.756830692336173 ], [ -9.209381736160548, 38.756920630641318 ], [ -9.209354737555591, 38.756924021005311 ], [ -9.209302440179805, 38.75722437048794 ], [ -9.209197879162327, 38.757568329202122 ], [ -9.20905076307813, 38.757902606718666 ], [ -9.208862508213619, 38.758223983614066 ], [ -9.208634927130829, 38.758529364667773 ], [ -9.208633144462931, 38.758531293668142 ], [ -9.208500733331283, 38.758708968950216 ], [ -9.208236016238162, 38.758995412664959 ], [ -9.207936713420116, 38.759260160448306 ], [ -9.207605707235727, 38.759500662384752 ], [ -9.207246185492304, 38.759714602056505 ], [ -9.206861610744138, 38.759899918861613 ], [ -9.206455686939954, 38.760054827868188 ], [ -9.206032323740937, 38.760177837013011 ], [ -9.205595598853469, 38.760267761478886 ], [ -9.205149718739845, 38.760323735111605 ], [ -9.20469897808611, 38.760345218766602 ], [ -9.204247718418175, 38.760332005504672 ], [ -9.203800286265675, 38.760284222586279 ], [ -9.203360991277433, 38.760202330245775 ], [ -9.203267858833334, 38.760177197127113 ], [ -9.203222042296058, 38.76019467996975 ], [ -9.202798672451326, 38.760317677487748 ], [ -9.202361942375472, 38.760407589936854 ], [ -9.201916058580801, 38.760463551278612 ], [ -9.201749146706172, 38.760471502357682 ], [ -9.201776509929214, 38.760552984397428 ], [ -9.201806642769741, 38.760700171097682 ], [ -9.201816620552311, 38.760729882722373 ], [ -9.201888093218017, 38.761078994683942 ], [ -9.201915517577055, 38.761431910605559 ], [ -9.20189862887085, 38.761785231753827 ], [ -9.201876972927275, 38.761909521408725 ], [ -9.201873741085482, 38.761977132547422 ], [ -9.201812701045423, 38.762327456216696 ], [ -9.201786617486192, 38.762413222843946 ], [ -9.201784671341228, 38.762453935589228 ], [ -9.20172363051236, 38.762804259195804 ], [ -9.201717276843294, 38.76282515080495 ], [ -9.201716594143445, 38.762829068913078 ], [ -9.201934485596004, 38.763053562444952 ], [ -9.2021711599344, 38.763354684122639 ], [ -9.202272904027202, 38.76351813965973 ], [ -9.202305868012063, 38.763560079415932 ], [ -9.202503707731694, 38.763877913087754 ], [ -9.202660805876111, 38.764209398347404 ], [ -9.202775649016866, 38.7645513429825 ], [ -9.202847130588736, 38.764900454011674 ], [ -9.202874561568198, 38.765253369392696 ], [ -9.202857677132792, 38.765606690397391 ], [ -9.202805561889431, 38.765905803424843 ], [ -9.2028110080704, 38.765975871240926 ], [ -9.202794123233803, 38.766329192200317 ], [ -9.202733084492197, 38.766679516082014 ], [ -9.202628479049265, 38.767023469016848 ], [ -9.202481313723878, 38.767357738444439 ], [ -9.202293005276525, 38.767679105019084 ], [ -9.202065366785192, 38.767984473619521 ], [ -9.20180059020117, 38.768270903163703 ], [ -9.201501225252125, 38.768535634941379 ], [ -9.201170154895117, 38.768776119191088 ], [ -9.200810567555655, 38.768990039665297 ], [ -9.200434194948162, 38.769171352705257 ], [ -9.200374444467309, 38.769514204846168 ], [ -9.200269823823406, 38.76985815572511 ], [ -9.200122641902286, 38.770192422261729 ], [ -9.199934315624231, 38.770513785138149 ], [ -9.199706658238926, 38.77081914926864 ], [ -9.199441861879631, 38.771105573614207 ], [ -9.19914247646448, 38.771370299514601 ], [ -9.198811385147689, 38.771610777264932 ], [ -9.198451776556679, 38.771824690680248 ], [ -9.198067114082452, 38.772009979411379 ], [ -9.197762364882049, 38.77212623089715 ], [ -9.197692224243895, 38.772285509521964 ], [ -9.197503881681211, 38.772606868600576 ], [ -9.197276207374649, 38.77291222812935 ], [ -9.197011393620446, 38.773198647113581 ], [ -9.196711990504303, 38.773463366944611 ], [ -9.196380881350944, 38.773703837975987 ], [ -9.196021254959643, 38.773917744087441 ], [ -9.195636574892903, 38.774103025000144 ], [ -9.195230546114184, 38.774257896127814 ], [ -9.194807079296135, 38.774380865772038 ], [ -9.194370253143584, 38.774470749496039 ], [ -9.193953974689082, 38.774522956838567 ], [ -9.193911708366013, 38.774579638643743 ], [ -9.193646874965253, 38.774866050199705 ], [ -9.193347452381845, 38.775130761609446 ], [ -9.193016324128072, 38.77537122330758 ], [ -9.192656679187241, 38.775585119263731 ], [ -9.1922719813006, 38.775770389296852 ], [ -9.191865935603314, 38.775925248925461 ], [ -9.19144245293108, 38.776048206561903 ], [ -9.191005612141499, 38.776138077885058 ], [ -9.190559620813699, 38.776193997252641 ], [ -9.19010877470539, 38.776215426042882 ], [ -9.189657416358623, 38.776202157845077 ], [ -9.189209893253851, 38.776154320449031 ], [ -9.188770515916225, 38.776072374613932 ], [ -9.188343516378536, 38.77595710962877 ], [ -9.187933007401805, 38.775809635706977 ], [ -9.187542942847061, 38.775631373288711 ], [ -9.187177079580794, 38.775424039354164 ], [ -9.187068318011356, 38.775348642572609 ], [ -9.186999498796135, 38.775423056829673 ], [ -9.186700048964914, 38.775687751558358 ], [ -9.186368895422225, 38.775928194745632 ], [ -9.186009227395092, 38.776142070539393 ], [ -9.185624508847258, 38.776327318952788 ], [ -9.185218445113032, 38.776482155712571 ], [ -9.185150340290022, 38.776501925435092 ], [ -9.184746628027105, 38.776655863167953 ], [ -9.18432312824622, 38.776778795218831 ], [ -9.18388627347556, 38.776868640102272 ], [ -9.183440271429012, 38.776924532430712 ], [ -9.182989417967589, 38.776945933842853 ], [ -9.182893709100142, 38.776943114719863 ], [ -9.182892239690164, 38.776946449558409 ], [ -9.18270381837627, 38.777267785631032 ], [ -9.182476065926414, 38.777573117173702 ], [ -9.182211175389646, 38.777859503461102 ], [ -9.181911697591431, 38.778124186199342 ], [ -9.181580516576078, 38.77836461609914 ], [ -9.181220821835314, 38.778578477436305 ], [ -9.180836077590291, 38.778763710363229 ], [ -9.180429989422935, 38.778918530755831 ], [ -9.180006468578243, 38.779041447404381 ], [ -9.179569594281702, 38.779131276382614 ], [ -9.179123574435364, 38.779187152456174 ], [ -9.178672705071765, 38.779208537420388 ], [ -9.178274389779792, 38.779196790264855 ], [ -9.178187822734557, 38.77927329169885 ], [ -9.177856623745598, 38.779513711245158 ], [ -9.177791446886545, 38.77955245931544 ], [ -9.177465420523598, 38.779789121079354 ], [ -9.177105706142076, 38.780002969967626 ], [ -9.176900567556714, 38.780101721179278 ], [ -9.176919569849836, 38.780347277911552 ], [ -9.176902555400064, 38.780700596103863 ], [ -9.176841379027371, 38.781050907550473 ], [ -9.176736629260617, 38.781394838501541 ], [ -9.176589314308469, 38.781729076608038 ], [ -9.17640085237243, 38.782050402825547 ], [ -9.176173058008853, 38.782355722421073 ], [ -9.175908124670501, 38.782642094784258 ], [ -9.175608603595141, 38.782906761755299 ], [ -9.17527737924401, 38.783147174196657 ], [ -9.174917641526344, 38.783361016552234 ], [ -9.174532855077386, 38.783546229157245 ], [ -9.174126725885721, 38.7837010280833 ], [ -9.173703165591652, 38.783823922327414 ], [ -9.17326625380081, 38.783913728179151 ], [ -9.172820198776549, 38.783969580626916 ], [ -9.172369296890389, 38.783990941693638 ], [ -9.171917891221867, 38.783977605621054 ], [ -9.171470329707393, 38.78392970085293 ], [ -9.171030923242148, 38.783847688797515 ], [ -9.170866655748043, 38.783803323625811 ], [ -9.170660711013367, 38.783863071253265 ], [ -9.170684724924797, 38.78417372010022 ], [ -9.170667679197448, 38.784527037594316 ], [ -9.170606469390986, 38.784877346017062 ], [ -9.17050168435618, 38.785221271647643 ], [ -9.170354332641303, 38.785555502188181 ], [ -9.170165832801901, 38.78587681866702 ], [ -9.169937999759396, 38.786182126444885 ], [ -9.169673027339122, 38.786468485025154 ], [ -9.169373467155344, 38.786733136380683 ], [ -9.169042204046066, 38.786973531524275 ], [ -9.168682428293959, 38.787187355066415 ], [ -9.16829760490074, 38.787372547523461 ], [ -9.168102231797201, 38.787446998831406 ], [ -9.16812055435547, 38.78768411802065 ], [ -9.168103495515593, 38.788037435117161 ], [ -9.168042270512919, 38.788387742203199 ], [ -9.167937468344469, 38.788731665570786 ], [ -9.167790097723449, 38.789065892943782 ], [ -9.167601577387437, 38.789387205380976 ], [ -9.167373722455213, 38.789692508281995 ], [ -9.167108726962931, 38.789978861197106 ], [ -9.166809142747066, 38.790243506153701 ], [ -9.166477854877124, 38.79048389422617 ], [ -9.1661180538743, 38.790697710093077 ], [ -9.165733204983585, 38.790882894344669 ], [ -9.165327014795219, 38.791037663325596 ], [ -9.164903395537261, 38.791160526321335 ], [ -9.16446642738352, 38.79125029992241 ], [ -9.164020319140475, 38.791306119427901 ], [ -9.163965430353329, 38.791308715486871 ], [ -9.163909641331452, 38.791627799610367 ], [ -9.163804814823004, 38.791971719420353 ], [ -9.163657418450581, 38.792305941754016 ], [ -9.163468871199738, 38.792627247718599 ], [ -9.163240988448473, 38.792932542775993 ], [ -9.162975964500884, 38.793218886551998 ], [ -9.162676351467562, 38.793483521161917 ], [ -9.162345034695621, 38.793723897779778 ], [ -9.161985204984717, 38.79393770119443 ], [ -9.161728288028518, 38.794061308550077 ], [ -9.161631529795693, 38.794165845573701 ], [ -9.161557216027525, 38.794265397560849 ], [ -9.161292180439103, 38.794551737612565 ], [ -9.160992555611184, 38.794816368006352 ], [ -9.160661227004514, 38.795056739956784 ], [ -9.160301385532771, 38.795270538297665 ], [ -9.159916496830858, 38.795455703787994 ], [ -9.159510267872621, 38.795610452953142 ], [ -9.159086611259699, 38.7957332952694 ], [ -9.158649607525859, 38.795823047526483 ], [ -9.158485569839971, 38.795843563471429 ], [ -9.158128525586989, 38.796055687107611 ], [ -9.157743626924253, 38.796240845549299 ], [ -9.157337388678467, 38.796395587263426 ], [ -9.156913723540777, 38.796518421798105 ], [ -9.156476712127105, 38.79660816601799 ], [ -9.156030563660801, 38.796663955505217 ], [ -9.155579575413807, 38.796685252889226 ], [ -9.155263130643574, 38.796675861121393 ], [ -9.154977588142513, 38.796882985068187 ], [ -9.154617720235018, 38.797096766193079 ], [ -9.154232806689238, 38.797281913235302 ], [ -9.153826554718435, 38.79743664289785 ], [ -9.15340287714602, 38.797559464844916 ], [ -9.152965854707757, 38.797649196062437 ], [ -9.152519696733236, 38.797704972257783 ], [ -9.152068700586035, 38.797726256188461 ], [ -9.151617210253985, 38.797712842839346 ], [ -9.151169574489263, 38.797664861398701 ], [ -9.150730104902419, 38.797582774013513 ], [ -9.150303034414856, 38.797467371336545 ], [ -9.150030226359322, 38.797369289863084 ], [ -9.149594510236154, 38.797356337471982 ], [ -9.149146877892745, 38.797308348229961 ], [ -9.148707412657716, 38.797226253170294 ], [ -9.148280347410525, 38.797110843019688 ], [ -9.147869795544933, 38.796963229390137 ], [ -9.147479711334704, 38.796784834067836 ], [ -9.14711385183508, 38.796577375313305 ], [ -9.147064217650202, 38.796542947717484 ], [ -9.146977440445401, 38.796526735475112 ], [ -9.146550382049796, 38.796411318893199 ], [ -9.146139837665334, 38.796263699064845 ], [ -9.145749761493684, 38.796085297835873 ], [ -9.145383910512621, 38.795877833523775 ], [ -9.145045808281552, 38.795643304360951 ], [ -9.144738710999476, 38.795383969241541 ], [ -9.14446557614257, 38.795102325957423 ], [ -9.144229033983549, 38.794801087133422 ], [ -9.144031362267075, 38.794483154093719 ], [ -9.143874464284805, 38.794151588911781 ], [ -9.143770772736318, 38.79384217651657 ], [ -9.143763622186162, 38.793834802928068 ], [ -9.143690077848097, 38.793741140446976 ], [ -9.143671225427118, 38.793721699916816 ], [ -9.143434691268464, 38.793420459308045 ], [ -9.143237027000424, 38.793102524751589 ], [ -9.143080135842931, 38.792770958335495 ], [ -9.142965528254388, 38.792428953397028 ], [ -9.142894307403925, 38.792079803762469 ], [ -9.142867158568979, 38.791726872020767 ], [ -9.142880836683194, 38.79144564063035 ], [ -9.142851097120053, 38.791432037251376 ], [ -9.142485278430414, 38.791224563267043 ], [ -9.142147207836018, 38.790990025108925 ], [ -9.142043000746989, 38.790902013839499 ], [ -9.141932454375212, 38.790898719813868 ], [ -9.141484867017832, 38.790850700551836 ], [ -9.141045449763281, 38.790768575931907 ], [ -9.14061843502866, 38.790653136965531 ], [ -9.140207935720985, 38.790505495542263 ], [ -9.139817905607574, 38.790327073715986 ], [ -9.139452101222407, 38.790119590002497 ], [ -9.139114045675951, 38.789885042821034 ], [ -9.138806994717431, 38.78962569123923 ], [ -9.138642588826738, 38.789456127153215 ], [ -9.138573398075296, 38.789397684229399 ], [ -9.138300310531674, 38.789116025616842 ], [ -9.138063814390488, 38.788814773394215 ], [ -9.137866186953165, 38.788496829014619 ], [ -9.137709331084926, 38.788165254660655 ], [ -9.13759475690434, 38.787823243745919 ], [ -9.137523567258858, 38.787474090154191 ], [ -9.137496447125498, 38.787121156512441 ], [ -9.137513657037895, 38.78676784180356 ], [ -9.137575030602127, 38.78641754863078 ], [ -9.137679976124277, 38.786073650449197 ], [ -9.137827482333092, 38.785739459079828 ], [ -9.138016128141683, 38.78541819281903 ], [ -9.138226079987035, 38.785137069311205 ], [ -9.138263084900347, 38.784925845530715 ], [ -9.138174447553542, 38.784738469850154 ], [ -9.138059877003018, 38.784396459149896 ], [ -9.137988688867747, 38.784047305624178 ], [ -9.137961568110317, 38.783694371899323 ], [ -9.137978775270479, 38.78334105695906 ], [ -9.138040143980929, 38.782990763408854 ], [ -9.138093703974805, 38.782815240133743 ], [ -9.138111060794472, 38.782716165899934 ], [ -9.138215998692312, 38.782372267128807 ], [ -9.138363495133746, 38.782038075009197 ], [ -9.13855212912604, 38.781716807844717 ], [ -9.138780083586418, 38.78141155942761 ], [ -9.139045162858245, 38.781125269251007 ], [ -9.139344813869094, 38.780860694208293 ], [ -9.139676150726466, 38.780620382051808 ], [ -9.140035982513922, 38.780406646866268 ], [ -9.140231959390324, 38.780312391589177 ], [ -9.14020355355451, 38.780252342796153 ], [ -9.140088981001346, 38.779910333859974 ], [ -9.140017787935701, 38.779561181378654 ], [ -9.139990659367793, 38.779208247968505 ], [ -9.140007855912753, 38.778854932610187 ], [ -9.140069211305642, 38.778504637913265 ], [ -9.140174134027777, 38.778160737347548 ], [ -9.140321613027686, 38.777826542757069 ], [ -9.140510227480677, 38.777505272469291 ], [ -9.1407381604922, 38.777200020306587 ], [ -9.141003216612216, 38.776913725798209 ], [ -9.141113000641667, 38.776816783213462 ], [ -9.141105420990719, 38.776718189731575 ], [ -9.141122611701881, 38.776364874142381 ], [ -9.14118395976085, 38.776014578814539 ], [ -9.141288873719642, 38.775670677223957 ], [ -9.141436342611236, 38.775336481224571 ], [ -9.141624945708344, 38.775015209157431 ], [ -9.141852866225806, 38.774709954862089 ], [ -9.142117908833919, 38.774423657888342 ], [ -9.14241752081335, 38.774159075195108 ], [ -9.142748816647435, 38.773918754608481 ], [ -9.142902891463695, 38.773827221803806 ], [ -9.142912068428615, 38.773797137038393 ], [ -9.143059526032799, 38.773462939038374 ], [ -9.143169447149342, 38.773275683060014 ], [ -9.143174935957358, 38.773263243080265 ], [ -9.143363525935879, 38.772941968272704 ], [ -9.14359143256253, 38.772636710667712 ], [ -9.143856460641381, 38.772350409846993 ], [ -9.144156057592998, 38.772085822806538 ], [ -9.144487338045414, 38.771845497414304 ], [ -9.144678809181231, 38.771731740424265 ], [ -9.144518240728356, 38.771527186132126 ], [ -9.144320634266418, 38.771209251484535 ], [ -9.144163788322793, 38.770877684719444 ], [ -9.144049212921004, 38.770535679177343 ], [ -9.143978010920833, 38.770186528690253 ], [ -9.143950867418861, 38.769833595855296 ], [ -9.14396804317435, 38.769480279647667 ], [ -9.144029372122887, 38.769129982685122 ], [ -9.144134263000717, 38.768786078459421 ], [ -9.14428170506328, 38.768451878849881 ], [ -9.144470277841789, 38.768130602232432 ], [ -9.144594327174834, 38.767964435746116 ], [ -9.144655519487584, 38.767763797241784 ], [ -9.144802957103771, 38.767429596977962 ], [ -9.144991524934891, 38.767108319531658 ], [ -9.145219406535528, 38.766803058794309 ], [ -9.145484406950819, 38.766516754377818 ], [ -9.145783973867774, 38.766252163312885 ], [ -9.146115222203651, 38.766011833506305 ], [ -9.146474961894334, 38.765798079212864 ], [ -9.146540639837431, 38.765766480142929 ], [ -9.146622035434184, 38.765581962015006 ], [ -9.146810590359554, 38.765260681708838 ], [ -9.147038458424747, 38.764955417512923 ], [ -9.147303444805253, 38.764669109072493 ], [ -9.14760299732321, 38.764404513457016 ], [ -9.147934231034515, 38.764164178617129 ], [ -9.148293956015847, 38.763950418856133 ], [ -9.148338976072765, 38.76392875723684 ], [ -9.148361912875334, 38.763853534153988 ], [ -9.148509325448837, 38.763519329335679 ], [ -9.148697866616812, 38.76319804606031 ], [ -9.148841063371517, 38.763006197956777 ], [ -9.148412810679707, 38.762960258437197 ], [ -9.147973557892234, 38.762878157281683 ], [ -9.147546699838767, 38.762762740997552 ], [ -9.14713634791678, 38.762615121255656 ], [ -9.146746454473723, 38.762436719900833 ], [ -9.146380774727072, 38.762229255251448 ], [ -9.146042830586827, 38.761994725542877 ], [ -9.145735876729372, 38.7617353896742 ], [ -9.145462869249721, 38.761453745444243 ], [ -9.145226437194188, 38.761152505486614 ], [ -9.145028857247578, 38.760834571136158 ], [ -9.144943460714696, 38.760654022755695 ], [ -9.144617276433447, 38.760890689694286 ], [ -9.144257555395686, 38.761104438188831 ], [ -9.143872805722062, 38.76128954998169 ], [ -9.143466733047367, 38.761444242115701 ], [ -9.143043248467798, 38.761567024616809 ], [ -9.142606430859782, 38.761656714851149 ], [ -9.142160487579405, 38.761712448921124 ], [ -9.141891483160535, 38.761725124986377 ], [ -9.1416856105542, 38.761784811280272 ], [ -9.141767887588149, 38.761889649573845 ], [ -9.141965456196006, 38.762207589536509 ], [ -9.142122272162748, 38.762539160129769 ], [ -9.142236824776477, 38.762881168318749 ], [ -9.142308010269183, 38.763230320509315 ], [ -9.142335142468303, 38.763583254261988 ], [ -9.142317959428652, 38.763936570670808 ], [ -9.142256625979972, 38.764286867095194 ], [ -9.142151732164605, 38.764630769929504 ], [ -9.142004287579358, 38.764964967095125 ], [ -9.141815711675136, 38.765286239941638 ], [ -9.141587820106894, 38.76559149424984 ], [ -9.141322807264558, 38.765877790038019 ], [ -9.141023225152569, 38.766142369883767 ], [ -9.140691958820922, 38.766382685488736 ], [ -9.140332198583993, 38.766596422229618 ], [ -9.139947409294598, 38.766781521459016 ], [ -9.139541296969229, 38.766936200340716 ], [ -9.139117773086122, 38.767058969028326 ], [ -9.138680916900421, 38.76714864502101 ], [ -9.13823493613994, 38.76720436455831 ], [ -9.137784126460758, 38.767225590943632 ], [ -9.137332830053991, 38.767212119716326 ], [ -9.136885393803194, 38.767164080622194 ], [ -9.136446127396438, 38.767081936363624 ], [ -9.136019261797339, 38.766966478141114 ], [ -9.135608908475975, 38.766818818029634 ], [ -9.135219019793141, 38.766640378262878 ], [ -9.134853350920279, 38.766432877529304 ], [ -9.134515423662442, 38.766198314411874 ], [ -9.134208492533151, 38.765938948131456 ], [ -9.133935513408233, 38.765657276779777 ], [ -9.133699115060612, 38.765356013251662 ], [ -9.133541414138303, 38.765102184645443 ], [ -9.133295331480889, 38.765280677649976 ], [ -9.132935554140285, 38.765494391879876 ], [ -9.132550751064906, 38.765679466963981 ], [ -9.132463242738496, 38.765712790702878 ], [ -9.132481849991997, 38.765731991168636 ], [ -9.132718244548569, 38.766033257191722 ], [ -9.132915785151262, 38.766351212614936 ], [ -9.133072568981467, 38.766682795557877 ], [ -9.133133217622955, 38.766863930216623 ], [ -9.133169791280226, 38.766901668645609 ], [ -9.133406192667469, 38.76720293312755 ], [ -9.13360373963763, 38.767520887241325 ], [ -9.133760529310772, 38.767852469119177 ], [ -9.133875051227944, 38.768194485617492 ], [ -9.133946201916508, 38.76854364306201 ], [ -9.133973295538853, 38.768896578962561 ], [ -9.133956070521108, 38.769249894392409 ], [ -9.13389469209713, 38.76960018672024 ], [ -9.133789750742286, 38.769944082379766 ], [ -9.133642256511155, 38.770278269361356 ], [ -9.133453629332754, 38.770599529112516 ], [ -9.13322568535588, 38.770904767540038 ], [ -9.132960619475281, 38.771191044815076 ], [ -9.132660984206334, 38.771455603693418 ], [ -9.132329665111147, 38.771695896078583 ], [ -9.131969853012466, 38.771909607570848 ], [ -9.131585013262812, 38.772094679765921 ], [ -9.131374158786992, 38.772174965233276 ], [ -9.131066446713664, 38.772398127991366 ], [ -9.130738201254635, 38.772593083018094 ], [ -9.130593471804229, 38.77272086155142 ], [ -9.130310439306069, 38.772926120919017 ], [ -9.13036062814464, 38.773006900874201 ], [ -9.130517415458293, 38.773338486836067 ], [ -9.130631931297351, 38.773680506284983 ], [ -9.130642495037172, 38.773732353269388 ], [ -9.130655436706602, 38.77377100531821 ], [ -9.130726577870544, 38.774120164529101 ], [ -9.130748962237663, 38.774411897496911 ], [ -9.130895393767499, 38.774721571844154 ], [ -9.131009913759014, 38.775063590789351 ], [ -9.131081058067624, 38.775412749668156 ], [ -9.131108140916922, 38.775765685976559 ], [ -9.131105044773237, 38.775829137936157 ], [ -9.131132280495432, 38.775872971566784 ], [ -9.131289077923425, 38.776204556201826 ], [ -9.131403602312549, 38.776546574618983 ], [ -9.131474750166099, 38.776895733125492 ], [ -9.131501835673483, 38.777248669220967 ], [ -9.13148459733871, 38.777601983976751 ], [ -9.131423200523621, 38.777952274767998 ], [ -9.131318235880451, 38.77829616804317 ], [ -9.131170713687846, 38.778630351815515 ], [ -9.130982054143928, 38.778951607563371 ], [ -9.130754073709062, 38.779256841232026 ], [ -9.130518109821601, 38.779511644310936 ], [ -9.130527790593298, 38.779637805564491 ], [ -9.13051054712877, 38.779991120105407 ], [ -9.130449143741174, 38.780341410333882 ], [ -9.130344171145978, 38.780685302703809 ], [ -9.130232752564797, 38.780937684067176 ], [ -9.130258798197259, 38.78097960020888 ], [ -9.130415603301831, 38.78131118563514 ], [ -9.130530132234362, 38.781653204560222 ], [ -9.130601281454235, 38.782002363286459 ], [ -9.130628365137538, 38.782355299311348 ], [ -9.130611121805677, 38.782708613706966 ], [ -9.130549716868455, 38.783058903851824 ], [ -9.130444741056175, 38.783402796200647 ], [ -9.130297204754905, 38.783736978775536 ], [ -9.130108528298528, 38.784058233066375 ], [ -9.129880528310188, 38.784363465032378 ], [ -9.129615400223914, 38.784649734906814 ], [ -9.129315697154095, 38.784914285516621 ], [ -9.128984305315827, 38.785154568844789 ], [ -9.128624416232528, 38.785368270578729 ], [ -9.128239495998319, 38.785553332408021 ], [ -9.127833251891296, 38.785707971856624 ], [ -9.127409596659433, 38.785830699457804 ], [ -9.127341705210791, 38.785844625335628 ], [ -9.12704232212255, 38.785958584352485 ], [ -9.126618663998553, 38.786081309118167 ], [ -9.126181675585075, 38.786170939838222 ], [ -9.12573556588405, 38.78622661318829 ], [ -9.125284631794017, 38.786247792916711 ], [ -9.12483321670488, 38.786234275012269 ], [ -9.124385668643773, 38.786186189670524 ], [ -9.123946298376072, 38.786104000039451 ], [ -9.123519337866046, 38.785988497756769 ], [ -9.123108899498108, 38.785840795322009 ], [ -9.122718936452268, 38.785662315376726 ], [ -9.122353204616159, 38.785454776996509 ], [ -9.122015226401095, 38.785220179127123 ], [ -9.121817867786509, 38.785053405946726 ], [ -9.121579534439135, 38.785102280940933 ], [ -9.121133427423811, 38.785157936689195 ], [ -9.120682498316604, 38.785179098589438 ], [ -9.120478015234916, 38.785172967234971 ], [ -9.120344275212307, 38.785200391672909 ], [ -9.119898166525582, 38.785256042724605 ], [ -9.119447236333606, 38.785277199870144 ], [ -9.118995827988735, 38.785263659315945 ], [ -9.118548289453107, 38.785215551475737 ], [ -9.118108931400295, 38.785133339714214 ], [ -9.117681985676835, 38.785017815882348 ], [ -9.117271564524627, 38.784870092687214 ], [ -9.116881620957749, 38.784691592970375 ], [ -9.116515910676094, 38.784484035997885 ], [ -9.11617795588325, 38.78424942089454 ], [ -9.115871011357529, 38.783990007382108 ], [ -9.115598033103268, 38.783708294007276 ], [ -9.115361649884402, 38.783406994069708 ], [ -9.115164137914425, 38.783089009481827 ], [ -9.115021192535393, 38.782786585520491 ], [ -9.114808111640246, 38.782746706229872 ], [ -9.114381185303593, 38.78263117003462 ], [ -9.113970784504877, 38.78248343491795 ], [ -9.113580862062054, 38.7823049238362 ], [ -9.113215173471469, 38.782097356164911 ], [ -9.112877240727704, 38.781862731131895 ], [ -9.112570318396637, 38.781603308554523 ], [ -9.112297362268778, 38.781321587066792 ], [ -9.112062330333107, 38.781021974786498 ], [ -9.111858798381165, 38.78098387617537 ], [ -9.111431887148802, 38.780868328970648 ], [ -9.111021502399742, 38.780720583240175 ], [ -9.110631596797274, 38.780542062042585 ], [ -9.11046644162572, 38.780448310206381 ], [ -9.110024453753979, 38.780469013019037 ], [ -9.109573076756813, 38.780455435632611 ], [ -9.109125573915573, 38.780407291188659 ], [ -9.108686255559864, 38.780325043404545 ], [ -9.108259353153672, 38.780209484478206 ], [ -9.107848978521453, 38.780061727454822 ], [ -9.107459084228992, 38.779883195501753 ], [ -9.107093425501359, 38.779675608195539 ], [ -9.106755524045369, 38.779440964953132 ], [ -9.106448634125414, 38.77918152576725 ], [ -9.106175711219718, 38.778899789431797 ], [ -9.105939383558995, 38.77859846946744 ], [ -9.10574192682153, 38.778280467979435 ], [ -9.105626011019796, 38.7780351344799 ], [ -9.105180304386195, 38.777987166103642 ], [ -9.105048175830573, 38.777962423986374 ], [ -9.104881995673159, 38.778025647511171 ], [ -9.10445834451413, 38.77814829197559 ], [ -9.104021374813025, 38.778237839669799 ], [ -9.103575295391622, 38.778293428069347 ], [ -9.103124402856787, 38.778314521740974 ], [ -9.102987693567488, 38.778310401456899 ], [ -9.102858989508047, 38.778316422023046 ], [ -9.102684253685894, 38.778311155230696 ], [ -9.102567374838243, 38.778316622334003 ], [ -9.102496676358754, 38.778314491233694 ], [ -9.102166754707536, 38.778329922753016 ], [ -9.101715392055761, 38.778316314814397 ], [ -9.101267907265738, 38.77826814001898 ], [ -9.100828610493112, 38.77818586237651 ], [ -9.100401732993863, 38.778070274372581 ], [ -9.100234448071243, 38.778010027488506 ], [ -9.100045949666216, 38.777989732031791 ], [ -9.099917136688036, 38.777965604801587 ], [ -9.099921643625022, 38.777979082982974 ], [ -9.099965362070737, 38.778194102889536 ], [ -9.100078861342396, 38.778290068465473 ], [ -9.100351758180897, 38.778571819409514 ], [ -9.100588062472516, 38.778873150980495 ], [ -9.100785498191414, 38.779191161419909 ], [ -9.100942163528169, 38.77952278831733 ], [ -9.101056549220425, 38.779864838095321 ], [ -9.101127553106725, 38.780214016758727 ], [ -9.101154490762612, 38.780566961612649 ], [ -9.101138426513547, 38.780893363903203 ], [ -9.101344381068715, 38.781010300135918 ], [ -9.101682272634337, 38.7812449590974 ], [ -9.101989154548011, 38.781504410819991 ], [ -9.102262071329619, 38.781786156894491 ], [ -9.102498394475244, 38.782087484197859 ], [ -9.102695847777472, 38.782405491012739 ], [ -9.102852529257522, 38.782737114963616 ], [ -9.102966929497519, 38.783079162501487 ], [ -9.103037946195837, 38.783428339652843 ], [ -9.10306489480455, 38.783781283737319 ], [ -9.10304751514577, 38.784134595748988 ], [ -9.102985973942202, 38.784484873088971 ], [ -9.102942655088505, 38.784626590942224 ], [ -9.103239774423514, 38.784832916378001 ], [ -9.103546677552108, 38.785092363581107 ], [ -9.10381961436466, 38.785374105590918 ], [ -9.104055956164352, 38.785675429323582 ], [ -9.104253426564105, 38.785993433096159 ], [ -9.104410123420433, 38.786325054562489 ], [ -9.104524537167327, 38.786667100197519 ], [ -9.104595565372994, 38.787016276046096 ], [ -9.104622523378589, 38.787369219440478 ], [ -9.104605150915621, 38.787722531381334 ], [ -9.104543614637375, 38.788072809270538 ], [ -9.104438506539054, 38.788416679680424 ], [ -9.104308102560884, 38.788711764530063 ], [ -9.10426636786363, 38.788949319227513 ], [ -9.104161257229498, 38.789293189370838 ], [ -9.104013585947211, 38.78962734017459 ], [ -9.103824775650848, 38.789948553434257 ], [ -9.103793432687825, 38.789990482564427 ], [ -9.103763307353615, 38.79005864895575 ], [ -9.10357449482828, 38.790379861816731 ], [ -9.10352852000476, 38.790441363989451 ], [ -9.103581594693788, 38.79055368297437 ], [ -9.103682474969784, 38.790855261720694 ], [ -9.10377042145833, 38.791041375619088 ], [ -9.103884840176265, 38.79138342154981 ], [ -9.103955870435076, 38.791732597488583 ], [ -9.103982827555999, 38.792085540766806 ], [ -9.103965451278903, 38.792438852386269 ], [ -9.103903908293656, 38.792789129751931 ], [ -9.103798790659908, 38.793132999441148 ], [ -9.103651110129569, 38.793467149693882 ], [ -9.103462288425684, 38.793788362310877 ], [ -9.103234143570514, 38.794093543652487 ], [ -9.102968872393662, 38.79437975443917 ], [ -9.102669029388101, 38.794644238066738 ], [ -9.102337502117219, 38.794884447163128 ], [ -9.101977483409414, 38.795098068130571 ], [ -9.101951463767747, 38.795110568086443 ], [ -9.101894234786391, 38.795207916136292 ], [ -9.101666078780188, 38.795513094487092 ], [ -9.101517847678513, 38.795673017932053 ], [ -9.101390089385266, 38.795843903351525 ], [ -9.101124804402163, 38.796130110045041 ], [ -9.100824947281755, 38.796394589043807 ], [ -9.100493405723402, 38.796634793020289 ], [ -9.100133372693149, 38.796848408426023 ], [ -9.099748315672208, 38.797033377781965 ], [ -9.099341943256819, 38.797187919502754 ], [ -9.098918169431439, 38.797310545062999 ], [ -9.0984810758597, 38.797400073340519 ], [ -9.098034872556935, 38.797455641997836 ], [ -9.097583857323693, 38.797476715791838 ], [ -9.097132374331782, 38.797463091731956 ], [ -9.096684772262588, 38.797414901036433 ], [ -9.09624536240179, 38.797332607868277 ], [ -9.095818377094973, 38.797217004862752 ], [ -9.095407928965212, 38.797069205489755 ], [ -9.095017971286239, 38.79689063332475 ], [ -9.094652259893575, 38.796683008331748 ], [ -9.094314317001103, 38.796448330290843 ], [ -9.094007397272025, 38.796188859530055 ], [ -9.093734456471294, 38.795907095147534 ], [ -9.093498123001513, 38.795605750934136 ], [ -9.09330067259638, 38.795287729228718 ], [ -9.093144006415166, 38.794956092958195 ], [ -9.093029632748737, 38.794614036132018 ], [ -9.092958652512731, 38.794264853075589 ], [ -9.092931748666865, 38.79391190669908 ], [ -9.092949179661444, 38.793558596107381 ], [ -9.092962982599785, 38.79348010617813 ], [ -9.092972697252819, 38.793283196791002 ], [ -9.093034294240287, 38.792932924522852 ], [ -9.093139463530074, 38.792589063849022 ], [ -9.093287191696234, 38.792254926228701 ], [ -9.093476055514831, 38.791933729440089 ], [ -9.09370423569038, 38.791628566597197 ], [ -9.093969534393317, 38.791342376368618 ], [ -9.094269396438952, 38.791077914684891 ], [ -9.094600933903495, 38.790837728206476 ], [ -9.0946288456038, 38.790821168394864 ], [ -9.094602550248402, 38.790794021347679 ], [ -9.094366230495007, 38.790492678460481 ], [ -9.094311541282591, 38.790404589596186 ], [ -9.094138466580029, 38.790225906229587 ], [ -9.09390215068707, 38.789924562325815 ], [ -9.093704714702197, 38.78960654082023 ], [ -9.093548059645929, 38.789274904637779 ], [ -9.093433693702137, 38.788932847787066 ], [ -9.093386566280044, 38.78870099367883 ], [ -9.093243025112431, 38.788601300146354 ], [ -9.092936143455841, 38.788341825747686 ], [ -9.092663237392355, 38.788060058052771 ], [ -9.092426934990073, 38.787758710884283 ], [ -9.092229511683589, 38.787440686609472 ], [ -9.092072868371332, 38.7871090481799 ], [ -9.091958513124103, 38.786766989625811 ], [ -9.091887546680361, 38.786417805289176 ], [ -9.091883154899447, 38.786360171148658 ], [ -9.091560890192802, 38.786212561352635 ], [ -9.091195243814422, 38.786004924340055 ], [ -9.090857363200293, 38.785770235088961 ], [ -9.090550502413718, 38.785510754035265 ], [ -9.090277616651937, 38.785228980376147 ], [ -9.090041333787498, 38.784927627991678 ], [ -9.089843929066824, 38.784609599299287 ], [ -9.089687303209356, 38.784277957293092 ], [ -9.08957296411783, 38.783935896037683 ], [ -9.089502012375162, 38.783586709901037 ], [ -9.089475130666964, 38.783233761822878 ], [ -9.089492577230674, 38.782880450924452 ], [ -9.089554183393499, 38.782530179771641 ], [ -9.089659355221912, 38.782186321606787 ], [ -9.089671657365583, 38.782158495784365 ], [ -9.089602074656435, 38.782046389273006 ], [ -9.089445455767546, 38.781714746713156 ], [ -9.089331122175107, 38.781372685005955 ], [ -9.089260174409144, 38.781023498523687 ], [ -9.089233295117051, 38.7806705502094 ], [ -9.089242753836089, 38.780479010814076 ], [ -9.089084939872011, 38.780316040378054 ], [ -9.088848678623254, 38.780014685061161 ], [ -9.08865129315959, 38.779696653849818 ], [ -9.088494684015076, 38.779365009762351 ], [ -9.088380358931593, 38.779022946883359 ], [ -9.088309418357277, 38.778673759596415 ], [ -9.088282544870321, 38.778320810852293 ], [ -9.088299996629145, 38.777967499778633 ], [ -9.088361604911082, 38.777617228942965 ], [ -9.088466775762361, 38.777273371584627 ], [ -9.088614495742494, 38.776939239130861 ], [ -9.088803341706852, 38.776618049310159 ], [ -9.089031494532305, 38.776312895169475 ], [ -9.089296756653036, 38.776026715293689 ], [ -9.089596573236941, 38.775762265513755 ], [ -9.089928056798225, 38.775522092375631 ], [ -9.09028801500887, 38.775308508625258 ], [ -9.090332948632533, 38.775286922649144 ], [ -9.090426491798276, 38.774981043837855 ], [ -9.090574198075235, 38.774646908953827 ], [ -9.090763029351342, 38.774325716030482 ], [ -9.090991166644939, 38.774020558144713 ], [ -9.09125641253978, 38.773734373917463 ], [ -9.09155621236, 38.77346991922164 ], [ -9.091887678781214, 38.773229740650557 ], [ -9.092247619640407, 38.77301615100253 ], [ -9.092632568676692, 38.772831207017063 ], [ -9.092972395460908, 38.772701953902917 ], [ -9.092933066065804, 38.772618671598849 ], [ -9.092818731312061, 38.772276612804966 ], [ -9.092747776518268, 38.771927428004908 ], [ -9.092720884399805, 38.771574480125537 ], [ -9.092738313294754, 38.771221168286225 ], [ -9.092799894700851, 38.77087089506194 ], [ -9.092905034923335, 38.770527033715084 ], [ -9.093052720816839, 38.770192895711425 ], [ -9.093241529565104, 38.769871698832958 ], [ -9.093469642403477, 38.769566536194731 ], [ -9.093734862151251, 38.769280346463518 ], [ -9.09400656704304, 38.769040646860148 ], [ -9.093932137026131, 38.76902048556132 ], [ -9.093521855507669, 38.768872676741303 ], [ -9.09313205743933, 38.768694095407433 ], [ -9.092766497119003, 38.768486461611822 ], [ -9.092428695305321, 38.768251775219106 ], [ -9.092121905302662, 38.76799229663748 ], [ -9.091849081626656, 38.767710525040151 ], [ -9.091612851552117, 38.767409174287209 ], [ -9.09141548981736, 38.767091146780253 ], [ -9.091258896728233, 38.766759505501831 ], [ -9.091144579872346, 38.766417444509479 ], [ -9.091073639618985, 38.766068258168545 ], [ -9.091046758543669, 38.765715309420727 ], [ -9.091064194878308, 38.765361997393704 ], [ -9.091125780049184, 38.765011724664248 ], [ -9.091230920325474, 38.764667864490001 ], [ -9.091378602561479, 38.764333728325404 ], [ -9.091567403976342, 38.764012533934803 ], [ -9.091795505876194, 38.76370737440925 ], [ -9.091844712231374, 38.763654275495909 ], [ -9.091754906940091, 38.763509557133247 ], [ -9.091598320463945, 38.763177916028809 ], [ -9.091484008066031, 38.762835855108968 ], [ -9.091413070072811, 38.762486668738362 ], [ -9.09138618903815, 38.762133719858952 ], [ -9.091403623193681, 38.761780407599716 ], [ -9.091465203986791, 38.761430134539658 ], [ -9.091530313434729, 38.761217181661479 ], [ -9.091547280805072, 38.760873312450414 ], [ -9.091608860206891, 38.760523039279832 ], [ -9.091713992016373, 38.760179178523579 ], [ -9.091861663169484, 38.759845041641739 ], [ -9.092050450992213, 38.759523846405592 ], [ -9.092097503825666, 38.75946089377382 ], [ -9.091956870870755, 38.759163027007141 ], [ -9.091842563573687, 38.758820966145727 ], [ -9.091771628220407, 38.758471779727159 ], [ -9.091744747339478, 38.758118830693832 ], [ -9.091762179161186, 38.7577655181762 ], [ -9.09182375515552, 38.757415244755776 ], [ -9.091928881680262, 38.757071383696868 ], [ -9.092076545722366, 38.7567372464625 ], [ -9.092265324676374, 38.756416050827333 ], [ -9.092269313829183, 38.756410713435621 ], [ -9.09226463427224, 38.756403171781038 ], [ -9.092108061667421, 38.756071530792617 ], [ -9.091993758891173, 38.755729469846408 ], [ -9.091981332153923, 38.755668295947032 ], [ -9.091941817940265, 38.755617880485936 ], [ -9.091744488328374, 38.755299852503995 ], [ -9.091587920633678, 38.754968210695253 ], [ -9.091473622199521, 38.754626149122288 ], [ -9.091402693218113, 38.754276962156005 ], [ -9.091375816156779, 38.753924012744065 ], [ -9.091393249209158, 38.753570700020553 ], [ -9.091454823833519, 38.753220426568973 ], [ -9.091559946400976, 38.752876565653928 ], [ -9.091707603936715, 38.752542428737073 ], [ -9.091740001557701, 38.752487303883342 ], [ -9.091674758012218, 38.752382148484344 ], [ -9.091518197294313, 38.752050506332964 ], [ -9.091403904135321, 38.751708444459283 ], [ -9.09133297867673, 38.751359257237119 ], [ -9.091306103352032, 38.751006307616585 ], [ -9.091323536338226, 38.750652994733791 ], [ -9.091385109094322, 38.750302721173725 ], [ -9.09149022800951, 38.749958860202078 ], [ -9.091637880144241, 38.749624723281073 ], [ -9.09182664300792, 38.749303528182359 ], [ -9.092054698278256, 38.748998368003974 ], [ -9.092105597807837, 38.748943430619562 ], [ -9.092263969316718, 38.748673942943157 ], [ -9.092362038684499, 38.748542714378075 ], [ -9.092356613969173, 38.748526478871426 ], [ -9.092285687352982, 38.748177292058564 ], [ -9.092258808861015, 38.747824342511876 ], [ -9.092276236700886, 38.747471029366743 ], [ -9.092337802381266, 38.747120755210751 ], [ -9.092442912359582, 38.746776893315307 ], [ -9.092590553782429, 38.746442755151556 ], [ -9.092779304262448, 38.746121558503177 ], [ -9.093007345596654, 38.745816396483136 ], [ -9.093272481293351, 38.745530207752459 ], [ -9.093572157738189, 38.745265748227659 ], [ -9.093903488795018, 38.745025564548797 ], [ -9.094263283604345, 38.744811969563663 ], [ -9.094648077311533, 38.744627020063383 ], [ -9.095054164428845, 38.744472496983846 ], [ -9.095477634510335, 38.744349888263095 ], [ -9.095914409796407, 38.744260374519598 ], [ -9.096059415897544, 38.744242306679546 ], [ -9.095959332454063, 38.744080998216646 ], [ -9.095802770965992, 38.743749361360692 ], [ -9.095688471511716, 38.743407303289089 ], [ -9.095617534293639, 38.743058118339022 ], [ -9.09559064185879, 38.742705169438786 ], [ -9.095608052549236, 38.742351855717565 ], [ -9.095669598038961, 38.742001579768541 ], [ -9.095774684979983, 38.741657714880475 ], [ -9.095804274321663, 38.741590736848238 ], [ -9.095811610077732, 38.741441862912026 ], [ -9.095873153882522, 38.741091586824723 ], [ -9.095978238600884, 38.740747721730393 ], [ -9.09612585162281, 38.740413579131022 ], [ -9.096314570834556, 38.740092376853106 ], [ -9.096542578334333, 38.739787208063902 ], [ -9.096807677956308, 38.739501011489693 ], [ -9.097107316433524, 38.739236543122601 ], [ -9.097438607995416, 38.738996349687909 ], [ -9.097798362162752, 38.738782744127398 ], [ -9.098183114472155, 38.738597783334079 ], [ -9.098524783493614, 38.738467749193013 ], [ -9.09857513105306, 38.738353767118682 ], [ -9.098763833981044, 38.73803256098541 ], [ -9.098831298098247, 38.73794225820324 ], [ -9.098869055555513, 38.737856777428121 ], [ -9.099020640612036, 38.737598748884196 ], [ -9.098996394470921, 38.737280698993409 ], [ -9.099013787611236, 38.736927384673855 ], [ -9.099075312324583, 38.736577106884468 ], [ -9.099146920092812, 38.736342737538187 ], [ -9.099122356432224, 38.736269230204137 ], [ -9.099051410325748, 38.735920047041027 ], [ -9.099024504418216, 38.735567098688023 ], [ -9.099041897181687, 38.735213784269071 ], [ -9.099103420463019, 38.734863506384123 ], [ -9.099208481128302, 38.734519638340622 ], [ -9.099356066799327, 38.734185491669059 ], [ -9.09954475562586, 38.733864284235203 ], [ -9.099772729998806, 38.733559109256021 ], [ -9.100037794071397, 38.733272905517509 ], [ -9.100337394919016, 38.733008429080805 ], [ -9.100392498713086, 38.732968471606959 ], [ -9.100565263231637, 38.732815960048988 ], [ -9.100460207034553, 38.732501578959386 ], [ -9.100389258544027, 38.732152396421824 ], [ -9.100362347862001, 38.731799448218652 ], [ -9.100379733506635, 38.731446133472389 ], [ -9.100441247393462, 38.731095854786204 ], [ -9.100546296479163, 38.730751985475266 ], [ -9.100693868497132, 38.730417837082285 ], [ -9.100882541728703, 38.730096627489651 ], [ -9.101110498715023, 38.729791449935171 ], [ -9.101375543776795, 38.729505243229681 ], [ -9.101675124172498, 38.729240763462933 ], [ -9.101873572306562, 38.72909685060538 ], [ -9.101907549938943, 38.729060159310798 ], [ -9.102207126519639, 38.728795678210119 ], [ -9.102497653737448, 38.728584986359316 ], [ -9.102548106492023, 38.728297633915027 ], [ -9.102653141620994, 38.727953762731708 ], [ -9.102800698284918, 38.727619611722368 ], [ -9.10298935491303, 38.727298398794595 ], [ -9.103217294206399, 38.726993217218364 ], [ -9.103482320656118, 38.726707005843267 ], [ -9.10378188169989, 38.726442520804085 ], [ -9.104113092312762, 38.726202308986828 ], [ -9.104472762794888, 38.72598868351038 ], [ -9.104857429488554, 38.725803701459661 ], [ -9.105263388128733, 38.725649144084116 ], [ -9.105341166457395, 38.725626611400749 ], [ -9.105392078042009, 38.725511304855253 ], [ -9.105580717631932, 38.725190087853342 ], [ -9.105808639283573, 38.724884901345419 ], [ -9.106073647657899, 38.724598684228617 ], [ -9.106373190366654, 38.724334192693014 ], [ -9.1067043825614, 38.724093973687225 ], [ -9.107064034719599, 38.723880340399397 ], [ -9.107222934458751, 38.723803920462274 ], [ -9.107284949415908, 38.723600834300157 ], [ -9.10743247585506, 38.72326667759507 ], [ -9.107621100549228, 38.722945457374273 ], [ -9.107849006507033, 38.722640266978033 ], [ -9.108113998540571, 38.722354045340964 ], [ -9.108413524418928, 38.722089548696715 ], [ -9.108726034811122, 38.721862862895861 ], [ -9.108800745507549, 38.721693626302411 ], [ -9.10898936004196, 38.721372403922118 ], [ -9.109217255267371, 38.721067210918157 ], [ -9.109482236099238, 38.720780986250283 ], [ -9.109781750414506, 38.720516486181374 ], [ -9.110112913638117, 38.720276257742213 ], [ -9.110472536526443, 38.720062614211862 ], [ -9.110857155879929, 38.719877612849103 ], [ -9.111052179903901, 38.719803344851648 ], [ -9.111339541581135, 38.719665122052675 ], [ -9.111745451323049, 38.719510542641729 ], [ -9.112168745119938, 38.719387875225848 ], [ -9.112531831109477, 38.719313383790265 ], [ -9.112603829581509, 38.719150263513441 ], [ -9.112792420514227, 38.718829035169009 ], [ -9.113020291556191, 38.718523834937145 ], [ -9.113285247855714, 38.718237601847221 ], [ -9.113584737525938, 38.717973092243291 ], [ -9.113915876229063, 38.717732853248016 ], [ -9.114275474957507, 38.717519198242073 ], [ -9.114473600138265, 38.717423888419269 ], [ -9.114518708921844, 38.717166687821425 ], [ -9.114531494971732, 38.717124797861793 ], [ -9.114517020091229, 38.716935392655571 ], [ -9.114534333933236, 38.716582075874705 ], [ -9.114595767348044, 38.716231789929971 ], [ -9.114700728067699, 38.715887908206717 ], [ -9.114848204676878, 38.715553742367469 ], [ -9.114871449037285, 38.715514145766967 ], [ -9.114902254746893, 38.715413215389241 ], [ -9.115049729483816, 38.715079049294047 ], [ -9.115238299071763, 38.714757817066776 ], [ -9.115466147050082, 38.714452612163448 ], [ -9.115731078789212, 38.714166373658479 ], [ -9.116030542638804, 38.713901857948116 ], [ -9.116361654509685, 38.713661612213855 ], [ -9.116721225652611, 38.713447949901344 ], [ -9.11710579336615, 38.713262928450312 ], [ -9.117163519944638, 38.713240939595671 ], [ -9.117283815792748, 38.712968329261329 ], [ -9.117472369959005, 38.712647093520303 ], [ -9.117700201833401, 38.712341884367042 ], [ -9.117965116941448, 38.712055640916937 ], [ -9.118264563792939, 38.711791119613856 ], [ -9.118278977123182, 38.71178066093492 ], [ -9.118331922478285, 38.711723451974777 ], [ -9.118631366597857, 38.71145892975337 ], [ -9.118962458508392, 38.71121867681677 ], [ -9.1193220096528, 38.711005006680018 ], [ -9.11970655752217, 38.710819976858176 ], [ -9.119857646504775, 38.710762418825176 ], [ -9.119867043660847, 38.710755599676801 ], [ -9.120226589762066, 38.710541926807409 ], [ -9.120611132779834, 38.710356894059146 ], [ -9.12101696963961, 38.710202283169792 ], [ -9.12144019230437, 38.710079582923051 ], [ -9.121876725395998, 38.709989974818733 ], [ -9.12232236542469, 38.709934321700715 ], [ -9.122463765810313, 38.709927678950876 ], [ -9.122527012422156, 38.709784318713872 ], [ -9.122715534879607, 38.709463074764216 ], [ -9.122943334420796, 38.709157855657118 ], [ -9.123208216882565, 38.708871600603899 ], [ -9.1234218940132, 38.708682815712599 ], [ -9.123483050212334, 38.708600873049321 ], [ -9.123747928487601, 38.708314616802049 ], [ -9.124047338395885, 38.708050081008366 ], [ -9.124378396367314, 38.707809813043269 ], [ -9.124737914171511, 38.707596126566543 ], [ -9.125122429620484, 38.707411079250626 ], [ -9.125528239905051, 38.70725645297356 ], [ -9.125598119311261, 38.707236189883155 ], [ -9.12568092332925, 38.707163026776584 ], [ -9.126011971705358, 38.706922754276498 ], [ -9.12637148015185, 38.706709062867809 ], [ -9.126755986570808, 38.706524010270499 ], [ -9.127161788239965, 38.706369378413399 ], [ -9.127584977460996, 38.706246656282197 ], [ -9.128021479177681, 38.706157025587395 ], [ -9.128467090202179, 38.706101349390359 ], [ -9.128491577824599, 38.706100197679312 ], [ -9.128564953599623, 38.706085130285196 ], [ -9.128751610899409, 38.706061807976411 ], [ -9.128760724808464, 38.706041143980428 ], [ -9.128949209680517, 38.705719890277287 ], [ -9.129176970916909, 38.705414659341535 ], [ -9.129441814723293, 38.70512839049848 ], [ -9.129741190295928, 38.704863840436644 ], [ -9.130072214395488, 38.704623556668444 ], [ -9.130431699117645, 38.70440985300592 ], [ -9.130816182592843, 38.704224787287025 ], [ -9.130869136859767, 38.704204606132883 ], [ -9.131086474774049, 38.704099992441115 ], [ -9.131177226236534, 38.704065406234562 ], [ -9.13125286977562, 38.704028995619595 ], [ -9.131658647431182, 38.703874348406153 ], [ -9.132081813994589, 38.703751610244879 ], [ -9.132518294627685, 38.703661963000641 ], [ -9.13296388634555, 38.703606269894145 ], [ -9.133414298471953, 38.703585067193757 ], [ -9.133865193937256, 38.703598559054257 ], [ -9.134312231021955, 38.703646615552174 ], [ -9.134751105144861, 38.703728773936653 ], [ -9.135177590294324, 38.703844243083722 ], [ -9.135587579704534, 38.703991911111125 ], [ -9.135977125385969, 38.704170356080681 ], [ -9.136342476130057, 38.704377859685188 ], [ -9.136680113622724, 38.704612423788383 ], [ -9.136736321316864, 38.70465996117975 ], [ -9.136748993743403, 38.70465513088832 ], [ -9.137172155774433, 38.704532374373841 ], [ -9.137608634361344, 38.704442708158972 ], [ -9.138054226538879, 38.704386995647042 ], [ -9.138504641626362, 38.704365773293262 ], [ -9.138509454950599, 38.704365917116384 ], [ -9.138796164611497, 38.704195443193633 ], [ -9.138868168063798, 38.704160778314993 ], [ -9.139053590722392, 38.703844643969362 ], [ -9.139281302789071, 38.70353939390926 ], [ -9.139546099045724, 38.703253102720439 ], [ -9.13984542914632, 38.702988527306694 ], [ -9.140176410289202, 38.702748215424641 ], [ -9.140535854983485, 38.702534481157066 ], [ -9.140920301744831, 38.70234938263664 ], [ -9.141326048425134, 38.702194702234472 ], [ -9.141749187855272, 38.702071929403594 ], [ -9.142182142094628, 38.701982966219205 ], [ -9.142544453940156, 38.701877839162954 ], [ -9.142980909309706, 38.701788153159633 ], [ -9.1434264804368, 38.701732420426225 ], [ -9.143876876843359, 38.701711177612538 ], [ -9.144327761611045, 38.70172462925953 ], [ -9.144774793123338, 38.701772645830879 ], [ -9.145213666852719, 38.701854764960089 ], [ -9.145640156791394, 38.701970195901083 ], [ -9.146050156127547, 38.702117827139446 ], [ -9.146439716776216, 38.702296237091161 ], [ -9.146805087384891, 38.7025037077862 ], [ -9.147142749448422, 38.702738241405143 ], [ -9.147270802654026, 38.702846519817534 ], [ -9.147602269021434, 38.702778394426005 ], [ -9.148047842300922, 38.702722644054887 ], [ -9.148498243152641, 38.702701383375945 ], [ -9.148949134615448, 38.702714817102155 ], [ -9.149396175008395, 38.702762815869661 ], [ -9.149835059718493, 38.702844917483411 ], [ -9.149893729063336, 38.702860793824996 ], [ -9.14995164863168, 38.70286701226339 ], [ -9.150390534570505, 38.702949111773179 ], [ -9.150817038955157, 38.703064523606734 ], [ -9.151227054834802, 38.703212136433564 ], [ -9.151616633965283, 38.70339052884696 ], [ -9.15166766970683, 38.703419505026517 ], [ -9.152026489188652, 38.703246700277845 ], [ -9.152432216114045, 38.70309198161214 ], [ -9.152855340914632, 38.702969168790787 ], [ -9.153291789154093, 38.702879444397446 ], [ -9.153737358159189, 38.70282367239556 ], [ -9.154187757472235, 38.70280238981303 ], [ -9.154197088557554, 38.702802667382976 ], [ -9.154369273251497, 38.702752687515996 ], [ -9.154805718162988, 38.702662957511571 ], [ -9.155251284523636, 38.702607179772379 ], [ -9.155701681901203, 38.702585891381531 ], [ -9.156152573367978, 38.702599297318727 ], [ -9.156599617242978, 38.702647268487688 ], [ -9.156769984370824, 38.702679128033097 ], [ -9.156842105664477, 38.702686866912622 ], [ -9.157280997801257, 38.702768940465994 ], [ -9.157297881518025, 38.702773508125162 ], [ -9.157493859197247, 38.702631162249553 ], [ -9.157853250571046, 38.702417375449045 ], [ -9.158063821269225, 38.702315949699404 ], [ -9.15816326018366, 38.702146314907871 ], [ -9.158390884941323, 38.701841028724623 ], [ -9.158655597914334, 38.701554695300302 ], [ -9.158954849558286, 38.701290071945557 ], [ -9.159285757826636, 38.701049706878742 ], [ -9.159645135929825, 38.700835914694835 ], [ -9.160029523024354, 38.700650754084236 ], [ -9.160435217536271, 38.700496008015875 ], [ -9.160533757307549, 38.700467398160981 ], [ -9.160546906516169, 38.700461064008209 ], [ -9.160952598810002, 38.700306316169659 ], [ -9.161375692034424, 38.700183472880163 ], [ -9.161812112056996, 38.70009371701677 ], [ -9.162257656476044, 38.700037912845872 ], [ -9.162708035070498, 38.700016597705073 ], [ -9.163158911093442, 38.700029976831615 ], [ -9.16360594301255, 38.700077921387283 ], [ -9.164044826296458, 38.700159969698888 ], [ -9.164471334845517, 38.700275331702137 ], [ -9.16472842647722, 38.700367856832855 ], [ -9.164843024067485, 38.700312647787229 ], [ -9.165248705935159, 38.700157885176772 ], [ -9.165671790590551, 38.700035026451062 ], [ -9.166108203983667, 38.699945254635686 ], [ -9.166553743776625, 38.69988943415067 ], [ -9.167004119792866, 38.699868102490669 ], [ -9.167454995310283, 38.699881465051909 ], [ -9.167902028801425, 38.699929393155699 ], [ -9.167968987117511, 38.699941908419802 ], [ -9.168115962499638, 38.699946263287714 ], [ -9.168562996779466, 38.699994188852045 ], [ -9.169001884794849, 38.700076218485528 ], [ -9.169428400400625, 38.700191562303665 ], [ -9.169838436538107, 38.700339109630789 ], [ -9.169925608557337, 38.700379009881615 ], [ -9.169967014312078, 38.700342385946861 ], [ -9.170297880713047, 38.700101990244598 ], [ -9.170657220580589, 38.699888164697072 ], [ -9.171041573439151, 38.699702968315982 ], [ -9.171447238044234, 38.699548184414681 ], [ -9.171870308016496, 38.699425303442737 ], [ -9.172306709447234, 38.69933550863999 ], [ -9.17275224011367, 38.699279664647712 ], [ -9.173202609927076, 38.699258309186881 ], [ -9.173653482225037, 38.699271647882881 ], [ -9.174100515511096, 38.699319552286717 ], [ -9.174539405240768, 38.699401561111742 ], [ -9.174965925252428, 38.699516884673805 ], [ -9.175375968445024, 38.699664412492218 ], [ -9.175581124681283, 38.699758304030013 ], [ -9.175880132449047, 38.699790340840643 ], [ -9.17631902694985, 38.699872342910183 ], [ -9.176745552486471, 38.699987659891946 ], [ -9.176956483154385, 38.700063545645804 ], [ -9.177044663585578, 38.700011066065102 ], [ -9.17711341317653, 38.699936667894129 ], [ -9.17741258910811, 38.699671998264442 ], [ -9.177743427061873, 38.699431581855329 ], [ -9.178102740924963, 38.6992177337562 ], [ -9.178487070472073, 38.699032513195888 ], [ -9.17889271468303, 38.698877703720576 ], [ -9.179015923920787, 38.698841908466626 ], [ -9.179035832461793, 38.698727772234356 ], [ -9.179140459450997, 38.698383836264298 ], [ -9.179287600109975, 38.698049592796771 ], [ -9.179475836873895, 38.697728260630861 ], [ -9.179703356486517, 38.697422934185759 ], [ -9.179967967479488, 38.697136553707011 ], [ -9.180267121290058, 38.696871876958532 ], [ -9.180597936813355, 38.696631452673017 ], [ -9.180957228152458, 38.696417596015742 ], [ -9.181341535298893, 38.69623236629797 ], [ -9.181747157448109, 38.696077547154083 ], [ -9.182170188629357, 38.695954629373034 ], [ -9.182606555307263, 38.695864796548967 ], [ -9.183052055593507, 38.695808913689312 ], [ -9.183102148831974, 38.695806533962404 ], [ -9.183103853733799, 38.695804245764428 ], [ -9.183368445171118, 38.695517857785653 ], [ -9.183667579641234, 38.695253172535089 ], [ -9.183998376225462, 38.695012738827316 ], [ -9.184357649209183, 38.694798871918323 ], [ -9.184741938760597, 38.694613631218147 ], [ -9.185147544244501, 38.694458800466926 ], [ -9.185570559850548, 38.694335870565325 ], [ -9.185825503533888, 38.694283377655161 ], [ -9.186222003631864, 38.694132017483234 ], [ -9.186645015397229, 38.694009083740546 ], [ -9.187081364327286, 38.693919234431569 ], [ -9.187526848704531, 38.693863334722401 ], [ -9.187977178885737, 38.693841922870376 ], [ -9.188428018589944, 38.693855205043754 ], [ -9.188875026634447, 38.693903053337714 ], [ -9.189313898717776, 38.693985007005736 ], [ -9.189740408848255, 38.69410027689463 ], [ -9.190150450020088, 38.694247753040464 ], [ -9.190540073746083, 38.694426015352377 ], [ -9.190905528067109, 38.694633347281822 ], [ -9.190956050876142, 38.694668409634836 ], [ -9.191317209806096, 38.694651227253317 ], [ -9.191768054915713, 38.694664496465187 ], [ -9.192215069941492, 38.694712331880154 ], [ -9.19265395051478, 38.694794272875704 ], [ -9.193080470562196, 38.694909530420638 ], [ -9.193490522982513, 38.695056994669869 ], [ -9.193880159180294, 38.695235245647112 ], [ -9.193924271887719, 38.695260269865095 ], [ -9.193937760773979, 38.695215894630159 ], [ -9.194084825971904, 38.694881633428892 ], [ -9.194272987990514, 38.694560278323337 ], [ -9.194500434293195, 38.694254923953778 ], [ -9.194764974117332, 38.693968510834793 ], [ -9.195064059585249, 38.693703797044769 ], [ -9.195394810249891, 38.693463331673165 ], [ -9.195754040838587, 38.693249430280957 ], [ -9.196138291927527, 38.693064152610212 ], [ -9.196543863251646, 38.692909282757043 ], [ -9.196966849329312, 38.692786311998631 ], [ -9.197403177059194, 38.692696424439255 ], [ -9.197848644927788, 38.692640485613239 ], [ -9.198298963450735, 38.692619034154504 ], [ -9.19874979645928, 38.692632276612592 ], [ -9.198786115709328, 38.692636161146268 ], [ -9.198946402927778, 38.692603137975986 ], [ -9.199391868880781, 38.692547193294807 ], [ -9.199842186220321, 38.692525735906976 ], [ -9.200293018789033, 38.692538972419115 ], [ -9.2007400254729, 38.69258677536596 ], [ -9.201178901983599, 38.692668684437535 ], [ -9.201605422286907, 38.69278391091003 ], [ -9.202015479279206, 38.692931345237433 ], [ -9.202405124321148, 38.69310956773154 ], [ -9.202770605248547, 38.693316862227171 ], [ -9.203108402495069, 38.693551232601465 ], [ -9.203315323860286, 38.693726008815126 ], [ -9.203427904068546, 38.693720640861038 ], [ -9.203878744482545, 38.693733863427511 ], [ -9.203977631708103, 38.69374443530085 ], [ -9.204121033894149, 38.693714884500906 ], [ -9.20456650223236, 38.693658920073901 ], [ -9.205016824524385, 38.693637442682366 ], [ -9.205467664565182, 38.693650659125481 ], [ -9.205914681168821, 38.693698442131193 ], [ -9.205921545619999, 38.693699722939414 ], [ -9.206079805565921, 38.693605466256606 ], [ -9.206464031105698, 38.693420155016703 ], [ -9.206745923192893, 38.693312482752319 ], [ -9.20708951259377, 38.69314676699306 ], [ -9.207495059875836, 38.69299185948698 ], [ -9.207918026758254, 38.692868849374214 ], [ -9.208354340324375, 38.692778921137958 ], [ -9.208799799196967, 38.692722940704094 ], [ -9.208867946267979, 38.692719688145516 ], [ -9.208926030207749, 38.692528460744064 ], [ -9.209073019987919, 38.692194181619669 ], [ -9.209261107611173, 38.6918728033123 ], [ -9.209488481257139, 38.691567420685864 ], [ -9.209752950862642, 38.691280974527174 ], [ -9.210051969225914, 38.691016223232921 ], [ -9.210382656545796, 38.690775716253789 ], [ -9.21074182815927, 38.690561769551472 ], [ -9.211126025210108, 38.690376443304345 ] ], [ [ -9.146145123927253, 38.712672332243002 ], [ -9.14623394291816, 38.712576300437384 ], [ -9.146105303368003, 38.712669700544701 ], [ -9.145745825541573, 38.712883452032202 ], [ -9.14540322972446, 38.713048396715074 ], [ -9.1454684028367, 38.713050339888206 ], [ -9.145680358977659, 38.712924308610404 ], [ -9.146064847162378, 38.712739192924126 ], [ -9.146107330514402, 38.712722997302414 ], [ -9.146145123927253, 38.712672332243002 ] ], [ [ -9.147040266292578, 38.71188110190888 ], [ -9.147399735220731, 38.711667346525189 ], [ -9.147784212182881, 38.711482225296237 ], [ -9.148043197778746, 38.711383487349821 ], [ -9.147969949443997, 38.711349947254909 ], [ -9.147604529951941, 38.711142481166476 ], [ -9.14749755342886, 38.711068187454885 ], [ -9.147416564353847, 38.711251923241718 ], [ -9.147228148811575, 38.711573205497601 ], [ -9.147000446146903, 38.711878470509646 ], [ -9.146911629037589, 38.711974502883322 ], [ -9.147040266292578, 38.71188110190888 ] ], [ [ -9.175444863192293, 38.727603014862595 ], [ -9.175834634521177, 38.727781323162922 ], [ -9.176200219493657, 38.727988698116228 ], [ -9.176538097541112, 38.728223142825222 ], [ -9.176845014803472, 38.728482399708597 ], [ -9.177118015462204, 38.728763972233139 ], [ -9.177354470207883, 38.729065148947036 ], [ -9.177552101568191, 38.729383029583182 ], [ -9.17770900585209, 38.729714552981569 ], [ -9.177823671498542, 38.730056526562024 ], [ -9.177894993652339, 38.730405657063969 ], [ -9.177922284826096, 38.730758582257202 ], [ -9.177905281544783, 38.731111903318663 ], [ -9.177844146907978, 38.73146221756349 ], [ -9.177739469044145, 38.731806151214997 ], [ -9.177592255470916, 38.732140391898376 ], [ -9.177403923414721, 38.732461720544656 ], [ -9.177284295592479, 38.732622173530636 ], [ -9.177282877924757, 38.73265162630917 ], [ -9.177251487219461, 38.732831489507625 ], [ -9.177506340282624, 38.732708726484738 ], [ -9.177912175456486, 38.732553918603649 ], [ -9.178335427189333, 38.732431012358397 ], [ -9.178772019822707, 38.732341191231932 ], [ -9.179217749293288, 38.732285320118827 ], [ -9.17966832359871, 38.732263937001051 ], [ -9.180119404108224, 38.732277247770199 ], [ -9.180566647321262, 38.732325124246216 ], [ -9.181005746672703, 38.732407105411362 ], [ -9.181432473983174, 38.732522401847909 ], [ -9.181842720156173, 38.73266990333655 ], [ -9.182232534730902, 38.732848189542729 ], [ -9.182598163910683, 38.733055543688117 ], [ -9.182936086701361, 38.733289969075848 ], [ -9.183243048812145, 38.733549208310706 ], [ -9.183516093992738, 38.733830765029509 ], [ -9.183752592505064, 38.734131927932722 ], [ -9.183950266455374, 38.734449796886338 ], [ -9.184107211742504, 38.734781310842934 ], [ -9.184221916410506, 38.73512327731337 ], [ -9.184293275228317, 38.735472403105632 ], [ -9.184320600355351, 38.735825326034991 ], [ -9.184303627989454, 38.736178647300292 ], [ -9.184242520932292, 38.73652896421477 ], [ -9.184137867046525, 38.736872902976124 ], [ -9.183990673618641, 38.737207151160398 ], [ -9.183802357680833, 38.737528489626428 ], [ -9.183574732384219, 38.737833823523651 ], [ -9.183508356736143, 38.737905626407624 ], [ -9.18352473488582, 38.737919457236664 ], [ -9.183575787001379, 38.737882372713145 ], [ -9.183935273065286, 38.737668505616583 ], [ -9.184319790869413, 38.73748326440289 ], [ -9.184725637580977, 38.737328432816795 ], [ -9.185148905067333, 38.737205501766745 ], [ -9.185585517518303, 38.737115654974453 ], [ -9.186031270679763, 38.737059757581555 ], [ -9.186481872321281, 38.737038347823052 ], [ -9.186932983548976, 38.737051631846967 ], [ -9.18738026056662, 38.737099481730709 ], [ -9.187819396483718, 38.737181436712582 ], [ -9.188246162768971, 38.73729670762696 ], [ -9.188656449950757, 38.737444184500248 ], [ -9.189046307173571, 38.737622447234926 ], [ -9.18941198023024, 38.737829779278705 ], [ -9.189749947704259, 38.738064184147575 ], [ -9.190056954874709, 38.738323404643978 ], [ -9.190330045057502, 38.738604944585198 ], [ -9.190566588081298, 38.738906092833382 ], [ -9.190764305623759, 38.739223949395736 ], [ -9.190921293163949, 38.739555453344245 ], [ -9.191036038339002, 38.739897412286282 ], [ -9.191107435527702, 38.740246533102429 ], [ -9.191134796519837, 38.740599453655975 ], [ -9.19111785716772, 38.740952775168772 ], [ -9.191115277560032, 38.74096757105702 ], [ -9.191321581761072, 38.740925108520223 ], [ -9.191767353564176, 38.740869189016195 ], [ -9.192217976900467, 38.74084775684365 ], [ -9.192669112667241, 38.740861018366452 ], [ -9.192752514972105, 38.740869936202373 ], [ -9.192945059843396, 38.740814002567681 ], [ -9.193381683725329, 38.740724126534687 ], [ -9.193827452494247, 38.740668199211967 ], [ -9.194278073769464, 38.740646759122598 ], [ -9.194729208468102, 38.740660012706627 ], [ -9.194866758023561, 38.74067471781072 ], [ -9.194988375532017, 38.740567145324214 ], [ -9.195319338918418, 38.74032667899607 ], [ -9.19567880120624, 38.740112776190493 ], [ -9.196063300740681, 38.739927496662723 ], [ -9.19646913486468, 38.739772624526402 ], [ -9.196876556615702, 38.739654252937314 ], [ -9.196881253123889, 38.739650098573101 ], [ -9.197212205875005, 38.739409626997947 ], [ -9.197571657845875, 38.739195718483209 ], [ -9.197956147481007, 38.739010432839152 ], [ -9.198025283743693, 38.738984047881871 ], [ -9.197825300575055, 38.738729491777725 ], [ -9.197627553418744, 38.738411647558188 ], [ -9.197470537705422, 38.738080152957586 ], [ -9.197355765095278, 38.737738200621784 ], [ -9.197284340348913, 38.737389083870937 ], [ -9.197265985118236, 38.737152574896726 ], [ -9.197221468845807, 38.736934981033961 ], [ -9.197194079740738, 38.736582062092303 ], [ -9.197210988593973, 38.736228739877845 ], [ -9.197272031912497, 38.735878417066999 ], [ -9.197376621184027, 38.73553446740123 ], [ -9.197523748568996, 38.735200203198339 ], [ -9.197545755299945, 38.735162635496856 ], [ -9.19753798548771, 38.735124656603617 ], [ -9.197490559404107, 38.735123264367161 ], [ -9.197374827713665, 38.735128774422151 ], [ -9.197128823412571, 38.735346395940319 ], [ -9.196797888815913, 38.735586867181858 ], [ -9.196438452324506, 38.735800773223133 ], [ -9.196053975671688, 38.73598605378632 ], [ -9.195648161861367, 38.736140924288812 ], [ -9.19522491949518, 38.736263893038483 ], [ -9.194788325115418, 38.736353775607391 ], [ -9.194342583926982, 38.736409706245084 ], [ -9.193891989277351, 38.736431146221307 ], [ -9.1934408812856, 38.736417889017616 ], [ -9.193374367421923, 38.736410776884824 ], [ -9.193150846401807, 38.736456789968933 ], [ -9.192705103153527, 38.736512714388084 ], [ -9.192588454081164, 38.736518263249472 ], [ -9.192464491333341, 38.736533815580188 ], [ -9.192013895176204, 38.736555248334639 ], [ -9.191562786583436, 38.736541983888813 ], [ -9.19111551062894, 38.736494149996311 ], [ -9.190676375456446, 38.7364122073825 ], [ -9.190405726852823, 38.736339109900875 ], [ -9.190097072059782, 38.736377827561647 ], [ -9.189646475964343, 38.7363992511861 ], [ -9.189195368581656, 38.736385977582813 ], [ -9.188748094973965, 38.736338134593638 ], [ -9.188308963262372, 38.736256183031529 ], [ -9.187882203112997, 38.736140912240494 ], [ -9.187471924980381, 38.735993432489629 ], [ -9.187082080501545, 38.735815164274989 ], [ -9.186716424422873, 38.735607824632261 ], [ -9.186378478427114, 38.735373410592501 ], [ -9.186071497209428, 38.73511417994056 ], [ -9.185798437129399, 38.734832629461728 ], [ -9.185561927741126, 38.734531470886687 ], [ -9.185364246475475, 38.734213604766538 ], [ -9.185207296718092, 38.733882092530216 ], [ -9.185092589493864, 38.73354012699329 ], [ -9.185021228933657, 38.733191001602883 ], [ -9.184993901662544, 38.732838078714835 ], [ -9.185010870210913, 38.7324847572091 ], [ -9.185071970510984, 38.732134439755072 ], [ -9.185176613501914, 38.731790500042479 ], [ -9.185323790827034, 38.731456250293114 ], [ -9.185512084567446, 38.731134909366418 ], [ -9.185739680917367, 38.730829571765817 ], [ -9.185875932714962, 38.73068215734591 ], [ -9.185913187021486, 38.73063217733835 ], [ -9.186177892360464, 38.730345783034082 ], [ -9.186327750711715, 38.730213237755798 ], [ -9.186320100963769, 38.730200936706403 ], [ -9.186163156023802, 38.729869425467903 ], [ -9.186048451119451, 38.7295274606115 ], [ -9.185977090359364, 38.729178335577693 ], [ -9.185949760370667, 38.728825412718912 ], [ -9.185966723710051, 38.728472090914835 ], [ -9.186027816360035, 38.728121772837767 ], [ -9.186132449333565, 38.727777832183456 ], [ -9.18627961437055, 38.727443581182754 ], [ -9.186467893670525, 38.727122238707224 ], [ -9.186695473566843, 38.726816899275228 ], [ -9.186960162009958, 38.726530503257173 ], [ -9.187206111413696, 38.72631295289176 ], [ -9.187117641468966, 38.72632404955764 ], [ -9.186667107316536, 38.726345460856464 ], [ -9.186216063501467, 38.726332174835036 ], [ -9.185768854473482, 38.726284319454813 ], [ -9.185329787731414, 38.726202355648141 ], [ -9.184903092315365, 38.726087072876901 ], [ -9.184632632487057, 38.725989830059142 ], [ -9.184549402592387, 38.726039354425055 ], [ -9.184164946078495, 38.726224595882478 ], [ -9.183759160398719, 38.726379424947346 ], [ -9.183335953883828, 38.726502350326776 ], [ -9.182899402730808, 38.726592188010699 ], [ -9.18245371172814, 38.726648072681094 ], [ -9.182003173739782, 38.726669466050595 ], [ -9.181552128338856, 38.726656162049785 ], [ -9.181104919990364, 38.726608288813374 ], [ -9.180665856186575, 38.726526307445674 ], [ -9.180239165939247, 38.726411007577802 ], [ -9.17982895902936, 38.726263499758922 ], [ -9.17943918640767, 38.7260852047554 ], [ -9.179073602128204, 38.725877839860878 ], [ -9.178735727181969, 38.725643402349576 ], [ -9.178646388878045, 38.725567937433972 ], [ -9.178442714095224, 38.725788276967329 ], [ -9.178143435316567, 38.726052949535109 ], [ -9.177812478005471, 38.726293367691909 ], [ -9.177453029499251, 38.726507215827098 ], [ -9.17706855164734, 38.726692434220702 ], [ -9.176662747465496, 38.726847238889022 ], [ -9.176239525462828, 38.726970138774192 ], [ -9.175802961985605, 38.727059950111723 ], [ -9.1753572619411, 38.727115807837428 ], [ -9.174906718280422, 38.727137173923502 ], [ -9.174882280009033, 38.727136451660115 ], [ -9.174857347095537, 38.727218365370611 ], [ -9.174832859388127, 38.727273961365654 ], [ -9.174860309879394, 38.727408369257574 ], [ -9.175034658887425, 38.727455490206339 ], [ -9.175444863192293, 38.727603014862595 ] ], [ [ -9.19177115131324, 38.720717631264698 ], [ -9.192194308772796, 38.720594675912409 ], [ -9.192630811162141, 38.720504804104984 ], [ -9.192636633094354, 38.72050407353526 ], [ -9.192701840738577, 38.720392751087886 ], [ -9.192929373131905, 38.720087399849561 ], [ -9.193194012151451, 38.719800990093916 ], [ -9.193446138812007, 38.719577924709085 ], [ -9.193511117306466, 38.719507599650562 ], [ -9.193810311731763, 38.719242888632593 ], [ -9.194141182404028, 38.719002426113562 ], [ -9.194500542894932, 38.718788527626792 ], [ -9.194884932529883, 38.718603252886133 ], [ -9.195002795868048, 38.718558263303457 ], [ -9.194947347128151, 38.718392993390196 ], [ -9.194875955508975, 38.71804387358987 ], [ -9.194848587293084, 38.717690952708857 ], [ -9.194865505405703, 38.717337629607904 ], [ -9.194886123142551, 38.717219301690506 ], [ -9.194798391308693, 38.717187763075856 ], [ -9.194408632459666, 38.717009517541754 ], [ -9.194043052839705, 38.716802199103661 ], [ -9.193705173395202, 38.716567804588259 ], [ -9.193398248180497, 38.716308591592167 ], [ -9.19312523301606, 38.716027056730475 ], [ -9.192888757023761, 38.715725911583327 ], [ -9.192709927029401, 38.715438336628686 ], [ -9.1926717864377, 38.71541187647265 ], [ -9.192364869934211, 38.715152660590022 ], [ -9.19209186327128, 38.714871123140455 ], [ -9.19185539548889, 38.714569975728985 ], [ -9.191657743617645, 38.714252118799109 ], [ -9.191638029009153, 38.714210473827904 ], [ -9.191384602912287, 38.714119357145279 ], [ -9.191137763836911, 38.714112094557038 ], [ -9.190690628313204, 38.71406425687821 ], [ -9.190251631473826, 38.713982310413094 ], [ -9.189825001685382, 38.713867044456499 ], [ -9.18941484814642, 38.713719569230804 ], [ -9.189025121293623, 38.713541305188329 ], [ -9.188659574740242, 38.71333396932436 ], [ -9.188321729114064, 38.713099558633402 ], [ -9.188014838143586, 38.71284033086782 ], [ -9.187741857319359, 38.71255878278491 ], [ -9.187505415432435, 38.712257626092097 ], [ -9.187307789263972, 38.711939761322213 ], [ -9.187150881669476, 38.711608249891029 ], [ -9.187036203268359, 38.711266284606246 ], [ -9.186964857914553, 38.710917158912473 ], [ -9.186937532087383, 38.710564235168455 ], [ -9.186954488304048, 38.710210912262376 ], [ -9.187015562616253, 38.709860592877178 ], [ -9.187120166214109, 38.709516650721248 ], [ -9.187156932370355, 38.709433122091909 ], [ -9.186788741175773, 38.70936437626294 ], [ -9.186362144281208, 38.709249097114132 ], [ -9.18624314005031, 38.709206300858526 ], [ -9.185863399486523, 38.709284475409568 ], [ -9.185417818241367, 38.709340370000604 ], [ -9.184967389948069, 38.70936177331766 ], [ -9.184516453122766, 38.709348479195505 ], [ -9.184201756407827, 38.70931479021111 ], [ -9.184222918856724, 38.709588253222911 ], [ -9.18420594926029, 38.70994157595684 ], [ -9.184144861140364, 38.710291894063182 ], [ -9.184040242178051, 38.710635833728233 ], [ -9.183933590843816, 38.710878102557345 ], [ -9.183975013182467, 38.71089705271644 ], [ -9.184340533962899, 38.711104403678533 ], [ -9.184678357306552, 38.711338826268722 ], [ -9.184985229880319, 38.711598063118529 ], [ -9.185150622160315, 38.711768659488683 ], [ -9.185305333883367, 38.711899353532665 ], [ -9.185578302711146, 38.712180907506173 ], [ -9.185814736340102, 38.712482068217902 ], [ -9.186012357501701, 38.712799935554784 ], [ -9.186169262603633, 38.713131448484845 ], [ -9.186283940077514, 38.713473414528707 ], [ -9.186288556995303, 38.713496007514451 ], [ -9.186620244466864, 38.713684148612238 ], [ -9.186958087443914, 38.713918564236849 ], [ -9.187264979361256, 38.714177794718289 ], [ -9.187537964644729, 38.71445934377747 ], [ -9.187774414133365, 38.714760500188504 ], [ -9.187972050405907, 38.715078363879755 ], [ -9.188128969724509, 38.715409873854391 ], [ -9.188243660383854, 38.715751837661529 ], [ -9.188315017288385, 38.71610096213481 ], [ -9.188326553382327, 38.716249903675426 ], [ -9.188388045420135, 38.716550758912156 ], [ -9.1884153813293, 38.7169036818282 ], [ -9.188399127283812, 38.71724250048289 ], [ -9.188695779162263, 38.717448316645971 ], [ -9.189002692642591, 38.717707542109828 ], [ -9.189275698398705, 38.717989086657951 ], [ -9.189512167072479, 38.71829023910788 ], [ -9.189709821057885, 38.718608099426199 ], [ -9.18986675644646, 38.718939606648583 ], [ -9.189981461378064, 38.719281568350731 ], [ -9.190052830619619, 38.719630691386527 ], [ -9.190080176230678, 38.71998361359784 ], [ -9.19007063531796, 38.720182587858794 ], [ -9.190198178048803, 38.720290305867344 ], [ -9.190471198493205, 38.720571847295865 ], [ -9.190707680891755, 38.720872997005216 ], [ -9.190865369833764, 38.721126569115739 ], [ -9.190981002520758, 38.721057749603162 ], [ -9.191365413534548, 38.72087248620609 ], [ -9.19177115131324, 38.720717631264698 ] ], [ [ -9.202235818235952, 38.726558205478639 ], [ -9.202658991100545, 38.726435212129601 ], [ -9.203095514841786, 38.72634530101373 ], [ -9.203541186059345, 38.726289337891984 ], [ -9.203951937629601, 38.726269757776151 ], [ -9.203757208432048, 38.725956760061599 ], [ -9.203600193182833, 38.725625273014394 ], [ -9.203485412797523, 38.725283326112205 ], [ -9.203413972112029, 38.724934212622841 ], [ -9.203386558523475, 38.724581294787797 ], [ -9.203403435393858, 38.724227971438602 ], [ -9.20346443953855, 38.723877645262682 ], [ -9.203568982822867, 38.72353369003401 ], [ -9.203716057850407, 38.723199418124103 ], [ -9.203904247687381, 38.722878048606042 ], [ -9.20413173952848, 38.722572676258835 ], [ -9.204396342171863, 38.722286241770057 ], [ -9.204695507134343, 38.722021503423669 ], [ -9.205026353202927, 38.721781010545399 ], [ -9.205385694185965, 38.721567078960852 ], [ -9.205770069596495, 38.721381768702585 ], [ -9.206175777972348, 38.721226864180267 ], [ -9.206598912512371, 38.721103857004685 ], [ -9.20703539868599, 38.721013931630523 ], [ -9.207481033454473, 38.720957953956066 ], [ -9.207931525726908, 38.720936462989165 ], [ -9.208382537662116, 38.720949665659688 ], [ -9.20850838250343, 38.720963108716496 ], [ -9.208253402526589, 38.720894270715775 ], [ -9.208252988090907, 38.720894193428784 ], [ -9.207826289557001, 38.720778994305711 ], [ -9.207416060647081, 38.72063158350614 ], [ -9.207026252524175, 38.720453380861791 ], [ -9.206660619584726, 38.720246102776592 ], [ -9.206322683288963, 38.720011745688566 ], [ -9.206015698239066, 38.719752566833897 ], [ -9.205742620832059, 38.719471062498918 ], [ -9.205506080789528, 38.719169943969867 ], [ -9.205308355838227, 38.718852111412204 ], [ -9.205151349785226, 38.718520625931667 ], [ -9.205036574198278, 38.718178680086311 ], [ -9.205032304352818, 38.718157814407377 ], [ -9.205017566418721, 38.718159665465095 ], [ -9.204567090427505, 38.718181144975127 ], [ -9.204180310604892, 38.718169809407421 ], [ -9.204144338823507, 38.718376410031048 ], [ -9.204039805248586, 38.718720365926259 ], [ -9.203892740434902, 38.719054638342918 ], [ -9.203704560176181, 38.719376007906831 ], [ -9.20347707631689, 38.719681379468241 ], [ -9.20321247931988, 38.719967811917058 ], [ -9.202913317183768, 38.720232546515405 ], [ -9.202582470912583, 38.720473033475137 ], [ -9.202223126773626, 38.720686956523032 ], [ -9.201838745610564, 38.720872255217614 ], [ -9.20158387620118, 38.720969556543267 ], [ -9.201599739049032, 38.721016821483722 ], [ -9.20167116658634, 38.72136593649406 ], [ -9.201698570148306, 38.721718855060644 ], [ -9.20168168517791, 38.722072178424526 ], [ -9.201620673635581, 38.722422503879017 ], [ -9.201516122464449, 38.722766457539855 ], [ -9.201369037962015, 38.723100726839853 ], [ -9.201180836111558, 38.723422092434767 ], [ -9.200953328965442, 38.723727459213038 ], [ -9.200688707210775, 38.724013886110555 ], [ -9.200436588162134, 38.724236966851144 ], [ -9.200371612369715, 38.724307295667579 ], [ -9.200323461638577, 38.724349900224055 ], [ -9.200470240822781, 38.724536761868947 ], [ -9.200667960783633, 38.724854602388028 ], [ -9.200824960803738, 38.725186093634377 ], [ -9.200939728400556, 38.725528043337725 ], [ -9.201011157737462, 38.725877158467682 ], [ -9.201038560295169, 38.726230076942393 ], [ -9.201021671526181, 38.726583400003832 ], [ -9.200960653427368, 38.726933724948189 ], [ -9.200856093004857, 38.727277677896076 ], [ -9.200854843133644, 38.727280518173302 ], [ -9.20108627765522, 38.727112314257518 ], [ -9.201445657008907, 38.726898394428417 ], [ -9.201830071147477, 38.72671309673926 ], [ -9.202235818235952, 38.726558205478639 ] ], [ [ -9.180565182193662, 38.719631229404982 ], [ -9.180715622234516, 38.719600271008545 ], [ -9.180602464680508, 38.719521751560755 ], [ -9.180295573136465, 38.719262503805133 ], [ -9.180022597180884, 38.718980937919412 ], [ -9.179786165557688, 38.718679765782504 ], [ -9.179626750921612, 38.71842333061727 ], [ -9.179644406241035, 38.718651625232532 ], [ -9.179627412959972, 38.719004947107386 ], [ -9.179566295725852, 38.719355262706586 ], [ -9.179461642499913, 38.719699198240505 ], [ -9.179314460562841, 38.720033441316247 ], [ -9.179251869520961, 38.720140256029687 ], [ -9.179246892430889, 38.720156612547704 ], [ -9.179351814276789, 38.720094183291629 ], [ -9.179736251087652, 38.719908957758449 ], [ -9.180142009487414, 38.71975414288034 ], [ -9.180565182193662, 38.719631229404982 ] ], [ [ -9.163535206574576, 38.754102229490421 ], [ -9.163635211678312, 38.754120910119681 ], [ -9.163640018337739, 38.754093406556635 ], [ -9.163595525043988, 38.753999386673549 ], [ -9.163535206574576, 38.754102229490421 ] ], [ [ -9.124333420614658, 38.746373458147652 ], [ -9.124329176263629, 38.746460293042773 ], [ -9.124289084333661, 38.746688987567985 ], [ -9.124316466679034, 38.746689808385199 ], [ -9.124649602768846, 38.746725623930075 ], [ -9.124439540190449, 38.746508764857282 ], [ -9.124333420614658, 38.746373458147652 ] ] ] } }
]
}
