{"type": "FeatureCollection", "bbox": [-8.460697, 40.179888, -8.409923, 40.197235], "features": [{"bbox": [-8.460697, 40.179888, -8.409923, 40.197235], "type": "Feature", "properties": {"segments": [{"distance": 7557.4, "duration": 744.8, "steps": [{"distance": 127.9, "duration": 30.7, "type": 11, "instruction": "Head west on Rua Pedro Nunes", "name": "Rua Pedro Nunes", "way_points": [0, 6]}, {"distance": 24.0, "duration": 5.8, "type": 7, "instruction": "Enter the roundabout and take the 2nd exit onto Rua Pedro Nunes", "name": "Rua Pedro Nunes", "exit_number": 2, "way_points": [6, 11]}, {"distance": 70.2, "duration": 16.8, "type": 6, "instruction": "Continue straight onto Rua Pedro Nunes", "name": "Rua Pedro Nunes", "way_points": [11, 13]}, {"distance": 140.7, "duration": 33.8, "type": 1, "instruction": "Turn right", "name": "-", "way_points": [13, 18]}, {"distance": 67.5, "duration": 21.8, "type": 7, "instruction": "Enter the roundabout and take the 3rd exit onto Avenida Mendes Silva", "name": "Avenida Mendes Silva", "exit_number": 3, "way_points": [18, 26]}, {"distance": 1232.4, "duration": 125.9, "type": 6, "instruction": "Continue straight onto Avenida Mendes Silva", "name": "Avenida Mendes Silva", "way_points": [26, 46]}, {"distance": 356.4, "duration": 25.7, "type": 6, "instruction": "Continue straight onto IC 3", "name": "IC 3", "way_points": [46, 57]}, {"distance": 181.2, "duration": 16.3, "type": 7, "instruction": "Enter the roundabout and take the 3rd exit onto IC 3", "name": "IC 3", "exit_number": 3, "way_points": [57, 70]}, {"distance": 2259.5, "duration": 208.4, "type": 6, "instruction": "Continue straight onto IC 3", "name": "IC 3", "way_points": [70, 111]}, {"distance": 15.5, "duration": 1.4, "type": 7, "instruction": "Enter the roundabout and take the 1st exit", "name": "-", "exit_number": 1, "way_points": [111, 112]}, {"distance": 1293.9, "duration": 78.9, "type": 6, "instruction": "Continue straight", "name": "-", "way_points": [112, 127]}, {"distance": 400.2, "duration": 28.8, "type": 13, "instruction": "Keep right", "name": "-", "way_points": [127, 131]}, {"distance": 115.3, "duration": 19.2, "type": 7, "instruction": "Enter the roundabout and take the 3rd exit onto Rua Central", "name": "Rua Central", "exit_number": 3, "way_points": [131, 141]}, {"distance": 1244.8, "duration": 124.7, "type": 6, "instruction": "Continue straight onto Rua Central", "name": "Rua Central", "way_points": [141, 192]}, {"distance": 27.8, "duration": 6.7, "type": 13, "instruction": "Keep right", "name": "-", "way_points": [192, 193]}, {"distance": 0.0, "duration": 0.0, "type": 10, "instruction": "Arrive at your destination, on the right", "name": "-", "way_points": [193, 193]}]}], "way_points": [0, 193], "summary": {"distance": 7557.4, "duration": 744.8}}, "geometry": {"type": "LineString", "coordinates": [[-8.409923, 40.193195], [-8.410006, 40.193195], [-8.410247, 40.193193], [-8.410844, 40.193182], [-8.41113, 40.19318], [-8.411279, 40.193236], [-8.411397, 40.193282], [-8.411411, 40.193301], [-8.41143, 40.193316], [-8.411519, 40.193332], [-8.411584, 40.193297], [-8.411602, 40.193256], [-8.411817, 40.193188], [-8.41241, 40.193181], [-8.412419, 40.193328], [-8.412474, 40.193566], [-8.412579, 40.193891], [-8.412701, 40.194302], [-8.412649, 40.194415], [-8.412545, 40.194471], [-8.412517, 40.194516], [-8.41251, 40.194565], [-8.412561, 40.194656], [-8.41267, 40.1947], [-8.412788, 40.194687], [-8.412872, 40.194623], [-8.412887, 40.194589], [-8.413073, 40.194535], [-8.413685, 40.1944], [-8.414108, 40.194254], [-8.414441, 40.194101], [-8.414804, 40.193881], [-8.415089, 40.193676], [-8.415232, 40.193607], [-8.415365, 40.193574], [-8.415647, 40.193548], [-8.415857, 40.1935], [-8.417095, 40.193092], [-8.417385, 40.193007], [-8.417534, 40.192982], [-8.418122, 40.192953], [-8.422177, 40.192825], [-8.422281, 40.192824], [-8.422902, 40.192814], [-8.425077, 40.192753], [-8.426247, 40.19272], [-8.426868, 40.192696], [-8.427221, 40.192698], [-8.427747, 40.192647], [-8.428113, 40.192545], [-8.42851, 40.192398], [-8.429344, 40.191948], [-8.429647, 40.191816], [-8.42988, 40.191747], [-8.430161, 40.191705], [-8.430276, 40.191701], [-8.430662, 40.19172], [-8.430725, 40.191749], [-8.430852, 40.191825], [-8.430937, 40.191852], [-8.431097, 40.191869], [-8.43121, 40.191853], [-8.431322, 40.191817], [-8.431453, 40.191738], [-8.431547, 40.191601], [-8.431565, 40.191521], [-8.431538, 40.191351], [-8.431456, 40.191183], [-8.431308, 40.191021], [-8.431229, 40.190978], [-8.431045, 40.190933], [-8.430883, 40.190838], [-8.43081, 40.19077], [-8.429716, 40.189478], [-8.429541, 40.189209], [-8.429428, 40.188884], [-8.429329, 40.188544], [-8.42928, 40.188152], [-8.429304, 40.187756], [-8.429344, 40.187543], [-8.429365, 40.187393], [-8.429544, 40.187003], [-8.429804, 40.186607], [-8.430051, 40.186343], [-8.431017, 40.185492], [-8.431498, 40.185078], [-8.431741, 40.184875], [-8.432267, 40.184486], [-8.432691, 40.184252], [-8.433216, 40.184034], [-8.433511, 40.183949], [-8.433806, 40.183871], [-8.434401, 40.183791], [-8.436396, 40.183766], [-8.436793, 40.183761], [-8.437294, 40.183728], [-8.437614, 40.18367], [-8.437924, 40.183585], [-8.43847, 40.183368], [-8.440149, 40.182641], [-8.441255, 40.182188], [-8.441642, 40.182024], [-8.442488, 40.181674], [-8.442848, 40.181538], [-8.44331, 40.18135], [-8.445594, 40.180416], [-8.446757, 40.179944], [-8.446893, 40.179906], [-8.447014, 40.179888], [-8.447211, 40.1799], [-8.447302, 40.179934], [-8.447391, 40.179989], [-8.447449, 40.180121], [-8.447589, 40.180457], [-8.447613, 40.180567], [-8.447661, 40.180977], [-8.447821, 40.181822], [-8.447905, 40.182099], [-8.448039, 40.18242], [-8.448446, 40.184766], [-8.448636, 40.18569], [-8.448943, 40.186685], [-8.449415, 40.187882], [-8.449578, 40.188598], [-8.449777, 40.190117], [-8.449855, 40.190819], [-8.449907, 40.191222], [-8.449965, 40.191568], [-8.449929, 40.19184], [-8.449994, 40.192669], [-8.450299, 40.195023], [-8.450249, 40.195147], [-8.45014, 40.195236], [-8.450106, 40.195361], [-8.450147, 40.195471], [-8.45019, 40.195517], [-8.450317, 40.195594], [-8.450458, 40.195624], [-8.450653, 40.195614], [-8.450794, 40.19557], [-8.450884, 40.195522], [-8.450911, 40.195499], [-8.451105, 40.195487], [-8.451226, 40.195482], [-8.451476, 40.195499], [-8.451689, 40.195505], [-8.451872, 40.19551], [-8.45223, 40.195512], [-8.452952, 40.195523], [-8.453322, 40.195534], [-8.453461, 40.195568], [-8.453578, 40.195627], [-8.453649, 40.195697], [-8.453697, 40.195777], [-8.453733, 40.195889], [-8.453808, 40.196496], [-8.453831, 40.196718], [-8.453878, 40.19685], [-8.453997, 40.196959], [-8.454082, 40.196993], [-8.454102, 40.197002], [-8.454764, 40.197199], [-8.454899, 40.197227], [-8.455064, 40.197235], [-8.455221, 40.19721], [-8.45533, 40.197167], [-8.455457, 40.197083], [-8.455567, 40.196969], [-8.455965, 40.196465], [-8.456117, 40.196272], [-8.456192, 40.196148], [-8.456229, 40.196025], [-8.456295, 40.195439], [-8.456311, 40.195255], [-8.456351, 40.194826], [-8.456413, 40.194683], [-8.456471, 40.194596], [-8.456653, 40.194458], [-8.457762, 40.193834], [-8.457996, 40.193724], [-8.458183, 40.193676], [-8.458864, 40.193611], [-8.459064, 40.193611], [-8.459255, 40.193641], [-8.459398, 40.193698], [-8.4595, 40.193777], [-8.459583, 40.19387], [-8.459745, 40.194141], [-8.459856, 40.194251], [-8.459984, 40.194341], [-8.460421, 40.194565], [-8.460494, 40.194606], [-8.460521, 40.194623], [-8.460697, 40.194834]]}}], "metadata": {"attribution": "openrouteservice.org | OpenStreetMap contributors", "service": "routing", "timestamp": 1780868230626, "query": {"coordinates": [[-8.409922, 40.193131], [-8.4594402, 40.1954461]], "profile": "driving-car", "profileName": "driving-car", "preference": "fastest", "format": "geojson"}, "engine": {"version": "9.9.0", "build_date": "2026-04-20T10:23:42Z", "graph_date": "2026-05-15T15:29:58Z", "osm_date": "2026-04-26T23:59:57Z"}, "system_message": "Preference 'fastest' has been deprecated, using 'recommended'."}}