{"type": "FeatureCollection", "bbox": [-8.421169, 40.19318, -8.409923, 40.210272], "features": [{"bbox": [-8.421169, 40.19318, -8.409923, 40.210272], "type": "Feature", "properties": {"segments": [{"distance": 3432.3, "duration": 612.7, "steps": [{"distance": 127.9, "duration": 30.7, "type": 11, "instruction": "Head west on Rua Pedro Nunes", "name": "Rua Pedro Nunes", "way_points": [0, 6]}, {"distance": 24.0, "duration": 5.8, "type": 7, "instruction": "Enter the roundabout and take the 2nd exit onto Rua Pedro Nunes", "name": "Rua Pedro Nunes", "exit_number": 2, "way_points": [6, 11]}, {"distance": 70.2, "duration": 16.8, "type": 6, "instruction": "Continue straight onto Rua Pedro Nunes", "name": "Rua Pedro Nunes", "way_points": [11, 13]}, {"distance": 140.7, "duration": 33.8, "type": 1, "instruction": "Turn right", "name": "-", "way_points": [13, 18]}, {"distance": 67.5, "duration": 21.8, "type": 7, "instruction": "Enter the roundabout and take the 3rd exit onto Avenida Mendes Silva", "name": "Avenida Mendes Silva", "exit_number": 3, "way_points": [18, 26]}, {"distance": 110.4, "duration": 11.4, "type": 6, "instruction": "Continue straight onto Avenida Mendes Silva", "name": "Avenida Mendes Silva", "way_points": [26, 29]}, {"distance": 97.6, "duration": 23.4, "type": 13, "instruction": "Keep right onto Rua Cabral Antunes", "name": "Rua Cabral Antunes", "way_points": [29, 31]}, {"distance": 243.1, "duration": 58.3, "type": 4, "instruction": "Turn slight left onto Rua Cabral Antunes", "name": "Rua Cabral Antunes", "way_points": [31, 36]}, {"distance": 886.5, "duration": 111.8, "type": 0, "instruction": "Turn left onto Rua Carlos Seixas", "name": "Rua Carlos Seixas", "way_points": [36, 57]}, {"distance": 153.7, "duration": 33.3, "type": 13, "instruction": "Keep right onto Avenida C\u00f3nego Urbano Duarte", "name": "Avenida C\u00f3nego Urbano Duarte", "way_points": [57, 64]}, {"distance": 391.3, "duration": 93.9, "type": 0, "instruction": "Turn left onto Ladeira do Semin\u00e1rio", "name": "Ladeira do Semin\u00e1rio", "way_points": [64, 79]}, {"distance": 15.8, "duration": 3.8, "type": 0, "instruction": "Turn left onto Bairro de S\u00e3o Jos\u00e9", "name": "Bairro de S\u00e3o Jos\u00e9", "way_points": [79, 80]}, {"distance": 473.9, "duration": 45.8, "type": 0, "instruction": "Turn left onto Bairro de S\u00e3o Jos\u00e9", "name": "Bairro de S\u00e3o Jos\u00e9", "way_points": [80, 95]}, {"distance": 50.4, "duration": 17.1, "type": 7, "instruction": "Enter the roundabout and take the 3rd exit onto Rua Alexandre Herculano", "name": "Rua Alexandre Herculano", "exit_number": 3, "way_points": [95, 101]}, {"distance": 244.9, "duration": 35.3, "type": 6, "instruction": "Continue straight onto Rua Alexandre Herculano", "name": "Rua Alexandre Herculano", "way_points": [101, 103]}, {"distance": 250.1, "duration": 51.5, "type": 1, "instruction": "Turn right onto Pra\u00e7a da Rep\u00fablica", "name": "Pra\u00e7a da Rep\u00fablica", "way_points": [103, 114]}, {"distance": 45.5, "duration": 12.6, "type": 0, "instruction": "Turn left", "name": "-", "way_points": [114, 116]}, {"distance": 38.7, "duration": 5.6, "type": 0, "instruction": "Turn left onto Avenida S\u00e1 da Bandeira", "name": "Avenida S\u00e1 da Bandeira", "way_points": [116, 117]}, {"distance": 0.0, "duration": 0.0, "type": 10, "instruction": "Arrive at Avenida S\u00e1 da Bandeira, on the right", "name": "-", "way_points": [117, 117]}]}], "way_points": [0, 117], "summary": {"distance": 3432.3, "duration": 612.7}}, "geometry": {"type": "LineString", "coordinates": [[-8.409923, 40.193195], [-8.410006, 40.193195], [-8.410247, 40.193193], [-8.410844, 40.193182], [-8.41113, 40.19318], [-8.411279, 40.193236], [-8.411397, 40.193282], [-8.411411, 40.193301], [-8.41143, 40.193316], [-8.411519, 40.193332], [-8.411584, 40.193297], [-8.411602, 40.193256], [-8.411817, 40.193188], [-8.41241, 40.193181], [-8.412419, 40.193328], [-8.412474, 40.193566], [-8.412579, 40.193891], [-8.412701, 40.194302], [-8.412649, 40.194415], [-8.412545, 40.194471], [-8.412517, 40.194516], [-8.41251, 40.194565], [-8.412561, 40.194656], [-8.41267, 40.1947], [-8.412788, 40.194687], [-8.412872, 40.194623], [-8.412887, 40.194589], [-8.413073, 40.194535], [-8.413685, 40.1944], [-8.414108, 40.194254], [-8.41453, 40.194313], [-8.415229, 40.194447], [-8.415965, 40.194119], [-8.417082, 40.194067], [-8.417173, 40.194105], [-8.417224, 40.194144], [-8.417596, 40.19461], [-8.418424, 40.194174], [-8.418681, 40.194095], [-8.42029, 40.193897], [-8.420376, 40.193896], [-8.420507, 40.193919], [-8.420631, 40.193975], [-8.420696, 40.194045], [-8.420796, 40.194248], [-8.420861, 40.195787], [-8.420876, 40.196099], [-8.420887, 40.196367], [-8.420918, 40.197102], [-8.420925, 40.19728], [-8.420929, 40.197461], [-8.420939, 40.19765], [-8.421008, 40.197853], [-8.421031, 40.19803], [-8.421034, 40.198223], [-8.42105, 40.19883], [-8.421075, 40.199121], [-8.421169, 40.199395], [-8.421164, 40.199577], [-8.421066, 40.199681], [-8.42091, 40.199737], [-8.420718, 40.199781], [-8.420454, 40.199841], [-8.420133, 40.19998], [-8.419794, 40.200122], [-8.419579, 40.200795], [-8.420096, 40.200872], [-8.420183, 40.200926], [-8.420194, 40.200998], [-8.420144, 40.201062], [-8.419581, 40.201469], [-8.419536, 40.201506], [-8.419468, 40.201622], [-8.419438, 40.201751], [-8.419428, 40.202122], [-8.419441, 40.202279], [-8.419355, 40.20237], [-8.419021, 40.20262], [-8.41893, 40.202661], [-8.41867, 40.202739], [-8.418751, 40.202867], [-8.418863, 40.20282], [-8.419068, 40.202804], [-8.419162, 40.202825], [-8.419224, 40.202868], [-8.41928, 40.20298], [-8.419375, 40.203336], [-8.419418, 40.203487], [-8.419537, 40.203926], [-8.419569, 40.204044], [-8.419742, 40.20468], [-8.419921, 40.205339], [-8.420151, 40.206187], [-8.420151, 40.206322], [-8.420055, 40.20652], [-8.420021, 40.206644], [-8.419946, 40.206658], [-8.41988, 40.20669], [-8.419833, 40.206732], [-8.419795, 40.206835], [-8.419836, 40.206937], [-8.419894, 40.206984], [-8.419776, 40.208106], [-8.419671, 40.209181], [-8.419411, 40.209171], [-8.419334, 40.209187], [-8.419281, 40.209231], [-8.419237, 40.209292], [-8.41922, 40.209498], [-8.41921, 40.20975], [-8.419234, 40.209854], [-8.419409, 40.2099], [-8.42017, 40.209943], [-8.420336, 40.210026], [-8.420782, 40.210272], [-8.421002, 40.210042], [-8.421098, 40.209941], [-8.420735, 40.209734]]}}], "metadata": {"attribution": "openrouteservice.org | OpenStreetMap contributors", "service": "routing", "timestamp": 1780504704409, "query": {"coordinates": [[-8.409922, 40.193131], [-8.420901914285714, 40.209563499999994]], "profile": "driving-car", "profileName": "driving-car", "preference": "shortest", "format": "geojson"}, "engine": {"version": "9.9.0", "build_date": "2026-04-20T10:23:42Z", "graph_date": "2026-05-15T15:29:58Z", "osm_date": "2026-04-26T23:59:57Z"}}}