{"type": "FeatureCollection", "bbox": [-9.186196, 38.749896, -8.409923, 40.1947], "features": [{"bbox": [-9.186196, 38.749896, -8.409923, 40.1947], "type": "Feature", "properties": {"segments": [{"distance": 203789.7, "duration": 7707.9, "steps": [{"distance": 127.9, "duration": 30.7, "type": 11, "instruction": "Head west on Rua Pedro Nunes", "name": "Rua Pedro Nunes", "way_points": [0, 6]}, {"distance": 24.0, "duration": 5.8, "type": 7, "instruction": "Enter the roundabout and take the 2nd exit onto Rua Pedro Nunes", "name": "Rua Pedro Nunes", "exit_number": 2, "way_points": [6, 11]}, {"distance": 70.2, "duration": 16.8, "type": 6, "instruction": "Continue straight onto Rua Pedro Nunes", "name": "Rua Pedro Nunes", "way_points": [11, 13]}, {"distance": 140.7, "duration": 33.8, "type": 1, "instruction": "Turn right", "name": "-", "way_points": [13, 18]}, {"distance": 67.5, "duration": 21.8, "type": 7, "instruction": "Enter the roundabout and take the 3rd exit onto Avenida Mendes Silva", "name": "Avenida Mendes Silva", "exit_number": 3, "way_points": [18, 26]}, {"distance": 1232.4, "duration": 125.9, "type": 6, "instruction": "Continue straight onto Avenida Mendes Silva", "name": "Avenida Mendes Silva", "way_points": [26, 46]}, {"distance": 356.4, "duration": 25.7, "type": 6, "instruction": "Continue straight onto IC 3", "name": "IC 3", "way_points": [46, 57]}, {"distance": 181.2, "duration": 16.3, "type": 7, "instruction": "Enter the roundabout and take the 3rd exit onto IC 3", "name": "IC 3", "exit_number": 3, "way_points": [57, 70]}, {"distance": 2259.5, "duration": 208.4, "type": 6, "instruction": "Continue straight onto IC 3", "name": "IC 3", "way_points": [70, 111]}, {"distance": 187.8, "duration": 16.9, "type": 7, "instruction": "Enter the roundabout and take the 3rd exit", "name": "-", "exit_number": 3, "way_points": [111, 121]}, {"distance": 6483.2, "duration": 340.7, "type": 6, "instruction": "Continue straight", "name": "-", "way_points": [121, 203]}, {"distance": 1127.7, "duration": 76.6, "type": 13, "instruction": "Keep right", "name": "-", "way_points": [203, 230]}, {"distance": 168251.8, "duration": 5531.1, "type": 12, "instruction": "Keep left", "name": "-", "way_points": [230, 1594]}, {"distance": 12055.4, "duration": 425.5, "type": 13, "instruction": "Keep right onto Autoestrada do Norte, A 1", "name": "Autoestrada do Norte, A 1", "way_points": [1594, 1661]}, {"distance": 110.1, "duration": 18.6, "type": 13, "instruction": "Keep right", "name": "-", "way_points": [1661, 1663]}, {"distance": 1940.8, "duration": 113.4, "type": 13, "instruction": "Keep right", "name": "-", "way_points": [1663, 1696]}, {"distance": 7397.3, "duration": 520.1, "type": 13, "instruction": "Keep right", "name": "-", "way_points": [1696, 1788]}, {"distance": 139.8, "duration": 21.7, "type": 13, "instruction": "Keep right", "name": "-", "way_points": [1788, 1791]}, {"distance": 1096.4, "duration": 106.9, "type": 13, "instruction": "Keep right", "name": "-", "way_points": [1791, 1807]}, {"distance": 291.8, "duration": 33.5, "type": 13, "instruction": "Keep right", "name": "-", "way_points": [1807, 1815]}, {"distance": 247.6, "duration": 17.8, "type": 13, "instruction": "Keep right", "name": "-", "way_points": [1815, 1824]}, {"distance": 0.0, "duration": 0.0, "type": 10, "instruction": "Arrive at your destination, on the right", "name": "-", "way_points": [1824, 1824]}]}], "way_points": [0, 1824], "summary": {"distance": 203789.7, "duration": 7707.9}}, "geometry": {"type": "LineString", "coordinates": [[-8.409923, 40.193195], [-8.410006, 40.193195], [-8.410247, 40.193193], [-8.410844, 40.193182], [-8.41113, 40.19318], [-8.411279, 40.193236], [-8.411397, 40.193282], [-8.411411, 40.193301], [-8.41143, 40.193316], [-8.411519, 40.193332], [-8.411584, 40.193297], [-8.411602, 40.193256], [-8.411817, 40.193188], [-8.41241, 40.193181], [-8.412419, 40.193328], [-8.412474, 40.193566], [-8.412579, 40.193891], [-8.412701, 40.194302], [-8.412649, 40.194415], [-8.412545, 40.194471], [-8.412517, 40.194516], [-8.41251, 40.194565], [-8.412561, 40.194656], [-8.41267, 40.1947], [-8.412788, 40.194687], [-8.412872, 40.194623], [-8.412887, 40.194589], [-8.413073, 40.194535], [-8.413685, 40.1944], [-8.414108, 40.194254], [-8.414441, 40.194101], [-8.414804, 40.193881], [-8.415089, 40.193676], [-8.415232, 40.193607], [-8.415365, 40.193574], [-8.415647, 40.193548], [-8.415857, 40.1935], [-8.417095, 40.193092], [-8.417385, 40.193007], [-8.417534, 40.192982], [-8.418122, 40.192953], [-8.422177, 40.192825], [-8.422281, 40.192824], [-8.422902, 40.192814], [-8.425077, 40.192753], [-8.426247, 40.19272], [-8.426868, 40.192696], [-8.427221, 40.192698], [-8.427747, 40.192647], [-8.428113, 40.192545], [-8.42851, 40.192398], [-8.429344, 40.191948], [-8.429647, 40.191816], [-8.42988, 40.191747], [-8.430161, 40.191705], [-8.430276, 40.191701], [-8.430662, 40.19172], [-8.430725, 40.191749], [-8.430852, 40.191825], [-8.430937, 40.191852], [-8.431097, 40.191869], [-8.43121, 40.191853], [-8.431322, 40.191817], [-8.431453, 40.191738], [-8.431547, 40.191601], [-8.431565, 40.191521], [-8.431538, 40.191351], [-8.431456, 40.191183], [-8.431308, 40.191021], [-8.431229, 40.190978], [-8.431045, 40.190933], [-8.430883, 40.190838], [-8.43081, 40.19077], [-8.429716, 40.189478], [-8.429541, 40.189209], [-8.429428, 40.188884], [-8.429329, 40.188544], [-8.42928, 40.188152], [-8.429304, 40.187756], [-8.429344, 40.187543], [-8.429365, 40.187393], [-8.429544, 40.187003], [-8.429804, 40.186607], [-8.430051, 40.186343], [-8.431017, 40.185492], [-8.431498, 40.185078], [-8.431741, 40.184875], [-8.432267, 40.184486], [-8.432691, 40.184252], [-8.433216, 40.184034], [-8.433511, 40.183949], [-8.433806, 40.183871], [-8.434401, 40.183791], [-8.436396, 40.183766], [-8.436793, 40.183761], [-8.437294, 40.183728], [-8.437614, 40.18367], [-8.437924, 40.183585], [-8.43847, 40.183368], [-8.440149, 40.182641], [-8.441255, 40.182188], [-8.441642, 40.182024], [-8.442488, 40.181674], [-8.442848, 40.181538], [-8.44331, 40.18135], [-8.445594, 40.180416], [-8.446757, 40.179944], [-8.446893, 40.179906], [-8.447014, 40.179888], [-8.447211, 40.1799], [-8.447302, 40.179934], [-8.447391, 40.179989], [-8.447449, 40.180121], [-8.447606, 40.180212], [-8.447703, 40.180236], [-8.447806, 40.180241], [-8.447981, 40.180214], [-8.44811, 40.18014], [-8.448246, 40.179953], [-8.448339, 40.179722], [-8.448365, 40.179384], [-8.448329, 40.179197], [-8.448427, 40.178832], [-8.448538, 40.178622], [-8.448759, 40.178304], [-8.448916, 40.178113], [-8.449028, 40.177878], [-8.44929, 40.177489], [-8.449765, 40.176997], [-8.45038, 40.176299], [-8.451144, 40.175482], [-8.451258, 40.175303], [-8.452225, 40.174246], [-8.452543, 40.173848], [-8.452873, 40.173397], [-8.453212, 40.172904], [-8.453348, 40.172692], [-8.455824, 40.168259], [-8.455858, 40.168198], [-8.456251, 40.167474], [-8.456395, 40.167202], [-8.456537, 40.167046], [-8.456878, 40.166473], [-8.457448, 40.165423], [-8.457655, 40.16506], [-8.457942, 40.164545], [-8.45814, 40.164188], [-8.458242, 40.164005], [-8.458665, 40.163195], [-8.458754, 40.163], [-8.45896, 40.162512], [-8.459168, 40.161846], [-8.459271, 40.161378], [-8.459314, 40.161056], [-8.459335, 40.160768], [-8.459348, 40.160407], [-8.459316, 40.160057], [-8.459369, 40.155809], [-8.459437, 40.155122], [-8.459506, 40.154739], [-8.459635, 40.15422], [-8.459912, 40.15347], [-8.46012, 40.152917], [-8.460284, 40.15261], [-8.460469, 40.152279], [-8.460667, 40.151983], [-8.460791, 40.151779], [-8.461249, 40.151036], [-8.462725, 40.148531], [-8.462937, 40.148217], [-8.464131, 40.146186], [-8.464522, 40.145536], [-8.465117, 40.144499], [-8.466051, 40.142663], [-8.46666, 40.141423], [-8.46708, 40.140635], [-8.46721, 40.140395], [-8.467392, 40.140063], [-8.467805, 40.139219], [-8.468674, 40.137356], [-8.468721, 40.137258], [-8.469191, 40.136312], [-8.469255, 40.136209], [-8.469473, 40.135946], [-8.469631, 40.135792], [-8.470069, 40.135501], [-8.470662, 40.135225], [-8.471111, 40.135008], [-8.47202, 40.134611], [-8.472902, 40.134209], [-8.473295, 40.133977], [-8.473578, 40.13372], [-8.474526, 40.132738], [-8.474834, 40.13245], [-8.475178, 40.132186], [-8.475482, 40.132024], [-8.476755, 40.13156], [-8.477891, 40.131142], [-8.478245, 40.131031], [-8.478331, 40.130998], [-8.478678, 40.130869], [-8.478777, 40.130835], [-8.480397, 40.130057], [-8.481685, 40.129441], [-8.482137, 40.129307], [-8.482403, 40.129245], [-8.482665, 40.129202], [-8.48306, 40.129182], [-8.483459, 40.129205], [-8.484795, 40.129343], [-8.485271, 40.129357], [-8.485742, 40.129346], [-8.486072, 40.129354], [-8.486299, 40.129384], [-8.486881, 40.129517], [-8.487054, 40.129526], [-8.48789, 40.129662], [-8.489, 40.129766], [-8.489532, 40.12983], [-8.489845, 40.129885], [-8.490146, 40.12996], [-8.490583, 40.130115], [-8.490869, 40.130246], [-8.491129, 40.130388], [-8.491379, 40.130553], [-8.491888, 40.130939], [-8.492258, 40.131219], [-8.492572, 40.131401], [-8.492889, 40.131584], [-8.493024, 40.131661], [-8.493807, 40.132123], [-8.494271, 40.132376], [-8.494672, 40.132526], [-8.495032, 40.1326], [-8.496836, 40.132782], [-8.497154, 40.132758], [-8.497427, 40.132636], [-8.497615, 40.132445], [-8.497661, 40.132224], [-8.497617, 40.132034], [-8.497491, 40.13183], [-8.497237, 40.131504], [-8.497129, 40.131301], [-8.497056, 40.131096], [-8.497035, 40.130927], [-8.49707, 40.130605], [-8.497223, 40.130215], [-8.497439, 40.129882], [-8.498353, 40.128837], [-8.498863, 40.128417], [-8.499194, 40.128118], [-8.500279, 40.127416], [-8.501026, 40.127022], [-8.501669, 40.126743], [-8.502361, 40.126491], [-8.503011, 40.126301], [-8.503726, 40.126128], [-8.504477, 40.125989], [-8.505395, 40.125871], [-8.507237, 40.125678], [-8.508114, 40.125559], [-8.50881, 40.125438], [-8.509667, 40.125252], [-8.510399, 40.125066], [-8.511739, 40.124631], [-8.512344, 40.12439], [-8.513289, 40.123963], [-8.513626, 40.123787], [-8.514211, 40.123474], [-8.515143, 40.122909], [-8.515517, 40.12266], [-8.516298, 40.12204], [-8.517119, 40.121323], [-8.518016, 40.12042], [-8.518686, 40.119775], [-8.519532, 40.118986], [-8.520938, 40.117771], [-8.523033, 40.116123], [-8.524179, 40.115126], [-8.524645, 40.114673], [-8.525326, 40.113942], [-8.526362, 40.112515], [-8.527037, 40.11131], [-8.527569, 40.110072], [-8.527858, 40.108953], [-8.528052, 40.107879], [-8.528237, 40.105748], [-8.52846, 40.104661], [-8.52874, 40.103608], [-8.529114, 40.10279], [-8.529576, 40.101964], [-8.530262, 40.101023], [-8.531105, 40.100096], [-8.532363, 40.09877], [-8.533026, 40.097828], [-8.533432, 40.097088], [-8.533769, 40.09635], [-8.533987, 40.095607], [-8.534185, 40.094461], [-8.534197, 40.093791], [-8.534178, 40.093187], [-8.533994, 40.091619], [-8.533957, 40.091046], [-8.53397, 40.09055], [-8.534069, 40.089634], [-8.534172, 40.089174], [-8.534476, 40.088258], [-8.534695, 40.087778], [-8.53494, 40.087332], [-8.535255, 40.086821], [-8.535611, 40.086284], [-8.536264, 40.085365], [-8.536592, 40.084862], [-8.53688, 40.084317], [-8.537199, 40.083524], [-8.537383, 40.082853], [-8.53748, 40.082286], [-8.537533, 40.081648], [-8.537516, 40.081028], [-8.537465, 40.080504], [-8.537279, 40.079231], [-8.53723, 40.07846], [-8.537244, 40.077759], [-8.537383, 40.076693], [-8.537679, 40.075644], [-8.538149, 40.074569], [-8.538667, 40.073692], [-8.539434, 40.07272], [-8.540061, 40.072076], [-8.540785, 40.071392], [-8.541202, 40.070998], [-8.541904, 40.070262], [-8.542544, 40.069474], [-8.543068, 40.068672], [-8.544352, 40.066324], [-8.544855, 40.065548], [-8.545508, 40.064749], [-8.546336, 40.063945], [-8.547129, 40.063302], [-8.547802, 40.062829], [-8.548213, 40.062564], [-8.550585, 40.061028], [-8.551545, 40.060357], [-8.55396, 40.058545], [-8.555909, 40.057222], [-8.557157, 40.056456], [-8.55918, 40.055328], [-8.560425, 40.0547], [-8.561646, 40.054118], [-8.565187, 40.052621], [-8.566107, 40.052176], [-8.566451, 40.051969], [-8.566947, 40.051672], [-8.567817, 40.051071], [-8.568652, 40.050393], [-8.569325, 40.049768], [-8.569957, 40.049047], [-8.570447, 40.0484], [-8.570954, 40.047578], [-8.572029, 40.0456], [-8.572641, 40.044668], [-8.573293, 40.043846], [-8.573788, 40.04336], [-8.574541, 40.042637], [-8.575038, 40.04225], [-8.575867, 40.041656], [-8.576619, 40.04114], [-8.576734, 40.041058], [-8.577704, 40.040352], [-8.578517, 40.039722], [-8.579108, 40.039237], [-8.579808, 40.038662], [-8.580635, 40.037918], [-8.581448, 40.037139], [-8.582205, 40.036383], [-8.58283, 40.035716], [-8.583512, 40.034948], [-8.58466, 40.03354], [-8.585285, 40.032681], [-8.586128, 40.031444], [-8.586912, 40.030158], [-8.587654, 40.028768], [-8.588628, 40.027034], [-8.589633, 40.025483], [-8.590747, 40.023977], [-8.591987, 40.022446], [-8.593248, 40.021079], [-8.594259, 40.020067], [-8.595537, 40.018894], [-8.597607, 40.017179], [-8.598249, 40.016574], [-8.598752, 40.016055], [-8.599306, 40.015245], [-8.599779, 40.014393], [-8.600027, 40.013871], [-8.600656, 40.01219], [-8.601031, 40.011315], [-8.601632, 40.010287], [-8.602249, 40.009454], [-8.603197, 40.00842], [-8.605189, 40.006623], [-8.60577, 40.006019], [-8.606328, 40.005342], [-8.606772, 40.004774], [-8.607261, 40.004012], [-8.607664, 40.00327], [-8.608015, 40.00252], [-8.608553, 40.001111], [-8.60897, 40.000158], [-8.609362, 39.999382], [-8.609797, 39.998741], [-8.61057, 39.997732], [-8.611153, 39.997102], [-8.613053, 39.995282], [-8.613724, 39.994547], [-8.614134, 39.994032], [-8.614645, 39.993267], [-8.61568, 39.99156], [-8.616211, 39.990783], [-8.616371, 39.990568], [-8.616836, 39.990014], [-8.61725, 39.989578], [-8.617668, 39.989171], [-8.61813, 39.988774], [-8.618903, 39.988178], [-8.619242, 39.987938], [-8.622082, 39.986161], [-8.622732, 39.985668], [-8.623345, 39.985136], [-8.624139, 39.984334], [-8.624683, 39.98366], [-8.626081, 39.981722], [-8.626448, 39.981262], [-8.626805, 39.98086], [-8.627201, 39.980428], [-8.627845, 39.97982], [-8.628648, 39.979179], [-8.62907, 39.978877], [-8.629783, 39.978433], [-8.630586, 39.97799], [-8.631433, 39.977586], [-8.634466, 39.976316], [-8.645624, 39.971719], [-8.647639, 39.970889], [-8.649618, 39.970129], [-8.651276, 39.969566], [-8.653976, 39.968726], [-8.654982, 39.968338], [-8.656013, 39.967849], [-8.656478, 39.967581], [-8.656949, 39.967292], [-8.657689, 39.966767], [-8.658059, 39.966461], [-8.658429, 39.966128], [-8.658859, 39.965688], [-8.659241, 39.965266], [-8.659872, 39.964448], [-8.661185, 39.962559], [-8.661722, 39.961898], [-8.66237, 39.961207], [-8.662961, 39.960672], [-8.663392, 39.960326], [-8.663898, 39.959951], [-8.665862, 39.958569], [-8.666535, 39.958039], [-8.667076, 39.95755], [-8.667345, 39.957271], [-8.667614, 39.956984], [-8.667982, 39.956541], [-8.668357, 39.956015], [-8.668629, 39.955573], [-8.668826, 39.955215], [-8.669182, 39.954422], [-8.669359, 39.953866], [-8.669522, 39.95325], [-8.669993, 39.950571], [-8.670107, 39.950073], [-8.670239, 39.949593], [-8.670492, 39.948865], [-8.670708, 39.948393], [-8.670928, 39.947966], [-8.671246, 39.947428], [-8.671539, 39.947007], [-8.67204, 39.946376], [-8.6726, 39.945776], [-8.673482, 39.944982], [-8.675382, 39.943476], [-8.675786, 39.943149], [-8.676527, 39.942525], [-8.677307, 39.941812], [-8.67755, 39.941569], [-8.677978, 39.94111], [-8.678225, 39.940818], [-8.678739, 39.94014], [-8.678805, 39.940037], [-8.679023, 39.939696], [-8.67935, 39.939138], [-8.679611, 39.938595], [-8.679891, 39.937935], [-8.680144, 39.937246], [-8.6803, 39.936597], [-8.680434, 39.935798], [-8.680474, 39.935373], [-8.680483, 39.934911], [-8.680473, 39.934085], [-8.680369, 39.932718], [-8.680234, 39.931487], [-8.680157, 39.930547], [-8.680106, 39.929495], [-8.680116, 39.928829], [-8.680161, 39.92809], [-8.680229, 39.927474], [-8.680419, 39.926456], [-8.680585, 39.925782], [-8.680989, 39.92458], [-8.681356, 39.923713], [-8.681905, 39.922645], [-8.682594, 39.921467], [-8.683482, 39.920007], [-8.683899, 39.919239], [-8.684069, 39.918892], [-8.684219, 39.918526], [-8.684348, 39.918188], [-8.684494, 39.917687], [-8.684593, 39.917269], [-8.684645, 39.916948], [-8.684707, 39.916156], [-8.684715, 39.915783], [-8.684568, 39.91298], [-8.684563, 39.912559], [-8.684594, 39.911719], [-8.684652, 39.911225], [-8.684775, 39.910552], [-8.684876, 39.910141], [-8.685114, 39.909397], [-8.685261, 39.909034], [-8.685569, 39.908377], [-8.685856, 39.907876], [-8.686439, 39.90698], [-8.687998, 39.90482], [-8.688543, 39.904017], [-8.689118, 39.903038], [-8.689363, 39.902553], [-8.689717, 39.901711], [-8.689956, 39.900992], [-8.690147, 39.900199], [-8.690274, 39.899454], [-8.690328, 39.898777], [-8.690339, 39.897925], [-8.690315, 39.897431], [-8.690175, 39.896277], [-8.689522, 39.893061], [-8.689436, 39.892479], [-8.689374, 39.891551], [-8.689378, 39.891278], [-8.68944, 39.890504], [-8.689509, 39.8901], [-8.689651, 39.889535], [-8.689833, 39.888976], [-8.689966, 39.888642], [-8.690314, 39.887916], [-8.690799, 39.88716], [-8.691089, 39.886783], [-8.691446, 39.886358], [-8.691829, 39.885954], [-8.692452, 39.885351], [-8.69318, 39.884731], [-8.694381, 39.883742], [-8.695336, 39.882902], [-8.696254, 39.882037], [-8.69725, 39.881026], [-8.698204, 39.879974], [-8.699036, 39.878976], [-8.699646, 39.878186], [-8.700028, 39.877664], [-8.700889, 39.876405], [-8.701688, 39.875107], [-8.702061, 39.874426], [-8.702438, 39.873694], [-8.703168, 39.87215], [-8.703669, 39.870895], [-8.7041, 39.869676], [-8.704442, 39.868527], [-8.704951, 39.86656], [-8.705164, 39.865871], [-8.705459, 39.865003], [-8.705999, 39.863628], [-8.706441, 39.862644], [-8.707095, 39.861365], [-8.70784, 39.860054], [-8.708201, 39.859471], [-8.708974, 39.858318], [-8.709642, 39.857403], [-8.709953, 39.856994], [-8.710844, 39.855905], [-8.711846, 39.854784], [-8.713255, 39.853356], [-8.713803, 39.852848], [-8.715261, 39.85155], [-8.715677, 39.851142], [-8.715928, 39.85087], [-8.716352, 39.850359], [-8.7167, 39.849868], [-8.716909, 39.849524], [-8.717179, 39.848991], [-8.717463, 39.84829], [-8.717603, 39.847788], [-8.717735, 39.847192], [-8.718136, 39.844968], [-8.718532, 39.843399], [-8.718713, 39.842787], [-8.719226, 39.841267], [-8.719788, 39.839905], [-8.72033, 39.838752], [-8.720865, 39.83751], [-8.721115, 39.836764], [-8.721254, 39.836138], [-8.721328, 39.835549], [-8.721343, 39.83511], [-8.721333, 39.834672], [-8.721304, 39.834361], [-8.72123, 39.833905], [-8.721162, 39.833568], [-8.721064, 39.833207], [-8.720868, 39.83265], [-8.720624, 39.832105], [-8.720376, 39.831634], [-8.720064, 39.831176], [-8.718711, 39.829328], [-8.718325, 39.828716], [-8.718033, 39.828134], [-8.717794, 39.827531], [-8.71765, 39.827046], [-8.717503, 39.82625], [-8.717459, 39.825629], [-8.717474, 39.824999], [-8.717565, 39.824313], [-8.717625, 39.824029], [-8.717816, 39.823382], [-8.718089, 39.822728], [-8.718392, 39.822155], [-8.718798, 39.821531], [-8.719217, 39.820963], [-8.719984, 39.82001], [-8.72071, 39.819092], [-8.721187, 39.818421], [-8.721671, 39.817627], [-8.72214, 39.816615], [-8.722278, 39.816252], [-8.722502, 39.815543], [-8.722592, 39.81518], [-8.72273, 39.81447], [-8.722786, 39.814043], [-8.722829, 39.813335], [-8.72283, 39.812846], [-8.722808, 39.812468], [-8.722677, 39.811342], [-8.722304, 39.809038], [-8.722263, 39.808612], [-8.722259, 39.808262], [-8.722302, 39.807663], [-8.722396, 39.807037], [-8.722607, 39.80628], [-8.722675, 39.806092], [-8.722995, 39.805385], [-8.723272, 39.804885], [-8.723784, 39.804151], [-8.724997, 39.802706], [-8.725905, 39.801549], [-8.726757, 39.800374], [-8.727998, 39.798473], [-8.728237, 39.798139], [-8.728747, 39.79751], [-8.729253, 39.796996], [-8.72961, 39.79667], [-8.730347, 39.796088], [-8.732984, 39.794289], [-8.733946, 39.79355], [-8.734305, 39.793242], [-8.734816, 39.792737], [-8.735347, 39.792136], [-8.735834, 39.791447], [-8.73613, 39.79095], [-8.736398, 39.790421], [-8.736637, 39.789833], [-8.736856, 39.78915], [-8.736966, 39.788632], [-8.737053, 39.788008], [-8.737117, 39.787042], [-8.737122, 39.785146], [-8.737147, 39.784212], [-8.737167, 39.784014], [-8.737314, 39.783088], [-8.737454, 39.782575], [-8.737712, 39.781841], [-8.737935, 39.781367], [-8.738277, 39.780745], [-8.738682, 39.780157], [-8.738992, 39.779753], [-8.739355, 39.779356], [-8.740168, 39.778547], [-8.740819, 39.777967], [-8.741758, 39.777081], [-8.74233, 39.776465], [-8.742636, 39.776076], [-8.742948, 39.775627], [-8.743229, 39.775151], [-8.743443, 39.774726], [-8.743675, 39.774173], [-8.743894, 39.773435], [-8.743972, 39.773086], [-8.744194, 39.771842], [-8.744378, 39.770532], [-8.744436, 39.770049], [-8.744551, 39.768687], [-8.744735, 39.7656], [-8.744963, 39.763609], [-8.745214, 39.762121], [-8.74529, 39.761774], [-8.745451, 39.761259], [-8.745745, 39.760523], [-8.746227, 39.759631], [-8.746978, 39.758573], [-8.747887, 39.757276], [-8.748331, 39.756543], [-8.74865, 39.755862], [-8.74885, 39.755314], [-8.748981, 39.754874], [-8.74908, 39.754351], [-8.749164, 39.753768], [-8.749158, 39.752899], [-8.749075, 39.752299], [-8.74895, 39.751711], [-8.748868, 39.751421], [-8.748726, 39.751013], [-8.748206, 39.749762], [-8.747781, 39.748645], [-8.747148, 39.746795], [-8.746818, 39.745909], [-8.746486, 39.745227], [-8.746202, 39.744707], [-8.746007, 39.744395], [-8.745696, 39.743965], [-8.745124, 39.743304], [-8.744673, 39.742855], [-8.744024, 39.742306], [-8.743239, 39.741736], [-8.742588, 39.741359], [-8.741779, 39.740945], [-8.741244, 39.740718], [-8.740685, 39.740511], [-8.739985, 39.740291], [-8.739209, 39.740076], [-8.736869, 39.739539], [-8.736015, 39.739321], [-8.735283, 39.739111], [-8.734599, 39.738862], [-8.734364, 39.738772], [-8.733385, 39.738299], [-8.732397, 39.737705], [-8.731962, 39.737384], [-8.731517, 39.737021], [-8.730916, 39.736453], [-8.729109, 39.734531], [-8.728363, 39.733799], [-8.728089, 39.733559], [-8.727614, 39.733164], [-8.727098, 39.732769], [-8.726195, 39.732155], [-8.725636, 39.731817], [-8.725054, 39.731494], [-8.72452, 39.731222], [-8.723497, 39.730746], [-8.721395, 39.729829], [-8.720577, 39.729441], [-8.719769, 39.729014], [-8.719051, 39.728565], [-8.71851, 39.728173], [-8.717841, 39.727599], [-8.717343, 39.727088], [-8.716925, 39.726581], [-8.716564, 39.726055], [-8.716227, 39.725466], [-8.715975, 39.724924], [-8.715752, 39.724349], [-8.715596, 39.723888], [-8.714992, 39.721871], [-8.714636, 39.720796], [-8.713864, 39.718796], [-8.71367, 39.718343], [-8.713115, 39.717152], [-8.712334, 39.715623], [-8.712074, 39.715129], [-8.711725, 39.714519], [-8.711391, 39.713985], [-8.710203, 39.712125], [-8.709644, 39.711173], [-8.709285, 39.710543], [-8.708161, 39.708539], [-8.707688, 39.707856], [-8.707203, 39.707236], [-8.706689, 39.706634], [-8.7061, 39.70603], [-8.705718, 39.705672], [-8.705296, 39.705308], [-8.704432, 39.704631], [-8.703901, 39.704261], [-8.703305, 39.70388], [-8.702497, 39.703414], [-8.700168, 39.702179], [-8.699129, 39.701571], [-8.698722, 39.701297], [-8.698338, 39.701006], [-8.697761, 39.700509], [-8.697227, 39.699968], [-8.696684, 39.699305], [-8.696339, 39.698775], [-8.696033, 39.698226], [-8.69538, 39.696898], [-8.694822, 39.695883], [-8.694388, 39.695244], [-8.693957, 39.694695], [-8.692587, 39.693125], [-8.69133, 39.691548], [-8.690542, 39.69043], [-8.689699, 39.689111], [-8.688885, 39.687786], [-8.688274, 39.686907], [-8.687424, 39.685735], [-8.685583, 39.683484], [-8.684826, 39.682409], [-8.684395, 39.681628], [-8.684262, 39.681355], [-8.684127, 39.68101], [-8.684006, 39.68067], [-8.683875, 39.680199], [-8.683777, 39.67964], [-8.683717, 39.679013], [-8.68374, 39.678202], [-8.683846, 39.677459], [-8.684176, 39.676237], [-8.68515, 39.673628], [-8.685515, 39.672551], [-8.685743, 39.671791], [-8.686138, 39.670584], [-8.686272, 39.670228], [-8.686544, 39.669611], [-8.686805, 39.669083], [-8.687083, 39.668568], [-8.687762, 39.667521], [-8.688304, 39.666809], [-8.690025, 39.664698], [-8.69057, 39.663972], [-8.691168, 39.663146], [-8.691686, 39.662395], [-8.692236, 39.661659], [-8.69271, 39.661049], [-8.693229, 39.660432], [-8.694124, 39.659318], [-8.694691, 39.658527], [-8.695051, 39.657974], [-8.695527, 39.65704], [-8.695913, 39.656027], [-8.696008, 39.655693], [-8.696159, 39.655015], [-8.696221, 39.654645], [-8.696292, 39.653934], [-8.696301, 39.653645], [-8.696255, 39.652316], [-8.696067, 39.650304], [-8.696062, 39.650019], [-8.696099, 39.649377], [-8.696145, 39.64899], [-8.696216, 39.648645], [-8.696409, 39.647934], [-8.696514, 39.647656], [-8.6968, 39.647028], [-8.696932, 39.646783], [-8.697442, 39.645975], [-8.697925, 39.645268], [-8.698249, 39.644757], [-8.698499, 39.644307], [-8.698706, 39.643864], [-8.698908, 39.643348], [-8.69909, 39.642685], [-8.699173, 39.642246], [-8.69922, 39.641825], [-8.699245, 39.64141], [-8.699236, 39.640999], [-8.699202, 39.640563], [-8.699037, 39.639326], [-8.698896, 39.637957], [-8.698857, 39.637374], [-8.698828, 39.636762], [-8.698808, 39.6341], [-8.698777, 39.63322], [-8.698706, 39.632461], [-8.698597, 39.631639], [-8.698442, 39.630909], [-8.698226, 39.630062], [-8.697941, 39.629204], [-8.697661, 39.628471], [-8.697195, 39.627447], [-8.696722, 39.62652], [-8.695886, 39.625307], [-8.695468, 39.624748], [-8.694832, 39.623951], [-8.694407, 39.623475], [-8.69356, 39.622598], [-8.693057, 39.622136], [-8.692441, 39.621619], [-8.691688, 39.621027], [-8.691265, 39.620723], [-8.689014, 39.619156], [-8.687373, 39.617883], [-8.685816, 39.616416], [-8.683165, 39.613286], [-8.682025, 39.611993], [-8.679875, 39.60987], [-8.675569, 39.606227], [-8.674666, 39.605405], [-8.673829, 39.604545], [-8.67304, 39.60362], [-8.672662, 39.603142], [-8.67175, 39.601791], [-8.67098, 39.60039], [-8.669983, 39.598397], [-8.668936, 39.596442], [-8.668041, 39.594921], [-8.667089, 39.593436], [-8.665641, 39.591367], [-8.664151, 39.589326], [-8.662859, 39.587365], [-8.661621, 39.585345], [-8.661454, 39.585098], [-8.660708, 39.584059], [-8.659888, 39.583054], [-8.658998, 39.582103], [-8.656204, 39.579373], [-8.655613, 39.578684], [-8.655043, 39.577978], [-8.654502, 39.577177], [-8.654008, 39.576342], [-8.653539, 39.575362], [-8.653145, 39.574348], [-8.652858, 39.573348], [-8.652693, 39.572301], [-8.65256, 39.570612], [-8.65249, 39.568922], [-8.652445, 39.568216], [-8.652381, 39.567612], [-8.652274, 39.567018], [-8.651891, 39.56564], [-8.65114, 39.563514], [-8.650889, 39.562644], [-8.650752, 39.561747], [-8.65075, 39.561005], [-8.650831, 39.560241], [-8.650975, 39.559557], [-8.651211, 39.558869], [-8.651466, 39.558306], [-8.651794, 39.557736], [-8.65218, 39.557189], [-8.652626, 39.556651], [-8.653426, 39.555899], [-8.653947, 39.555535], [-8.655619, 39.554314], [-8.656841, 39.553375], [-8.657626, 39.552682], [-8.658588, 39.551729], [-8.659454, 39.550718], [-8.660531, 39.549122], [-8.661407, 39.547449], [-8.662103, 39.545354], [-8.662426, 39.543263], [-8.662365, 39.541241], [-8.662021, 39.539479], [-8.66166, 39.538469], [-8.661538, 39.538128], [-8.660854, 39.536212], [-8.660708, 39.5357], [-8.660646, 39.535016], [-8.660668, 39.534303], [-8.66082, 39.533613], [-8.661033, 39.532963], [-8.661348, 39.532387], [-8.66233, 39.531069], [-8.663864, 39.529908], [-8.665451, 39.529231], [-8.66752, 39.528716], [-8.66927, 39.528417], [-8.670646, 39.527983], [-8.671722, 39.527546], [-8.67303, 39.526709], [-8.673896, 39.525856], [-8.674523, 39.52504], [-8.675039, 39.524], [-8.675854, 39.520649], [-8.676159, 39.519743], [-8.677149, 39.517334], [-8.677594, 39.516101], [-8.677729, 39.515008], [-8.677618, 39.513841], [-8.677309, 39.512768], [-8.676671, 39.511572], [-8.675574, 39.510251], [-8.674159, 39.509189], [-8.673106, 39.508624], [-8.670979, 39.50771], [-8.669464, 39.507059], [-8.668366, 39.506393], [-8.667139, 39.505471], [-8.664809, 39.503435], [-8.663006, 39.502234], [-8.661485, 39.501424], [-8.660088, 39.500774], [-8.656094, 39.499306], [-8.65519, 39.498837], [-8.654244, 39.498253], [-8.653316, 39.497496], [-8.652805, 39.496979], [-8.652536, 39.496678], [-8.652052, 39.496025], [-8.651833, 39.495694], [-8.651643, 39.495354], [-8.650787, 39.493589], [-8.650481, 39.492999], [-8.650229, 39.49257], [-8.649519, 39.491572], [-8.648858, 39.490896], [-8.648149, 39.490264], [-8.646602, 39.489141], [-8.644851, 39.488315], [-8.642691, 39.487431], [-8.642059, 39.487113], [-8.640558, 39.4864], [-8.639462, 39.48567], [-8.638455, 39.484856], [-8.638143, 39.484567], [-8.637364, 39.483765], [-8.635375, 39.481375], [-8.634876, 39.480782], [-8.633437, 39.47921], [-8.632154, 39.477858], [-8.631754, 39.477379], [-8.631033, 39.476541], [-8.630836, 39.4763], [-8.630491, 39.47579], [-8.630037, 39.475018], [-8.62967, 39.474232], [-8.62925, 39.473102], [-8.629128, 39.472747], [-8.628934, 39.471882], [-8.628836, 39.471273], [-8.628788, 39.470564], [-8.628773, 39.469808], [-8.628851, 39.468881], [-8.629056, 39.467567], [-8.629447, 39.465572], [-8.629622, 39.464279], [-8.629778, 39.46294], [-8.630021, 39.46134], [-8.630395, 39.459372], [-8.630894, 39.457331], [-8.631169, 39.455925], [-8.631314, 39.454809], [-8.631403, 39.453585], [-8.631442, 39.452354], [-8.631359, 39.450778], [-8.631232, 39.449658], [-8.631036, 39.448465], [-8.63074, 39.447218], [-8.630425, 39.446157], [-8.630281, 39.445673], [-8.62956, 39.44379], [-8.628488, 39.441111], [-8.628095, 39.439837], [-8.627864, 39.438889], [-8.627698, 39.437869], [-8.627595, 39.436877], [-8.627572, 39.436016], [-8.627609, 39.434681], [-8.627677, 39.433966], [-8.627783, 39.433332], [-8.628069, 39.431991], [-8.628413, 39.430904], [-8.628721, 39.430054], [-8.629392, 39.428531], [-8.630474, 39.426295], [-8.63093, 39.425152], [-8.631335, 39.423881], [-8.632093, 39.42086], [-8.632488, 39.419462], [-8.632995, 39.418077], [-8.633745, 39.416455], [-8.635814, 39.412723], [-8.636243, 39.41178], [-8.636586, 39.410747], [-8.636882, 39.409694], [-8.637018, 39.408949], [-8.637148, 39.407942], [-8.637261, 39.406255], [-8.637365, 39.405019], [-8.63757, 39.403767], [-8.63789, 39.402524], [-8.63869, 39.400051], [-8.63905, 39.398937], [-8.639438, 39.39738], [-8.639586, 39.396438], [-8.639601, 39.395748], [-8.639615, 39.395214], [-8.639553, 39.394453], [-8.63943, 39.393555], [-8.639286, 39.39272], [-8.638749, 39.391102], [-8.638424, 39.390331], [-8.637625, 39.38896], [-8.637126, 39.388259], [-8.636167, 39.387054], [-8.633189, 39.383754], [-8.632059, 39.382223], [-8.631248, 39.380859], [-8.63089, 39.38006], [-8.630666, 39.379472], [-8.63037, 39.378422], [-8.630135, 39.377268], [-8.630012, 39.375939], [-8.629979, 39.374193], [-8.629985, 39.372443], [-8.629909, 39.370957], [-8.629624, 39.367937], [-8.629656, 39.367023], [-8.629799, 39.366115], [-8.630079, 39.365247], [-8.630537, 39.36424], [-8.631039, 39.363441], [-8.631683, 39.362659], [-8.632234, 39.362077], [-8.632912, 39.36149], [-8.633799, 39.360834], [-8.635652, 39.359625], [-8.636687, 39.358888], [-8.637384, 39.358358], [-8.638257, 39.35763], [-8.6395, 39.356517], [-8.641232, 39.354916], [-8.642829, 39.353586], [-8.644936, 39.351934], [-8.646252, 39.350921], [-8.648554, 39.348994], [-8.649357, 39.348249], [-8.650126, 39.347387], [-8.650844, 39.346537], [-8.651723, 39.345288], [-8.652329, 39.344297], [-8.652775, 39.343403], [-8.653279, 39.34223], [-8.653566, 39.341394], [-8.653858, 39.34031], [-8.654073, 39.339258], [-8.654578, 39.335709], [-8.654733, 39.334924], [-8.654927, 39.334233], [-8.655198, 39.333431], [-8.655562, 39.332635], [-8.656015, 39.331829], [-8.656479, 39.331105], [-8.65726, 39.33001], [-8.658159, 39.328891], [-8.661862, 39.324116], [-8.662523, 39.323185], [-8.663762, 39.321308], [-8.664978, 39.319537], [-8.665158, 39.31931], [-8.66598, 39.31827], [-8.666761, 39.317341], [-8.667773, 39.316188], [-8.668962, 39.314969], [-8.669651, 39.314312], [-8.670426, 39.313612], [-8.670795, 39.313298], [-8.6735, 39.310959], [-8.674716, 39.309762], [-8.675637, 39.308767], [-8.676774, 39.307384], [-8.677593, 39.306263], [-8.679133, 39.303944], [-8.679917, 39.302822], [-8.680096, 39.302598], [-8.680913, 39.301618], [-8.682119, 39.300428], [-8.682944, 39.299672], [-8.683186, 39.299461], [-8.68482, 39.298008], [-8.685652, 39.297205], [-8.686402, 39.296391], [-8.687114, 39.295546], [-8.687815, 39.294606], [-8.688505, 39.293488], [-8.688764, 39.293036], [-8.689374, 39.291827], [-8.689547, 39.291436], [-8.689849, 39.290805], [-8.690316, 39.289373], [-8.691118, 39.286305], [-8.691502, 39.285033], [-8.691889, 39.284152], [-8.692333, 39.283427], [-8.693095, 39.282447], [-8.693941, 39.281538], [-8.694653, 39.280917], [-8.695342, 39.280379], [-8.69621, 39.27981], [-8.69735, 39.27916], [-8.698108, 39.278842], [-8.699031, 39.278486], [-8.700415, 39.278034], [-8.704761, 39.276572], [-8.705197, 39.276406], [-8.706967, 39.275694], [-8.710049, 39.274369], [-8.712006, 39.273636], [-8.716049, 39.272178], [-8.716901, 39.271857], [-8.717872, 39.271465], [-8.718388, 39.271245], [-8.719452, 39.27078], [-8.720444, 39.270296], [-8.721492, 39.269754], [-8.722791, 39.26904], [-8.723478, 39.268631], [-8.72475, 39.267839], [-8.725202, 39.267552], [-8.72619, 39.266876], [-8.727346, 39.266035], [-8.728647, 39.264982], [-8.729649, 39.264147], [-8.730806, 39.263026], [-8.731597, 39.262224], [-8.732315, 39.261449], [-8.732603, 39.261128], [-8.733138, 39.260496], [-8.733808, 39.259662], [-8.734098, 39.259294], [-8.734545, 39.258669], [-8.735321, 39.257533], [-8.736066, 39.256346], [-8.73703, 39.254653], [-8.737321, 39.254125], [-8.737863, 39.253113], [-8.741255, 39.246971], [-8.742058, 39.245647], [-8.74264, 39.24486], [-8.743073, 39.244347], [-8.743646, 39.243786], [-8.744334, 39.243187], [-8.744818, 39.242805], [-8.745733, 39.242208], [-8.746388, 39.241825], [-8.747409, 39.241303], [-8.747934, 39.241081], [-8.749061, 39.24067], [-8.750043, 39.240385], [-8.753869, 39.239484], [-8.755731, 39.238986], [-8.756634, 39.238685], [-8.758042, 39.238097], [-8.758763, 39.237758], [-8.759407, 39.237433], [-8.760119, 39.237047], [-8.76108, 39.236442], [-8.761801, 39.235917], [-8.762685, 39.235219], [-8.763372, 39.234594], [-8.764102, 39.233863], [-8.764642, 39.233284], [-8.765235, 39.232493], [-8.766136, 39.230991], [-8.766548, 39.230213], [-8.767449, 39.228225], [-8.768367, 39.226137], [-8.769483, 39.223976], [-8.769981, 39.223125], [-8.770771, 39.221868], [-8.771346, 39.22103], [-8.77226, 39.219736], [-8.773726, 39.217831], [-8.775278, 39.21602], [-8.776388, 39.214827], [-8.777154, 39.214046], [-8.778245, 39.212993], [-8.779216, 39.21211], [-8.780708, 39.210834], [-8.783, 39.209061], [-8.784378, 39.208076], [-8.78514, 39.207564], [-8.786425, 39.206741], [-8.787877, 39.20586], [-8.789352, 39.205032], [-8.791037, 39.204137], [-8.792378, 39.203476], [-8.793077, 39.203138], [-8.794982, 39.202299], [-8.796187, 39.201797], [-8.798779, 39.200809], [-8.801682, 39.199852], [-8.806576, 39.198392], [-8.807703, 39.198017], [-8.807941, 39.197938], [-8.808767, 39.197663], [-8.811035, 39.19678], [-8.813009, 39.195914], [-8.815084, 39.194865], [-8.817028, 39.193758], [-8.819264, 39.192333], [-8.820662, 39.191293], [-8.822556, 39.189778], [-8.824123, 39.188388], [-8.824556, 39.187945], [-8.826818, 39.185512], [-8.828846, 39.18328], [-8.83126, 39.18095], [-8.832953, 39.179549], [-8.834482, 39.178392], [-8.836099, 39.177311], [-8.837563, 39.176397], [-8.83983, 39.175179], [-8.843978, 39.173155], [-8.846148, 39.171983], [-8.84651, 39.171777], [-8.84766, 39.171118], [-8.849553, 39.169808], [-8.85072, 39.168833], [-8.852738, 39.16707], [-8.854596, 39.16563], [-8.855926, 39.164788], [-8.857651, 39.163782], [-8.860578, 39.162211], [-8.862009, 39.161302], [-8.863486, 39.160268], [-8.864875, 39.159079], [-8.866691, 39.157494], [-8.868355, 39.156126], [-8.869857, 39.155122], [-8.871501, 39.154216], [-8.873097, 39.153477], [-8.874262, 39.15302], [-8.876174, 39.152211], [-8.87792, 39.151272], [-8.879115, 39.150492], [-8.879471, 39.150236], [-8.880712, 39.149251], [-8.881424, 39.148596], [-8.882132, 39.147855], [-8.883151, 39.146678], [-8.88408, 39.14535], [-8.885195, 39.143764], [-8.885765, 39.14309], [-8.886367, 39.142468], [-8.886965, 39.141945], [-8.888035, 39.141149], [-8.888431, 39.140868], [-8.889792, 39.139875], [-8.891067, 39.138833], [-8.891234, 39.138683], [-8.89155, 39.138392], [-8.892284, 39.137706], [-8.892894, 39.13707], [-8.893474, 39.136417], [-8.894233, 39.135505], [-8.895989, 39.133128], [-8.896366, 39.132663], [-8.897504, 39.131446], [-8.898002, 39.130992], [-8.899014, 39.13014], [-8.901928, 39.128087], [-8.903716, 39.126683], [-8.904213, 39.126248], [-8.905424, 39.125191], [-8.906915, 39.123762], [-8.907983, 39.122958], [-8.909443, 39.122105], [-8.910216, 39.121649], [-8.910822, 39.121242], [-8.911713, 39.120612], [-8.913886, 39.11886], [-8.915219, 39.118062], [-8.916694, 39.117337], [-8.918397, 39.116721], [-8.920066, 39.11601], [-8.921549, 39.115227], [-8.923207, 39.114266], [-8.923813, 39.113978], [-8.924659, 39.113612], [-8.925796, 39.11325], [-8.927322, 39.112842], [-8.928234, 39.112528], [-8.92939, 39.112023], [-8.930655, 39.111277], [-8.931735, 39.110401], [-8.932743, 39.109332], [-8.933353, 39.108338], [-8.933897, 39.107079], [-8.934146, 39.105781], [-8.934253, 39.104405], [-8.934298, 39.102851], [-8.934207, 39.100957], [-8.933993, 39.098943], [-8.933704, 39.097679], [-8.933312, 39.096513], [-8.932828, 39.095415], [-8.932184, 39.094275], [-8.930705, 39.092009], [-8.930235, 39.090988], [-8.929967, 39.089951], [-8.929846, 39.089048], [-8.929854, 39.087878], [-8.93, 39.086888], [-8.93033, 39.085919], [-8.931487, 39.082905], [-8.9319, 39.081702], [-8.932314, 39.080275], [-8.932611, 39.078936], [-8.932859, 39.077034], [-8.933111, 39.074738], [-8.933241, 39.074109], [-8.933292, 39.073902], [-8.933437, 39.073405], [-8.93386, 39.072374], [-8.934494, 39.071283], [-8.935085, 39.070552], [-8.935759, 39.069855], [-8.937671, 39.0682], [-8.938488, 39.067295], [-8.939166, 39.066294], [-8.939589, 39.065423], [-8.941069, 39.061331], [-8.941343, 39.060441], [-8.941583, 39.059366], [-8.941872, 39.056546], [-8.942027, 39.055771], [-8.942335, 39.05476], [-8.942759, 39.053898], [-8.9433, 39.053043], [-8.944054, 39.052117], [-8.945987, 39.050106], [-8.946608, 39.049345], [-8.947392, 39.048274], [-8.949864, 39.044807], [-8.951003, 39.043443], [-8.95241, 39.041952], [-8.956052, 39.038527], [-8.957025, 39.037569], [-8.957965, 39.036541], [-8.958617, 39.035666], [-8.959305, 39.034645], [-8.959956, 39.033538], [-8.960451, 39.032445], [-8.960896, 39.031352], [-8.961032, 39.030898], [-8.961236, 39.030205], [-8.961625, 39.028741], [-8.961831, 39.028006], [-8.962227, 39.026846], [-8.9624, 39.02641], [-8.962548, 39.026072], [-8.962823, 39.025435], [-8.962931, 39.025208], [-8.963693, 39.023826], [-8.964141, 39.022997], [-8.964435, 39.02249], [-8.96471, 39.021936], [-8.965463, 39.020091], [-8.965904, 39.018404], [-8.966075, 39.01731], [-8.966171, 39.016524], [-8.966234, 39.015679], [-8.966402, 39.013573], [-8.966468, 39.012772], [-8.966663, 39.010515], [-8.96676, 39.009296], [-8.966854, 39.008128], [-8.967004, 39.006516], [-8.967039, 39.005775], [-8.967101, 39.004993], [-8.967323, 39.002476], [-8.967334, 39.001934], [-8.967485, 39.000199], [-8.967632, 38.998774], [-8.967794, 38.997699], [-8.968232, 38.995523], [-8.968764, 38.993426], [-8.969587, 38.990934], [-8.970665, 38.988305], [-8.973107, 38.983134], [-8.974863, 38.979947], [-8.97624, 38.977578], [-8.977678, 38.975234], [-8.978858, 38.973431], [-8.979499, 38.972574], [-8.980478, 38.971579], [-8.981485, 38.970767], [-8.982056, 38.970282], [-8.982389, 38.969954], [-8.982856, 38.969407], [-8.983136, 38.969053], [-8.983606, 38.968302], [-8.983853, 38.967818], [-8.984068, 38.967315], [-8.984215, 38.966785], [-8.984335, 38.966232], [-8.984617, 38.964726], [-8.984724, 38.964305], [-8.984904, 38.963752], [-8.985253, 38.963036], [-8.985546, 38.96253], [-8.985868, 38.962032], [-8.986396, 38.961349], [-8.986698, 38.961044], [-8.987735, 38.960147], [-8.988462, 38.959624], [-8.988728, 38.959417], [-8.989649, 38.958747], [-8.990807, 38.957839], [-8.991778, 38.956735], [-8.992105, 38.956308], [-8.992509, 38.955709], [-8.992759, 38.955256], [-8.992946, 38.954767], [-8.993317, 38.953664], [-8.99345, 38.952614], [-8.993465, 38.951781], [-8.993494, 38.950624], [-8.993649, 38.949476], [-8.994003, 38.948303], [-8.994518, 38.947273], [-8.995066, 38.946404], [-8.995468, 38.945925], [-8.995893, 38.945454], [-8.996203, 38.945149], [-8.996785, 38.944652], [-8.997726, 38.943895], [-8.997896, 38.943768], [-8.999167, 38.942788], [-8.999596, 38.942426], [-9.000014, 38.942018], [-9.00062, 38.941325], [-9.001325, 38.940342], [-9.003908, 38.936531], [-9.004566, 38.935598], [-9.005278, 38.934746], [-9.006047, 38.934023], [-9.00791, 38.932369], [-9.00864, 38.931643], [-9.009217, 38.930948], [-9.009759, 38.93025], [-9.010189, 38.929518], [-9.011329, 38.92733], [-9.011862, 38.9263], [-9.012205, 38.92563], [-9.012693, 38.924831], [-9.013394, 38.923979], [-9.014338, 38.923128], [-9.016921, 38.920956], [-9.019565, 38.918883], [-9.021366, 38.917547], [-9.021844, 38.917236], [-9.024547, 38.915403], [-9.025017, 38.915091], [-9.026017, 38.914406], [-9.032347, 38.910277], [-9.038312, 38.906353], [-9.038866, 38.906], [-9.040859, 38.90463], [-9.041485, 38.904156], [-9.042054, 38.903693], [-9.042887, 38.902912], [-9.043339, 38.902417], [-9.043894, 38.901739], [-9.044586, 38.900749], [-9.0456, 38.899124], [-9.047069, 38.896712], [-9.047434, 38.896112], [-9.047792, 38.895524], [-9.048611, 38.894204], [-9.049039, 38.893527], [-9.049348, 38.893044], [-9.049689, 38.892565], [-9.050174, 38.891983], [-9.051006, 38.890989], [-9.051559, 38.890462], [-9.05184, 38.890214], [-9.052313, 38.889816], [-9.053145, 38.889117], [-9.053433, 38.888874], [-9.053976, 38.888685], [-9.05511, 38.888021], [-9.055478, 38.88775], [-9.05562, 38.887614], [-9.056106, 38.886965], [-9.056389, 38.886779], [-9.05663, 38.886603], [-9.056916, 38.886394], [-9.057438, 38.886026], [-9.057811, 38.88574], [-9.058691, 38.885025], [-9.059539, 38.884294], [-9.060351, 38.88347], [-9.061134, 38.882619], [-9.063277, 38.879723], [-9.063576, 38.879276], [-9.064495, 38.87804], [-9.068896, 38.871793], [-9.069303, 38.871294], [-9.070003, 38.870583], [-9.071207, 38.869568], [-9.072245, 38.868924], [-9.073569, 38.868189], [-9.075214, 38.867491], [-9.076804, 38.866733], [-9.077692, 38.866243], [-9.078598, 38.86559], [-9.078971, 38.865273], [-9.079349, 38.864914], [-9.079967, 38.864252], [-9.080345, 38.863778], [-9.080639, 38.863348], [-9.080846, 38.862987], [-9.081138, 38.862422], [-9.082002, 38.860251], [-9.083075, 38.857629], [-9.083601, 38.856438], [-9.083873, 38.855883], [-9.084177, 38.855348], [-9.084524, 38.854785], [-9.085191, 38.853834], [-9.086492, 38.852068], [-9.09058, 38.846602], [-9.091279, 38.845656], [-9.092097, 38.844548], [-9.093612, 38.842372], [-9.094193, 38.841348], [-9.094636, 38.840349], [-9.095047, 38.83915], [-9.09872, 38.825399], [-9.099509, 38.822378], [-9.100144, 38.819956], [-9.101471, 38.814867], [-9.101763, 38.813782], [-9.102078, 38.812714], [-9.10245, 38.811595], [-9.102748, 38.810807], [-9.103064, 38.810036], [-9.103719, 38.808587], [-9.104069, 38.807891], [-9.104408, 38.807246], [-9.104862, 38.806439], [-9.107729, 38.801747], [-9.109175, 38.799383], [-9.111061, 38.796298], [-9.112257, 38.794344], [-9.112685, 38.793647], [-9.113224, 38.793047], [-9.113432, 38.792846], [-9.113767, 38.792699], [-9.113989, 38.792633], [-9.114213, 38.792608], [-9.114457, 38.792628], [-9.114668, 38.792688], [-9.114929, 38.792826], [-9.115194, 38.79304], [-9.115519, 38.793352], [-9.116009, 38.793791], [-9.116736, 38.794358], [-9.117288, 38.794695], [-9.117646, 38.794944], [-9.11823, 38.795267], [-9.118695, 38.795474], [-9.119669, 38.795824], [-9.120289, 38.796005], [-9.120917, 38.796233], [-9.12143, 38.79645], [-9.121935, 38.796695], [-9.12238, 38.796941], [-9.122831, 38.797218], [-9.123151, 38.79745], [-9.124639, 38.798671], [-9.125192, 38.799055], [-9.12551, 38.799241], [-9.125783, 38.799375], [-9.126063, 38.79949], [-9.126341, 38.799596], [-9.126764, 38.799729], [-9.127125, 38.799822], [-9.127944, 38.800001], [-9.132262, 38.800922], [-9.13234, 38.800942], [-9.132608, 38.801072], [-9.133251, 38.801262], [-9.133962, 38.801505], [-9.13503, 38.801911], [-9.13563, 38.802172], [-9.13605, 38.802344], [-9.136381, 38.802413], [-9.136719, 38.802417], [-9.137017, 38.802366], [-9.137255, 38.802278], [-9.137515, 38.802151], [-9.137798, 38.801947], [-9.137955, 38.801765], [-9.138086, 38.801556], [-9.138185, 38.801179], [-9.138228, 38.800943], [-9.138329, 38.800612], [-9.138509, 38.800236], [-9.139746, 38.798545], [-9.140217, 38.798047], [-9.140916, 38.797286], [-9.141125, 38.797028], [-9.142813, 38.795061], [-9.143567, 38.794091], [-9.144708, 38.79262], [-9.145988, 38.790965], [-9.146393, 38.790492], [-9.147098, 38.789931], [-9.147609, 38.789678], [-9.148353, 38.789419], [-9.149076, 38.789304], [-9.150333, 38.789164], [-9.150698, 38.789117], [-9.151147, 38.789015], [-9.151768, 38.788764], [-9.152097, 38.788577], [-9.152779, 38.788152], [-9.153236, 38.787667], [-9.153517, 38.787231], [-9.153578, 38.787137], [-9.15379, 38.78663], [-9.153998, 38.786089], [-9.154215, 38.785471], [-9.154237, 38.785293], [-9.154326, 38.784983], [-9.154552, 38.784343], [-9.154847, 38.783458], [-9.155364, 38.782051], [-9.155616, 38.781476], [-9.155861, 38.780975], [-9.156292, 38.780207], [-9.156844, 38.77933], [-9.15738, 38.77858], [-9.157976, 38.777885], [-9.159224, 38.776591], [-9.163177, 38.773017], [-9.16392, 38.772364], [-9.16515, 38.771402], [-9.165633, 38.771085], [-9.166391, 38.770642], [-9.167732, 38.769979], [-9.170048, 38.768843], [-9.170231, 38.768738], [-9.170707, 38.76844], [-9.171089, 38.768157], [-9.17147, 38.767818], [-9.171855, 38.767408], [-9.172138, 38.76705], [-9.172335, 38.76677], [-9.172822, 38.765642], [-9.172955, 38.765164], [-9.173044, 38.764578], [-9.173041, 38.763759], [-9.173014, 38.763504], [-9.172841, 38.762263], [-9.172726, 38.7614], [-9.172637, 38.760603], [-9.172585, 38.760199], [-9.172558, 38.759979], [-9.172298, 38.757952], [-9.172318, 38.757904], [-9.172224, 38.75716], [-9.172208, 38.757037], [-9.172022, 38.756118], [-9.171935, 38.755775], [-9.171793, 38.755306], [-9.171578, 38.754762], [-9.17132, 38.75432], [-9.170868, 38.753633], [-9.170086, 38.752567], [-9.169909, 38.75234], [-9.169388, 38.751641], [-9.169279, 38.751224], [-9.169024, 38.750609], [-9.168909, 38.750446], [-9.168902, 38.750264], [-9.168938, 38.750191], [-9.169009, 38.750124], [-9.16914, 38.750069], [-9.16927, 38.750066], [-9.170749, 38.750048], [-9.170883, 38.750045], [-9.174668, 38.749969], [-9.175103, 38.74996], [-9.175557, 38.74995], [-9.177601, 38.749909], [-9.178572, 38.749896], [-9.17902, 38.749908], [-9.180465, 38.750029], [-9.180643, 38.750045], [-9.181173, 38.750093], [-9.181691, 38.750201], [-9.182386, 38.750289], [-9.182561, 38.75033], [-9.182701, 38.7504], [-9.182822, 38.750421], [-9.183381, 38.750587], [-9.184046, 38.750873], [-9.184303, 38.750985], [-9.184955, 38.751291], [-9.185472, 38.751541], [-9.185917, 38.751783], [-9.186017, 38.751856], [-9.186074, 38.751925], [-9.186129, 38.752027], [-9.186164, 38.752168], [-9.186191, 38.752437], [-9.186196, 38.752458]]}}], "metadata": {"attribution": "openrouteservice.org | OpenStreetMap contributors", "service": "routing", "timestamp": 1780868128427, "query": {"coordinates": [[-8.409922, 40.193131], [-9.1846899, 38.7526893]], "profile": "driving-car", "profileName": "driving-car", "preference": "fastest", "format": "geojson"}, "engine": {"version": "9.9.0", "build_date": "2026-04-20T10:23:42Z", "graph_date": "2026-05-15T15:29:58Z", "osm_date": "2026-04-26T23:59:57Z"}, "system_message": "Preference 'fastest' has been deprecated, using 'recommended'."}}