{
"type": "FeatureCollection",
"name": "pois_cafe_clusters",
"crs": { "type": "name", "properties": { "name": "urn:ogc:def:crs:OGC:1.3:CRS84" } },
"features": [
{ "type": "Feature", "properties": { "osm_id": "251572920", "lastchange": null, "code": "2303", "fclass": "cafe", "name": "Café Dom João", "cluster": "-1" }, "geometry": { "type": "Point", "coordinates": [ -8.4175014, 40.1996106 ] } },
{ "type": "Feature", "properties": { "osm_id": "251607375", "lastchange": null, "code": "2303", "fclass": "cafe", "name": "A Tasquinha do João", "cluster": "-1" }, "geometry": { "type": "Point", "coordinates": [ -8.4173123, 40.1997458 ] } },
{ "type": "Feature", "properties": { "osm_id": "251898013", "lastchange": null, "code": "2303", "fclass": "cafe", "name": "Esquininha", "cluster": "-1" }, "geometry": { "type": "Point", "coordinates": [ -8.4117181, 40.1999472 ] } },
{ "type": "Feature", "properties": { "osm_id": "251900607", "lastchange": null, "code": "2303", "fclass": "cafe", "name": "Mónaco", "cluster": "-1" }, "geometry": { "type": "Point", "coordinates": [ -8.4116881, 40.1994624 ] } },
{ "type": "Feature", "properties": { "osm_id": "253479342", "lastchange": null, "code": "2303", "fclass": "cafe", "name": "Café O Trevo", "cluster": "-1" }, "geometry": { "type": "Point", "coordinates": [ -8.3351267, 40.1580853 ] } },
{ "type": "Feature", "properties": { "osm_id": "344188995", "lastchange": null, "code": "2303", "fclass": "cafe", "name": "Pastelaria Arco-Íris", "cluster": "-1" }, "geometry": { "type": "Point", "coordinates": [ -8.4152452, 40.1955928 ] } },
{ "type": "Feature", "properties": { "osm_id": "535364817", "lastchange": null, "code": "2303", "fclass": "cafe", "name": "Cafe Gois", "cluster": "-1" }, "geometry": { "type": "Point", "coordinates": [ -8.4553489, 40.210675 ] } },
{ "type": "Feature", "properties": { "osm_id": "536539962", "lastchange": null, "code": "2303", "fclass": "cafe", "name": "Cartola", "cluster": "0" }, "geometry": { "type": "Point", "coordinates": [ -8.420109, 40.2097457 ] } },
{ "type": "Feature", "properties": { "osm_id": "536546201", "lastchange": null, "code": "2303", "fclass": "cafe", "name": "Tropical", "cluster": "0" }, "geometry": { "type": "Point", "coordinates": [ -8.4196177, 40.2090281 ] } },
{ "type": "Feature", "properties": { "osm_id": "536678593", "lastchange": null, "code": "2303", "fclass": "cafe", "name": "Académico", "cluster": "0" }, "geometry": { "type": "Point", "coordinates": [ -8.4194352, 40.209024 ] } },
{ "type": "Feature", "properties": { "osm_id": "536679009", "lastchange": null, "code": "2303", "fclass": "cafe", "name": null, "cluster": "0" }, "geometry": { "type": "Point", "coordinates": [ -8.4204615, 40.2092998 ] } },
{ "type": "Feature", "properties": { "osm_id": "714400065", "lastchange": null, "code": "2303", "fclass": "cafe", "name": "Sol Do Mondego", "cluster": "-1" }, "geometry": { "type": "Point", "coordinates": [ -8.407912, 40.1831416 ] } },
{ "type": "Feature", "properties": { "osm_id": "714519110", "lastchange": null, "code": "2303", "fclass": "cafe", "name": "MeadaGil", "cluster": "-1" }, "geometry": { "type": "Point", "coordinates": [ -8.4604065, 40.164185 ] } },
{ "type": "Feature", "properties": { "osm_id": "716313903", "lastchange": null, "code": "2303", "fclass": "cafe", "name": "BP", "cluster": "-1" }, "geometry": { "type": "Point", "coordinates": [ -8.4309701, 40.2010364 ] } },
{ "type": "Feature", "properties": { "osm_id": "719527966", "lastchange": null, "code": "2303", "fclass": "cafe", "name": "Café Katekero", "cluster": "-1" }, "geometry": { "type": "Point", "coordinates": [ -8.3916621, 40.174678 ] } },
{ "type": "Feature", "properties": { "osm_id": "729398444", "lastchange": null, "code": "2303", "fclass": "cafe", "name": null, "cluster": "-1" }, "geometry": { "type": "Point", "coordinates": [ -8.4287056, 40.2147219 ] } },
{ "type": "Feature", "properties": { "osm_id": "738186872", "lastchange": null, "code": "2303", "fclass": "cafe", "name": "Café A Longra", "cluster": "-1" }, "geometry": { "type": "Point", "coordinates": [ -8.3913373, 40.1692165 ] } },
{ "type": "Feature", "properties": { "osm_id": "762927476", "lastchange": null, "code": "2303", "fclass": "cafe", "name": "Pastelaria Doce Beira", "cluster": "-1" }, "geometry": { "type": "Point", "coordinates": [ -8.4028266, 40.1956296 ] } },
{ "type": "Feature", "properties": { "osm_id": "762927581", "lastchange": null, "code": "2303", "fclass": "cafe", "name": "Chá dos 5", "cluster": "-1" }, "geometry": { "type": "Point", "coordinates": [ -8.4045127, 40.1954899 ] } },
{ "type": "Feature", "properties": { "osm_id": "1103445531", "lastchange": null, "code": "2303", "fclass": "cafe", "name": "Pastelaria São Luiz", "cluster": "-1" }, "geometry": { "type": "Point", "coordinates": [ -8.5843815, 40.1839712 ] } },
{ "type": "Feature", "properties": { "osm_id": "1103445609", "lastchange": null, "code": "2303", "fclass": "cafe", "name": "Pastelaria", "cluster": "-1" }, "geometry": { "type": "Point", "coordinates": [ -8.5846626, 40.1848122 ] } },
{ "type": "Feature", "properties": { "osm_id": "1103473714", "lastchange": null, "code": "2303", "fclass": "cafe", "name": null, "cluster": "-1" }, "geometry": { "type": "Point", "coordinates": [ -8.5804317, 40.184969 ] } },
{ "type": "Feature", "properties": { "osm_id": "1106663149", "lastchange": null, "code": "2303", "fclass": "cafe", "name": "Pastelaria Solar da Quinta", "cluster": "-1" }, "geometry": { "type": "Point", "coordinates": [ -8.4393611, 40.1727462 ] } },
{ "type": "Feature", "properties": { "osm_id": "1261567149", "lastchange": null, "code": "2303", "fclass": "cafe", "name": "Gelados do Parque", "cluster": "-1" }, "geometry": { "type": "Point", "coordinates": [ -8.4261086, 40.2025571 ] } },
{ "type": "Feature", "properties": { "osm_id": "1261636506", "lastchange": null, "code": "2303", "fclass": "cafe", "name": "Café Sé Velha", "cluster": "1" }, "geometry": { "type": "Point", "coordinates": [ -8.4275089, 40.2087971 ] } },
{ "type": "Feature", "properties": { "osm_id": "1262226050", "lastchange": null, "code": "2303", "fclass": "cafe", "name": "Café Pigalle", "cluster": "0" }, "geometry": { "type": "Point", "coordinates": [ -8.4207758, 40.210373 ] } },
{ "type": "Feature", "properties": { "osm_id": "1263508460", "lastchange": null, "code": "2303", "fclass": "cafe", "name": "Pastelaria Mil Doce", "cluster": "0" }, "geometry": { "type": "Point", "coordinates": [ -8.4230299, 40.2120513 ] } },
{ "type": "Feature", "properties": { "osm_id": "1263508467", "lastchange": null, "code": "2303", "fclass": "cafe", "name": "Café Couraça", "cluster": "-1" }, "geometry": { "type": "Point", "coordinates": [ -8.4254059, 40.2065721 ] } },
{ "type": "Feature", "properties": { "osm_id": "1297298948", "lastchange": null, "code": "2303", "fclass": "cafe", "name": "Quiosque do Parque", "cluster": "1" }, "geometry": { "type": "Point", "coordinates": [ -8.4292311, 40.2065675 ] } },
{ "type": "Feature", "properties": { "osm_id": "1301476076", "lastchange": null, "code": "2303", "fclass": "cafe", "name": "Monte Carmelo", "cluster": "-1" }, "geometry": { "type": "Point", "coordinates": [ -8.5864538, 40.2189824 ] } },
{ "type": "Feature", "properties": { "osm_id": "1301476169", "lastchange": null, "code": "2303", "fclass": "cafe", "name": "O Afonso", "cluster": "-1" }, "geometry": { "type": "Point", "coordinates": [ -8.5854946, 40.2184509 ] } },
{ "type": "Feature", "properties": { "osm_id": "1305397452", "lastchange": null, "code": "2303", "fclass": "cafe", "name": null, "cluster": "-1" }, "geometry": { "type": "Point", "coordinates": [ -8.4173181, 40.1859233 ] } },
{ "type": "Feature", "properties": { "osm_id": "1305397458", "lastchange": null, "code": "2303", "fclass": "cafe", "name": null, "cluster": "-1" }, "geometry": { "type": "Point", "coordinates": [ -8.4165188, 40.1866979 ] } },
{ "type": "Feature", "properties": { "osm_id": "1305397468", "lastchange": null, "code": "2303", "fclass": "cafe", "name": null, "cluster": "-1" }, "geometry": { "type": "Point", "coordinates": [ -8.4150282, 40.1855232 ] } },
{ "type": "Feature", "properties": { "osm_id": "1330357595", "lastchange": null, "code": "2303", "fclass": "cafe", "name": "Cafe Maria", "cluster": "-1" }, "geometry": { "type": "Point", "coordinates": [ -8.4141279, 40.2100447 ] } },
{ "type": "Feature", "properties": { "osm_id": "1340011181", "lastchange": null, "code": "2303", "fclass": "cafe", "name": "Iris", "cluster": "-1" }, "geometry": { "type": "Point", "coordinates": [ -8.5126505, 40.1140433 ] } },
{ "type": "Feature", "properties": { "osm_id": "1347617558", "lastchange": null, "code": "2303", "fclass": "cafe", "name": "Esquina Magalhães", "cluster": "-1" }, "geometry": { "type": "Point", "coordinates": [ -8.4362744, 40.2150529 ] } },
{ "type": "Feature", "properties": { "osm_id": "1408504002", "lastchange": null, "code": "2303", "fclass": "cafe", "name": "Café São João", "cluster": "-1" }, "geometry": { "type": "Point", "coordinates": [ -8.4665252, 40.1306691 ] } },
{ "type": "Feature", "properties": { "osm_id": "1408509182", "lastchange": null, "code": "2303", "fclass": "cafe", "name": "Café IN", "cluster": "-1" }, "geometry": { "type": "Point", "coordinates": [ -8.4642131, 40.1307122 ] } },
{ "type": "Feature", "properties": { "osm_id": "1408938670", "lastchange": null, "code": "2303", "fclass": "cafe", "name": "Pastelaria Olpy", "cluster": "-1" }, "geometry": { "type": "Point", "coordinates": [ -8.4698082, 40.1373341 ] } },
{ "type": "Feature", "properties": { "osm_id": "1490953377", "lastchange": null, "code": "2303", "fclass": "cafe", "name": "Café Costa", "cluster": "-1" }, "geometry": { "type": "Point", "coordinates": [ -8.3786973, 40.2843783 ] } },
{ "type": "Feature", "properties": { "osm_id": "1543623935", "lastchange": null, "code": "2303", "fclass": "cafe", "name": "Flor da Espadaneira", "cluster": "-1" }, "geometry": { "type": "Point", "coordinates": [ -8.4704404, 40.2098151 ] } },
{ "type": "Feature", "properties": { "osm_id": "1609107192", "lastchange": null, "code": "2303", "fclass": "cafe", "name": "O Pedrosa", "cluster": "-1" }, "geometry": { "type": "Point", "coordinates": [ -8.4723927, 40.209028 ] } },
{ "type": "Feature", "properties": { "osm_id": "1674420273", "lastchange": null, "code": "2303", "fclass": "cafe", "name": "Padaria/Pastelaria Sta Clara", "cluster": "-1" }, "geometry": { "type": "Point", "coordinates": [ -8.4393631, 40.1994266 ] } },
{ "type": "Feature", "properties": { "osm_id": "1699981957", "lastchange": null, "code": "2303", "fclass": "cafe", "name": "Café ... de Tentugal", "cluster": "-1" }, "geometry": { "type": "Point", "coordinates": [ -8.5890932, 40.2355593 ] } },
{ "type": "Feature", "properties": { "osm_id": "1699981960", "lastchange": null, "code": "2303", "fclass": "cafe", "name": "Portela", "cluster": "-1" }, "geometry": { "type": "Point", "coordinates": [ -8.5906372, 40.264292 ] } },
{ "type": "Feature", "properties": { "osm_id": "1727248460", "lastchange": null, "code": "2303", "fclass": "cafe", "name": null, "cluster": "-1" }, "geometry": { "type": "Point", "coordinates": [ -8.4109425, 40.1927461 ] } },
{ "type": "Feature", "properties": { "osm_id": "1727248468", "lastchange": null, "code": "2303", "fclass": "cafe", "name": null, "cluster": "-1" }, "geometry": { "type": "Point", "coordinates": [ -8.4126614, 40.19289 ] } },
{ "type": "Feature", "properties": { "osm_id": "1798787548", "lastchange": null, "code": "2303", "fclass": "cafe", "name": "Café Central", "cluster": "-1" }, "geometry": { "type": "Point", "coordinates": [ -8.5344783, 40.1198024 ] } },
{ "type": "Feature", "properties": { "osm_id": "1798791919", "lastchange": null, "code": "2303", "fclass": "cafe", "name": "O Filipe", "cluster": "-1" }, "geometry": { "type": "Point", "coordinates": [ -8.5258979, 40.1152735 ] } },
{ "type": "Feature", "properties": { "osm_id": "1802520891", "lastchange": null, "code": "2303", "fclass": "cafe", "name": "Tosta Rica - Quinta das Lágrimas", "cluster": "-1" }, "geometry": { "type": "Point", "coordinates": [ -8.4325357, 40.1961066 ] } },
{ "type": "Feature", "properties": { "osm_id": "1803288213", "lastchange": null, "code": "2303", "fclass": "cafe", "name": "Café Santa Cruz", "cluster": "1" }, "geometry": { "type": "Point", "coordinates": [ -8.4288756, 40.2107774 ] } },
{ "type": "Feature", "properties": { "osm_id": "1803288379", "lastchange": null, "code": "2303", "fclass": "cafe", "name": "aBrasileira", "cluster": "1" }, "geometry": { "type": "Point", "coordinates": [ -8.4291315, 40.2081146 ] } },
{ "type": "Feature", "properties": { "osm_id": "1803288731", "lastchange": null, "code": "2303", "fclass": "cafe", "name": "Café Angola", "cluster": "1" }, "geometry": { "type": "Point", "coordinates": [ -8.4313711, 40.2087865 ] } },
{ "type": "Feature", "properties": { "osm_id": "1806941146", "lastchange": null, "code": "2303", "fclass": "cafe", "name": null, "cluster": "-1" }, "geometry": { "type": "Point", "coordinates": [ -8.3982487, 40.1932683 ] } },
{ "type": "Feature", "properties": { "osm_id": "1914061990", "lastchange": null, "code": "2303", "fclass": "cafe", "name": "Bar do DMUC", "cluster": "0" }, "geometry": { "type": "Point", "coordinates": [ -8.4228843, 40.2074226 ] } },
{ "type": "Feature", "properties": { "osm_id": "2020108945", "lastchange": null, "code": "2303", "fclass": "cafe", "name": null, "cluster": "-1" }, "geometry": { "type": "Point", "coordinates": [ -8.4388966, 40.2211855 ] } },
{ "type": "Feature", "properties": { "osm_id": "2084965915", "lastchange": null, "code": "2303", "fclass": "cafe", "name": "Snack Bar Fonseca", "cluster": "-1" }, "geometry": { "type": "Point", "coordinates": [ -8.460178, 40.200689 ] } },
{ "type": "Feature", "properties": { "osm_id": "2102313428", "lastchange": null, "code": "2303", "fclass": "cafe", "name": "Trianon", "cluster": "-1" }, "geometry": { "type": "Point", "coordinates": [ -8.4179819, 40.2145364 ] } },
{ "type": "Feature", "properties": { "osm_id": "2104629055", "lastchange": null, "code": "2303", "fclass": "cafe", "name": "Itália Bar", "cluster": "-1" }, "geometry": { "type": "Point", "coordinates": [ -8.418682, 40.19402 ] } }
]
}
