{
"type": "FeatureCollection",
"name": "pois_hospital_lisboa_clusters",
"crs": { "type": "name", "properties": { "name": "urn:ogc:def:crs:OGC:1.3:CRS84" } },
"features": [
{ "type": "Feature", "properties": { "osm_id": "267591151", "lastchange": null, "code": "2110", "fclass": "hospital", "name": "Hospital Fernando Fonseca", "cluster": "-1" }, "geometry": { "type": "Point", "coordinates": [ -9.2461598, 38.7442865 ] } },
{ "type": "Feature", "properties": { "osm_id": "620172733", "lastchange": null, "code": "2110", "fclass": "hospital", "name": "Centro de Saúde de Paço de Arcos", "cluster": "-1" }, "geometry": { "type": "Point", "coordinates": [ -9.2982314, 38.7024687 ] } },
{ "type": "Feature", "properties": { "osm_id": "625670883", "lastchange": null, "code": "2110", "fclass": "hospital", "name": "Hospital Cuf Descobertas", "cluster": "-1" }, "geometry": { "type": "Point", "coordinates": [ -9.0996397, 38.7581945 ] } },
{ "type": "Feature", "properties": { "osm_id": "666479691", "lastchange": null, "code": "2110", "fclass": "hospital", "name": null, "cluster": "-1" }, "geometry": { "type": "Point", "coordinates": [ -9.1993361, 38.6269025 ] } },
{ "type": "Feature", "properties": { "osm_id": "675649773", "lastchange": null, "code": "2110", "fclass": "hospital", "name": "Hospital da Luz", "cluster": "-1" }, "geometry": { "type": "Point", "coordinates": [ -9.192598, 38.7560583 ] } },
{ "type": "Feature", "properties": { "osm_id": "701191112", "lastchange": null, "code": "2110", "fclass": "hospital", "name": "centro saude lumiar", "cluster": "-1" }, "geometry": { "type": "Point", "coordinates": [ -9.1612105, 38.7722731 ] } },
{ "type": "Feature", "properties": { "osm_id": "717070693", "lastchange": null, "code": "2110", "fclass": "hospital", "name": "Hospital Egas Moniz", "cluster": "-1" }, "geometry": { "type": "Point", "coordinates": [ -9.1885067, 38.6986182 ] } },
{ "type": "Feature", "properties": { "osm_id": "721688868", "lastchange": null, "code": "2110", "fclass": "hospital", "name": "Clínica de Santo António", "cluster": "-1" }, "geometry": { "type": "Point", "coordinates": [ -9.2308387, 38.7487194 ] } },
{ "type": "Feature", "properties": { "osm_id": "739539812", "lastchange": null, "code": "2110", "fclass": "hospital", "name": "Hospital de Santa Cruz", "cluster": "-1" }, "geometry": { "type": "Point", "coordinates": [ -9.2340282, 38.72678 ] } },
{ "type": "Feature", "properties": { "osm_id": "812514456", "lastchange": null, "code": "2110", "fclass": "hospital", "name": "Centro de Saude do Seixal", "cluster": "-1" }, "geometry": { "type": "Point", "coordinates": [ -9.0996372, 38.6405386 ] } },
{ "type": "Feature", "properties": { "osm_id": "1161543653", "lastchange": null, "code": "2110", "fclass": "hospital", "name": "Centro de Saúde da Reboleira", "cluster": "-1" }, "geometry": { "type": "Point", "coordinates": [ -9.2306159, 38.7497512 ] } },
{ "type": "Feature", "properties": { "osm_id": "1161702751", "lastchange": null, "code": "2110", "fclass": "hospital", "name": "Centro de Saúde da Venda Nova - Centro Diagnóstico Pneumológico", "cluster": "-1" }, "geometry": { "type": "Point", "coordinates": [ -9.2134686, 38.7534684 ] } },
{ "type": "Feature", "properties": { "osm_id": "1162163805", "lastchange": null, "code": "2110", "fclass": "hospital", "name": "Cruz Vermelha Portuguesa -  Amadora", "cluster": "-1" }, "geometry": { "type": "Point", "coordinates": [ -9.2126799, 38.7661764 ] } },
{ "type": "Feature", "properties": { "osm_id": "1180411831", "lastchange": null, "code": "2110", "fclass": "hospital", "name": "Centro Clínico e Enfermagem Roma", "cluster": "-1" }, "geometry": { "type": "Point", "coordinates": [ -9.1437901, 38.7522509 ] } },
{ "type": "Feature", "properties": { "osm_id": "1180411833", "lastchange": null, "code": "2110", "fclass": "hospital", "name": null, "cluster": "-1" }, "geometry": { "type": "Point", "coordinates": [ -9.1446818, 38.7457211 ] } },
{ "type": "Feature", "properties": { "osm_id": "1291051969", "lastchange": null, "code": "2110", "fclass": "hospital", "name": "Clinica S. João de Deus", "cluster": "-1" }, "geometry": { "type": "Point", "coordinates": [ -9.1469558, 38.749306 ] } },
{ "type": "Feature", "properties": { "osm_id": "1301636286", "lastchange": null, "code": "2110", "fclass": "hospital", "name": "Hospital da Força Aérea", "cluster": "-1" }, "geometry": { "type": "Point", "coordinates": [ -9.1755491, 38.7669136 ] } },
{ "type": "Feature", "properties": { "osm_id": "1494759372", "lastchange": null, "code": "2110", "fclass": "hospital", "name": "Ressonância Magnétoca", "cluster": "-1" }, "geometry": { "type": "Point", "coordinates": [ -9.2109245, 38.7184539 ] } },
{ "type": "Feature", "properties": { "osm_id": "1538899430", "lastchange": null, "code": "2110", "fclass": "hospital", "name": "Posto de Saude", "cluster": "-1" }, "geometry": { "type": "Point", "coordinates": [ -9.120883, 38.7900274 ] } },
{ "type": "Feature", "properties": { "osm_id": "1539424053", "lastchange": null, "code": "2110", "fclass": "hospital", "name": "Centro de Saúde", "cluster": "-1" }, "geometry": { "type": "Point", "coordinates": [ -9.2431446, 38.7268674 ] } },
{ "type": "Feature", "properties": { "osm_id": "1539555247", "lastchange": null, "code": "2110", "fclass": "hospital", "name": "Centro Hospitalar - Reabilitação", "cluster": "-1" }, "geometry": { "type": "Point", "coordinates": [ -9.230181, 38.7286351 ] } },
{ "type": "Feature", "properties": { "osm_id": "1564056241", "lastchange": null, "code": "2110", "fclass": "hospital", "name": "Centro de Saúde", "cluster": "-1" }, "geometry": { "type": "Point", "coordinates": [ -9.2093068, 38.7639624 ] } },
{ "type": "Feature", "properties": { "osm_id": "1568571189", "lastchange": null, "code": "2110", "fclass": "hospital", "name": "Clinica Joaquim Chaves", "cluster": "-1" }, "geometry": { "type": "Point", "coordinates": [ -9.2254111, 38.7131719 ] } },
{ "type": "Feature", "properties": { "osm_id": "1575938441", "lastchange": null, "code": "2110", "fclass": "hospital", "name": "Clinica do Coração", "cluster": "-1" }, "geometry": { "type": "Point", "coordinates": [ -9.2346346, 38.7269647 ] } },
{ "type": "Feature", "properties": { "osm_id": "1581020236", "lastchange": null, "code": "2110", "fclass": "hospital", "name": null, "cluster": "-1" }, "geometry": { "type": "Point", "coordinates": [ -9.2761801, 38.7738794 ] } },
{ "type": "Feature", "properties": { "osm_id": "1584202130", "lastchange": null, "code": "2110", "fclass": "hospital", "name": "Clinica Privada", "cluster": "-1" }, "geometry": { "type": "Point", "coordinates": [ -9.2336951, 38.6992619 ] } },
{ "type": "Feature", "properties": { "osm_id": "1585677486", "lastchange": null, "code": "2110", "fclass": "hospital", "name": null, "cluster": "-1" }, "geometry": { "type": "Point", "coordinates": [ -9.1943578, 38.7055414 ] } },
{ "type": "Feature", "properties": { "osm_id": "1585686580", "lastchange": null, "code": "2110", "fclass": "hospital", "name": "Clinica Dentária Profilaxia Reabilitação oral da Ajuda Lda.", "cluster": "-1" }, "geometry": { "type": "Point", "coordinates": [ -9.1960903, 38.7048046 ] } },
{ "type": "Feature", "properties": { "osm_id": "1587000927", "lastchange": null, "code": "2110", "fclass": "hospital", "name": null, "cluster": "-1" }, "geometry": { "type": "Point", "coordinates": [ -9.1937302, 38.7043567 ] } },
{ "type": "Feature", "properties": { "osm_id": "1587080575", "lastchange": null, "code": "2110", "fclass": "hospital", "name": "Centro Clinico da Boa-Hora", "cluster": "-1" }, "geometry": { "type": "Point", "coordinates": [ -9.1951169, 38.7036011 ] } },
{ "type": "Feature", "properties": { "osm_id": "1679124810", "lastchange": null, "code": "2110", "fclass": "hospital", "name": "Argus - Clinica Veterinaria", "cluster": "-1" }, "geometry": { "type": "Point", "coordinates": [ -9.2113246, 38.7543412 ] } },
{ "type": "Feature", "properties": { "osm_id": "1688540131", "lastchange": null, "code": "2110", "fclass": "hospital", "name": "Unidade de Saúde Familiar de Pinhal de Frades", "cluster": "-1" }, "geometry": { "type": "Point", "coordinates": [ -9.0969104, 38.6007415 ] } },
{ "type": "Feature", "properties": { "osm_id": "2067056169", "lastchange": null, "code": "2110", "fclass": "hospital", "name": "Centro de Saúde Coração de Jesus", "cluster": "-1" }, "geometry": { "type": "Point", "coordinates": [ -9.1547544, 38.7346967 ] } }
]
}
