{"type": "FeatureCollection", "bbox": [-8.590693, 40.19318, -8.409923, 41.164041], "features": [{"bbox": [-8.590693, 40.19318, -8.409923, 41.164041], "type": "Feature", "properties": {"segments": [{"distance": 119470.5, "duration": 5599.3, "steps": [{"distance": 127.9, "duration": 30.7, "type": 11, "instruction": "Head west on Rua Pedro Nunes", "name": "Rua Pedro Nunes", "way_points": [0, 6]}, {"distance": 24.0, "duration": 5.8, "type": 7, "instruction": "Enter the roundabout and take the 2nd exit onto Rua Pedro Nunes", "name": "Rua Pedro Nunes", "exit_number": 2, "way_points": [6, 11]}, {"distance": 70.2, "duration": 16.8, "type": 6, "instruction": "Continue straight onto Rua Pedro Nunes", "name": "Rua Pedro Nunes", "way_points": [11, 13]}, {"distance": 140.7, "duration": 33.8, "type": 1, "instruction": "Turn right", "name": "-", "way_points": [13, 18]}, {"distance": 67.5, "duration": 21.8, "type": 7, "instruction": "Enter the roundabout and take the 3rd exit onto Avenida Mendes Silva", "name": "Avenida Mendes Silva", "exit_number": 3, "way_points": [18, 26]}, {"distance": 110.4, "duration": 11.4, "type": 6, "instruction": "Continue straight onto Avenida Mendes Silva", "name": "Avenida Mendes Silva", "way_points": [26, 29]}, {"distance": 97.6, "duration": 23.4, "type": 13, "instruction": "Keep right onto Rua Cabral Antunes", "name": "Rua Cabral Antunes", "way_points": [29, 31]}, {"distance": 243.1, "duration": 58.3, "type": 4, "instruction": "Turn slight left onto Rua Cabral Antunes", "name": "Rua Cabral Antunes", "way_points": [31, 36]}, {"distance": 886.5, "duration": 111.8, "type": 0, "instruction": "Turn left onto Rua Carlos Seixas", "name": "Rua Carlos Seixas", "way_points": [36, 57]}, {"distance": 559.5, "duration": 51.9, "type": 12, "instruction": "Keep left", "name": "-", "way_points": [57, 70]}, {"distance": 96.9, "duration": 15.3, "type": 7, "instruction": "Enter the roundabout and take the 1st exit onto Avenida Em\u00eddio Navarro", "name": "Avenida Em\u00eddio Navarro", "exit_number": 1, "way_points": [70, 72]}, {"distance": 462.9, "duration": 63.0, "type": 6, "instruction": "Continue straight onto Avenida Em\u00eddio Navarro", "name": "Avenida Em\u00eddio Navarro", "way_points": [72, 79]}, {"distance": 36.2, "duration": 10.1, "type": 7, "instruction": "Enter the roundabout and take the 2nd exit", "name": "-", "exit_number": 2, "way_points": [79, 81]}, {"distance": 773.8, "duration": 152.3, "type": 6, "instruction": "Continue straight", "name": "-", "way_points": [81, 108]}, {"distance": 86.8, "duration": 7.8, "type": 7, "instruction": "Enter the roundabout and take the 3rd exit onto Avenida Fern\u00e3o de Magalh\u00e3es", "name": "Avenida Fern\u00e3o de Magalh\u00e3es", "exit_number": 3, "way_points": [108, 115]}, {"distance": 266.5, "duration": 47.3, "type": 6, "instruction": "Continue straight onto Avenida Fern\u00e3o de Magalh\u00e3es", "name": "Avenida Fern\u00e3o de Magalh\u00e3es", "way_points": [115, 120]}, {"distance": 57.6, "duration": 16.4, "type": 7, "instruction": "Enter the roundabout and take the 3rd exit onto Rua Padre Estev\u00e3o Cabral", "name": "Rua Padre Estev\u00e3o Cabral", "exit_number": 3, "way_points": [120, 127]}, {"distance": 203.1, "duration": 48.7, "type": 6, "instruction": "Continue straight onto Rua Padre Estev\u00e3o Cabral", "name": "Rua Padre Estev\u00e3o Cabral", "way_points": [127, 134]}, {"distance": 61.9, "duration": 14.8, "type": 6, "instruction": "Continue straight", "name": "-", "way_points": [134, 137]}, {"distance": 73.8, "duration": 17.7, "type": 12, "instruction": "Keep left", "name": "-", "way_points": [137, 141]}, {"distance": 21.0, "duration": 5.0, "type": 13, "instruction": "Keep right", "name": "-", "way_points": [141, 142]}, {"distance": 35.5, "duration": 10.2, "type": 5, "instruction": "Turn slight right", "name": "-", "way_points": [142, 144]}, {"distance": 21.9, "duration": 1.6, "type": 7, "instruction": "Enter the roundabout and take the 2nd exit", "name": "-", "exit_number": 2, "way_points": [144, 148]}, {"distance": 789.8, "duration": 77.1, "type": 6, "instruction": "Continue straight", "name": "-", "way_points": [148, 159]}, {"distance": 48.7, "duration": 2.7, "type": 7, "instruction": "Enter the roundabout and take the 2nd exit onto Estrada da Cidreira, EN 111-1", "name": "Estrada da Cidreira, EN 111-1", "exit_number": 2, "way_points": [159, 165]}, {"distance": 469.7, "duration": 71.9, "type": 6, "instruction": "Continue straight onto Estrada da Cidreira, EN 111-1", "name": "Estrada da Cidreira, EN 111-1", "way_points": [165, 178]}, {"distance": 4.3, "duration": 0.2, "type": 7, "instruction": "Enter the roundabout and take the 1st exit", "name": "-", "exit_number": 1, "way_points": [178, 179]}, {"distance": 2265.8, "duration": 278.5, "type": 6, "instruction": "Continue straight", "name": "-", "way_points": [179, 204]}, {"distance": 323.1, "duration": 38.8, "type": 12, "instruction": "Keep left", "name": "-", "way_points": [204, 207]}, {"distance": 265.7, "duration": 58.6, "type": 5, "instruction": "Turn slight right", "name": "-", "way_points": [207, 216]}, {"distance": 993.2, "duration": 86.3, "type": 2, "instruction": "Turn sharp left onto EN 111", "name": "EN 111", "way_points": [216, 226]}, {"distance": 5.8, "duration": 0.3, "type": 7, "instruction": "Enter the roundabout and take the 1st exit onto EN 111", "name": "EN 111", "exit_number": 1, "way_points": [226, 227]}, {"distance": 1907.0, "duration": 149.2, "type": 6, "instruction": "Continue straight onto EN 111", "name": "EN 111", "way_points": [227, 253]}, {"distance": 778.4, "duration": 51.5, "type": 12, "instruction": "Keep left", "name": "-", "way_points": [253, 277]}, {"distance": 549.5, "duration": 27.7, "type": 6, "instruction": "Continue straight onto Autoestrada do Baixo Mondego, A 14, IP 3", "name": "Autoestrada do Baixo Mondego, A 14, IP 3", "way_points": [277, 284]}, {"distance": 94529.8, "duration": 3130.0, "type": 13, "instruction": "Keep right", "name": "-", "way_points": [284, 966]}, {"distance": 9505.6, "duration": 447.6, "type": 12, "instruction": "Keep left onto Circular Regional Interior do Porto, A 20, IP 1", "name": "Circular Regional Interior do Porto, A 20, IP 1", "way_points": [966, 1092]}, {"distance": 186.6, "duration": 21.5, "type": 13, "instruction": "Keep right", "name": "-", "way_points": [1092, 1097]}, {"distance": 10.4, "duration": 3.7, "type": 7, "instruction": "Enter the roundabout and take the 1st exit onto Rua da F\u00e1brica \"A Invenc\u00edvel\"", "name": "Rua da F\u00e1brica \"A Invenc\u00edvel\"", "exit_number": 1, "way_points": [1097, 1098]}, {"distance": 278.9, "duration": 35.8, "type": 6, "instruction": "Continue straight onto Rua da F\u00e1brica \"A Invenc\u00edvel\"", "name": "Rua da F\u00e1brica \"A Invenc\u00edvel\"", "way_points": [1098, 1109]}, {"distance": 272.9, "duration": 26.0, "type": 13, "instruction": "Keep right onto Rua da F\u00e1brica \"A Invenc\u00edvel\"", "name": "Rua da F\u00e1brica \"A Invenc\u00edvel\"", "way_points": [1109, 1115]}, {"distance": 88.5, "duration": 11.8, "type": 0, "instruction": "Turn left onto Rua de S\u00e3o Roque da Lameira, EM 15-1", "name": "Rua de S\u00e3o Roque da Lameira, EM 15-1", "way_points": [1115, 1119]}, {"distance": 215.6, "duration": 51.7, "type": 3, "instruction": "Turn sharp right", "name": "-", "way_points": [1119, 1131]}, {"distance": 288.1, "duration": 69.1, "type": 4, "instruction": "Turn slight left onto Rua da Sociedade Protectora dos Animais", "name": "Rua da Sociedade Protectora dos Animais", "way_points": [1131, 1137]}, {"distance": 62.0, "duration": 14.9, "type": 0, "instruction": "Turn left onto Rua do Monte da Costa", "name": "Rua do Monte da Costa", "way_points": [1137, 1141]}, {"distance": 154.8, "duration": 37.2, "type": 0, "instruction": "Turn left onto Rua do Monte da Costa", "name": "Rua do Monte da Costa", "way_points": [1141, 1144]}, {"distance": 290.6, "duration": 69.8, "type": 1, "instruction": "Turn right onto Rua do Monte Aventino", "name": "Rua do Monte Aventino", "way_points": [1144, 1147]}, {"distance": 5.1, "duration": 1.8, "type": 1, "instruction": "Turn right onto Avenida de Fern\u00e3o de Magalh\u00e3es", "name": "Avenida de Fern\u00e3o de Magalh\u00e3es", "way_points": [1147, 1148]}, {"distance": 655.3, "duration": 59.6, "type": 12, "instruction": "Keep left onto Acesso Sul ao T\u00fanel das Antas I", "name": "Acesso Sul ao T\u00fanel das Antas I", "way_points": [1148, 1159]}, {"distance": 0.0, "duration": 0.0, "type": 10, "instruction": "Arrive at Acesso Sul ao T\u00fanel das Antas I, on the right", "name": "-", "way_points": [1159, 1159]}]}], "way_points": [0, 1159], "summary": {"distance": 119470.5, "duration": 5599.3}}, "geometry": {"type": "LineString", "coordinates": [[-8.409923, 40.193195], [-8.410006, 40.193195], [-8.410247, 40.193193], [-8.410844, 40.193182], [-8.41113, 40.19318], [-8.411279, 40.193236], [-8.411397, 40.193282], [-8.411411, 40.193301], [-8.41143, 40.193316], [-8.411519, 40.193332], [-8.411584, 40.193297], [-8.411602, 40.193256], [-8.411817, 40.193188], [-8.41241, 40.193181], [-8.412419, 40.193328], [-8.412474, 40.193566], [-8.412579, 40.193891], [-8.412701, 40.194302], [-8.412649, 40.194415], [-8.412545, 40.194471], [-8.412517, 40.194516], [-8.41251, 40.194565], [-8.412561, 40.194656], [-8.41267, 40.1947], [-8.412788, 40.194687], [-8.412872, 40.194623], [-8.412887, 40.194589], [-8.413073, 40.194535], [-8.413685, 40.1944], [-8.414108, 40.194254], [-8.41453, 40.194313], [-8.415229, 40.194447], [-8.415965, 40.194119], [-8.417082, 40.194067], [-8.417173, 40.194105], [-8.417224, 40.194144], [-8.417596, 40.19461], [-8.418424, 40.194174], [-8.418681, 40.194095], [-8.42029, 40.193897], [-8.420376, 40.193896], [-8.420507, 40.193919], [-8.420631, 40.193975], [-8.420696, 40.194045], [-8.420796, 40.194248], [-8.420861, 40.195787], [-8.420876, 40.196099], [-8.420887, 40.196367], [-8.420918, 40.197102], [-8.420925, 40.19728], [-8.420929, 40.197461], [-8.420939, 40.19765], [-8.421008, 40.197853], [-8.421031, 40.19803], [-8.421034, 40.198223], [-8.42105, 40.19883], [-8.421075, 40.199121], [-8.421169, 40.199395], [-8.421404, 40.199696], [-8.421753, 40.200069], [-8.421956, 40.200266], [-8.422065, 40.200394], [-8.422241, 40.200657], [-8.423265, 40.202237], [-8.423297, 40.202286], [-8.423471, 40.202527], [-8.423666, 40.202756], [-8.423827, 40.202914], [-8.424051, 40.203131], [-8.42442, 40.203438], [-8.424655, 40.203633], [-8.424774, 40.203722], [-8.425488, 40.204229], [-8.426035, 40.204585], [-8.426435, 40.20487], [-8.428242, 40.206154], [-8.428807, 40.206566], [-8.429059, 40.20675], [-8.429308, 40.206921], [-8.429508, 40.207038], [-8.429619, 40.2071], [-8.42985, 40.207233], [-8.430032, 40.207334], [-8.430332, 40.207524], [-8.430465, 40.20761], [-8.430849, 40.207848], [-8.431154, 40.208042], [-8.431351, 40.208166], [-8.431582, 40.20833], [-8.431721, 40.208443], [-8.431789, 40.208521], [-8.431808, 40.208608], [-8.431744, 40.208709], [-8.431569, 40.208808], [-8.431272, 40.208991], [-8.431247, 40.209046], [-8.431264, 40.209097], [-8.431453, 40.209453], [-8.431565, 40.209666], [-8.431776, 40.210049], [-8.431908, 40.210293], [-8.432022, 40.210505], [-8.432191, 40.210815], [-8.432231, 40.21089], [-8.432515, 40.21142], [-8.433118, 40.212514], [-8.433204, 40.212664], [-8.433325, 40.212879], [-8.43336, 40.213001], [-8.433271, 40.213012], [-8.433224, 40.213047], [-8.433205, 40.213101], [-8.433227, 40.213154], [-8.433304, 40.213244], [-8.43358, 40.213542], [-8.433672, 40.213575], [-8.433817, 40.213717], [-8.434212, 40.214105], [-8.434447, 40.214343], [-8.435182, 40.215087], [-8.435566, 40.215485], [-8.435544, 40.215559], [-8.435558, 40.215604], [-8.435638, 40.215671], [-8.435707, 40.215686], [-8.435779, 40.21568], [-8.435879, 40.215616], [-8.435897, 40.215521], [-8.436392, 40.215262], [-8.436457, 40.215251], [-8.436542, 40.21528], [-8.437303, 40.215778], [-8.437368, 40.215817], [-8.437514, 40.215904], [-8.43779, 40.216083], [-8.43796, 40.216191], [-8.438054, 40.216277], [-8.438176, 40.216536], [-8.438407, 40.216618], [-8.438644, 40.216645], [-8.438758, 40.216638], [-8.439016, 40.216612], [-8.439212, 40.216726], [-8.439227, 40.216755], [-8.439274, 40.217041], [-8.439227, 40.217098], [-8.439239, 40.217141], [-8.439281, 40.217171], [-8.439335, 40.217178], [-8.439419, 40.217246], [-8.439796, 40.218028], [-8.440162, 40.218897], [-8.440257, 40.219104], [-8.440449, 40.219435], [-8.441258, 40.220537], [-8.441683, 40.222097], [-8.442097, 40.222991], [-8.442214, 40.223339], [-8.44221, 40.223637], [-8.442157, 40.223853], [-8.44209, 40.223924], [-8.442063, 40.224024], [-8.442073, 40.224075], [-8.442135, 40.224165], [-8.442184, 40.2242], [-8.442234, 40.224222], [-8.442456, 40.224472], [-8.442585, 40.22464], [-8.442859, 40.225394], [-8.442962, 40.225603], [-8.443115, 40.225795], [-8.443298, 40.22596], [-8.44365, 40.226162], [-8.443934, 40.226281], [-8.444803, 40.22666], [-8.444989, 40.226779], [-8.445332, 40.227076], [-8.445447, 40.227248], [-8.445501, 40.227402], [-8.445504, 40.22744], [-8.445396, 40.227604], [-8.445177, 40.227731], [-8.444717, 40.228009], [-8.445089, 40.228598], [-8.445732, 40.229386], [-8.447049, 40.231112], [-8.448481, 40.233024], [-8.44869, 40.233338], [-8.448891, 40.233774], [-8.449031, 40.234249], [-8.449108, 40.234532], [-8.449176, 40.234788], [-8.449342, 40.235179], [-8.449849, 40.236203], [-8.450367, 40.237263], [-8.450592, 40.237687], [-8.451836, 40.239682], [-8.451968, 40.239944], [-8.452062, 40.240271], [-8.452088, 40.240642], [-8.452098, 40.241448], [-8.452114, 40.242565], [-8.452169, 40.244604], [-8.452251, 40.245672], [-8.452272, 40.24625], [-8.452477, 40.246446], [-8.453478, 40.247678], [-8.454344, 40.248686], [-8.454328, 40.248843], [-8.454276, 40.249066], [-8.454249, 40.249174], [-8.454184, 40.249462], [-8.454179, 40.249485], [-8.454038, 40.249945], [-8.453889, 40.25033], [-8.453596, 40.250692], [-8.453325, 40.250881], [-8.454046, 40.250997], [-8.461146, 40.252191], [-8.463234, 40.252493], [-8.463609, 40.252562], [-8.463706, 40.252585], [-8.463878, 40.252621], [-8.464069, 40.252661], [-8.464264, 40.252722], [-8.464528, 40.252803], [-8.464704, 40.252893], [-8.464744, 40.252936], [-8.464762, 40.253098], [-8.464716, 40.253224], [-8.464446, 40.253619], [-8.464322, 40.253863], [-8.463192, 40.255497], [-8.462949, 40.255911], [-8.462588, 40.256625], [-8.462439, 40.257111], [-8.462356, 40.257683], [-8.462322, 40.258119], [-8.462357, 40.258531], [-8.462485, 40.259153], [-8.462614, 40.259553], [-8.462837, 40.260031], [-8.463095, 40.260529], [-8.463824, 40.261629], [-8.464598, 40.262875], [-8.465172, 40.263791], [-8.465804, 40.264627], [-8.466618, 40.26556], [-8.466932, 40.265982], [-8.467271, 40.266371], [-8.467454, 40.266583], [-8.467584, 40.266723], [-8.468492, 40.267711], [-8.469074, 40.268348], [-8.469374, 40.268637], [-8.469633, 40.268988], [-8.46974, 40.269292], [-8.469754, 40.269599], [-8.469718, 40.269828], [-8.469414, 40.27064], [-8.469297, 40.270785], [-8.469189, 40.270862], [-8.469005, 40.27094], [-8.468797, 40.270963], [-8.468615, 40.270946], [-8.468418, 40.270874], [-8.468273, 40.270735], [-8.468206, 40.270563], [-8.468218, 40.270423], [-8.468298, 40.270292], [-8.468442, 40.27018], [-8.468571, 40.270137], [-8.468737, 40.270114], [-8.469233, 40.270139], [-8.4695, 40.270193], [-8.469803, 40.270257], [-8.471408, 40.270597], [-8.472006, 40.270763], [-8.47332, 40.271103], [-8.474799, 40.271314], [-8.475553, 40.271429], [-8.476323, 40.271622], [-8.476775, 40.271776], [-8.477638, 40.272128], [-8.478091, 40.272341], [-8.478685, 40.272752], [-8.478962, 40.273053], [-8.479094, 40.273265], [-8.479198, 40.273501], [-8.479325, 40.274235], [-8.479432, 40.274982], [-8.479435, 40.275489], [-8.479376, 40.275739], [-8.479189, 40.276291], [-8.479024, 40.276534], [-8.478802, 40.276866], [-8.478661, 40.277081], [-8.478312, 40.277686], [-8.478089, 40.278111], [-8.477849, 40.278635], [-8.47754, 40.279552], [-8.477325, 40.280613], [-8.477308, 40.281245], [-8.477353, 40.282149], [-8.477552, 40.283135], [-8.477737, 40.28375], [-8.478003, 40.284515], [-8.478629, 40.285566], [-8.479401, 40.286496], [-8.480183, 40.28723], [-8.481896, 40.28874], [-8.482363, 40.28922], [-8.483273, 40.290333], [-8.483908, 40.291334], [-8.484697, 40.292808], [-8.485298, 40.294261], [-8.485556, 40.295177], [-8.485839, 40.296434], [-8.485925, 40.297416], [-8.485925, 40.300218], [-8.486046, 40.301364], [-8.486194, 40.302476], [-8.486405, 40.303452], [-8.486631, 40.30431], [-8.487009, 40.305283], [-8.488084, 40.307577], [-8.488587, 40.308789], [-8.488969, 40.309927], [-8.489124, 40.310526], [-8.48924, 40.311123], [-8.489384, 40.312196], [-8.489487, 40.313243], [-8.489555, 40.314592], [-8.489676, 40.315835], [-8.48983, 40.316686], [-8.490019, 40.317386], [-8.490362, 40.318453], [-8.491323, 40.320835], [-8.491701, 40.321947], [-8.491984, 40.322824], [-8.492216, 40.32391], [-8.492371, 40.324774], [-8.492414, 40.325762], [-8.492499, 40.326724], [-8.492594, 40.329513], [-8.492602, 40.330074], [-8.492718, 40.331146], [-8.492864, 40.33198], [-8.493041, 40.33281], [-8.493283, 40.333677], [-8.493631, 40.334757], [-8.493842, 40.335292], [-8.494564, 40.337101], [-8.494877, 40.337993], [-8.495215, 40.339201], [-8.495399, 40.340187], [-8.495521, 40.341214], [-8.495527, 40.341385], [-8.495521, 40.342819], [-8.495263, 40.344755], [-8.494903, 40.346533], [-8.494705, 40.347922], [-8.494648, 40.348598], [-8.494641, 40.349822], [-8.494674, 40.351626], [-8.494614, 40.352546], [-8.494462, 40.353654], [-8.494223, 40.354707], [-8.493919, 40.355752], [-8.493112, 40.358308], [-8.492805, 40.359418], [-8.492588, 40.36052], [-8.492447, 40.361592], [-8.492411, 40.362726], [-8.492464, 40.363859], [-8.492594, 40.365012], [-8.493208, 40.368601], [-8.493289, 40.369226], [-8.493462, 40.371066], [-8.49347, 40.372176], [-8.493464, 40.372507], [-8.493401, 40.373461], [-8.493286, 40.374531], [-8.49304, 40.376077], [-8.492916, 40.37667], [-8.492805, 40.377092], [-8.492719, 40.37742], [-8.492286, 40.378784], [-8.491824, 40.380047], [-8.49042, 40.383166], [-8.489946, 40.384335], [-8.489462, 40.385786], [-8.48909, 40.387376], [-8.488873, 40.388871], [-8.488814, 40.390546], [-8.488908, 40.392245], [-8.489061, 40.393253], [-8.489279, 40.394285], [-8.49072, 40.399118], [-8.491079, 40.401579], [-8.491136, 40.403767], [-8.491392, 40.406458], [-8.492012, 40.408721], [-8.492944, 40.410798], [-8.493998, 40.412709], [-8.495342, 40.415443], [-8.49633, 40.418302], [-8.496966, 40.420473], [-8.497539, 40.422217], [-8.498637, 40.424573], [-8.499614, 40.426328], [-8.500941, 40.428277], [-8.502674, 40.430334], [-8.504899, 40.432492], [-8.507419, 40.434578], [-8.507688, 40.434801], [-8.511047, 40.437572], [-8.513098, 40.439461], [-8.514649, 40.441393], [-8.515782, 40.443263], [-8.516621, 40.445226], [-8.517256, 40.447613], [-8.517465, 40.450005], [-8.517543, 40.452847], [-8.517726, 40.455476], [-8.51799, 40.457133], [-8.518356, 40.458777], [-8.518797, 40.460267], [-8.5194, 40.462026], [-8.520168, 40.464186], [-8.52085, 40.466324], [-8.521374, 40.468756], [-8.521627, 40.471495], [-8.521516, 40.474307], [-8.521447, 40.476751], [-8.521527, 40.478215], [-8.521663, 40.479592], [-8.52187, 40.480798], [-8.522139, 40.482003], [-8.522441, 40.483045], [-8.522788, 40.484085], [-8.523266, 40.485268], [-8.523795, 40.48641], [-8.524514, 40.487748], [-8.525191, 40.488834], [-8.52596, 40.489962], [-8.526963, 40.491259], [-8.527984, 40.4925], [-8.528977, 40.493758], [-8.529373, 40.494328], [-8.529735, 40.494921], [-8.530122, 40.495648], [-8.530436, 40.49638], [-8.530665, 40.496996], [-8.530855, 40.497609], [-8.530996, 40.498228], [-8.531111, 40.498878], [-8.531358, 40.501903], [-8.531453, 40.502597], [-8.531623, 40.503431], [-8.53183, 40.504196], [-8.53214, 40.505058], [-8.532505, 40.505911], [-8.532969, 40.506795], [-8.533509, 40.507663], [-8.534183, 40.508586], [-8.534948, 40.509483], [-8.53573, 40.510278], [-8.536573, 40.511022], [-8.53748, 40.511741], [-8.538875, 40.512666], [-8.539797, 40.513193], [-8.542605, 40.514695], [-8.543726, 40.515335], [-8.544754, 40.515981], [-8.546098, 40.516925], [-8.54733, 40.517908], [-8.548293, 40.518759], [-8.54949, 40.520006], [-8.549928, 40.52049], [-8.55092, 40.521737], [-8.551464, 40.52252], [-8.552079, 40.523493], [-8.552637, 40.524516], [-8.553209, 40.525759], [-8.553628, 40.526848], [-8.554673, 40.529947], [-8.555245, 40.531421], [-8.555843, 40.532689], [-8.556542, 40.533989], [-8.557027, 40.53478], [-8.557537, 40.535561], [-8.558604, 40.537022], [-8.559634, 40.538315], [-8.560403, 40.539313], [-8.560687, 40.539727], [-8.561111, 40.54045], [-8.561471, 40.54126], [-8.561717, 40.542056], [-8.561863, 40.543014], [-8.561895, 40.544021], [-8.561852, 40.544582], [-8.561722, 40.545321], [-8.56143, 40.546235], [-8.561134, 40.54694], [-8.560641, 40.548093], [-8.560432, 40.548634], [-8.560212, 40.549312], [-8.560146, 40.549515], [-8.559952, 40.550357], [-8.559873, 40.550965], [-8.559832, 40.551565], [-8.559834, 40.552175], [-8.559863, 40.552788], [-8.559919, 40.55332], [-8.560112, 40.554396], [-8.560241, 40.554921], [-8.560408, 40.555609], [-8.560936, 40.557984], [-8.561023, 40.558585], [-8.561185, 40.560305], [-8.561225, 40.561851], [-8.561196, 40.562566], [-8.561174, 40.563362], [-8.56107, 40.564112], [-8.560856, 40.565441], [-8.560488, 40.567369], [-8.560388, 40.567829], [-8.560302, 40.568421], [-8.560265, 40.569384], [-8.560295, 40.570255], [-8.56044, 40.571567], [-8.560581, 40.572291], [-8.560924, 40.573389], [-8.561538, 40.57539], [-8.561641, 40.575888], [-8.561722, 40.576639], [-8.561744, 40.577203], [-8.561691, 40.57812], [-8.561539, 40.579167], [-8.561394, 40.579757], [-8.560646, 40.581904], [-8.560412, 40.58273], [-8.560166, 40.583751], [-8.560052, 40.584659], [-8.560046, 40.585749], [-8.560162, 40.586861], [-8.560747, 40.589496], [-8.560905, 40.590712], [-8.56092, 40.591604], [-8.560816, 40.592626], [-8.560585, 40.593703], [-8.560235, 40.594724], [-8.559751, 40.595736], [-8.559249, 40.596571], [-8.558638, 40.597384], [-8.55798, 40.598135], [-8.557112, 40.598962], [-8.554585, 40.600949], [-8.553309, 40.60208], [-8.552415, 40.603028], [-8.551548, 40.604091], [-8.551007, 40.60487], [-8.550466, 40.605767], [-8.549813, 40.60703], [-8.549601, 40.607459], [-8.549, 40.608586], [-8.548369, 40.609615], [-8.547924, 40.610242], [-8.547149, 40.61118], [-8.546699, 40.611689], [-8.545772, 40.612587], [-8.543845, 40.614325], [-8.542626, 40.615534], [-8.541553, 40.616693], [-8.540598, 40.617842], [-8.539604, 40.619125], [-8.538955, 40.620049], [-8.538289, 40.621058], [-8.53755, 40.622306], [-8.536874, 40.623578], [-8.536358, 40.624656], [-8.535838, 40.625859], [-8.535631, 40.626341], [-8.53557, 40.62647], [-8.534973, 40.627481], [-8.534543, 40.628085], [-8.534027, 40.628712], [-8.533518, 40.629216], [-8.532898, 40.62978], [-8.529226, 40.632454], [-8.527964, 40.633558], [-8.526786, 40.634854], [-8.526051, 40.635823], [-8.525284, 40.637038], [-8.524826, 40.637948], [-8.524284, 40.639148], [-8.52341, 40.641253], [-8.523121, 40.641889], [-8.522667, 40.642729], [-8.522212, 40.643424], [-8.521101, 40.644892], [-8.520605, 40.645497], [-8.519941, 40.646417], [-8.519531, 40.647114], [-8.519163, 40.647883], [-8.51895, 40.648476], [-8.518755, 40.649147], [-8.518582, 40.649908], [-8.51852, 40.650402], [-8.518501, 40.650967], [-8.518514, 40.652673], [-8.518489, 40.653182], [-8.518432, 40.653759], [-8.518284, 40.654386], [-8.518043, 40.655148], [-8.517767, 40.655725], [-8.517429, 40.656308], [-8.516995, 40.65691], [-8.51616, 40.657898], [-8.515679, 40.658542], [-8.515405, 40.658959], [-8.515207, 40.659312], [-8.515039, 40.659662], [-8.514844, 40.660132], [-8.514637, 40.660816], [-8.514541, 40.661266], [-8.514452, 40.662003], [-8.514433, 40.662586], [-8.51451, 40.66333], [-8.514685, 40.664136], [-8.514928, 40.664805], [-8.515062, 40.66512], [-8.515824, 40.666492], [-8.516337, 40.667496], [-8.517493, 40.669644], [-8.51811, 40.670698], [-8.518652, 40.671782], [-8.518965, 40.672582], [-8.519227, 40.673438], [-8.519419, 40.67444], [-8.519529, 40.675303], [-8.519562, 40.676041], [-8.519537, 40.676656], [-8.519474, 40.677452], [-8.519351, 40.678173], [-8.5192, 40.678855], [-8.518866, 40.680021], [-8.518679, 40.6808], [-8.518536, 40.681506], [-8.518457, 40.682267], [-8.518456, 40.682948], [-8.518569, 40.683732], [-8.518759, 40.684449], [-8.519008, 40.685138], [-8.519319, 40.685745], [-8.519648, 40.686375], [-8.520508, 40.688013], [-8.520724, 40.688443], [-8.521124, 40.68929], [-8.521415, 40.689945], [-8.521775, 40.690925], [-8.522097, 40.691929], [-8.522186, 40.692241], [-8.522237, 40.692413], [-8.522419, 40.692977], [-8.522608, 40.69385], [-8.522773, 40.694726], [-8.52285, 40.695242], [-8.522974, 40.696433], [-8.523025, 40.697459], [-8.523032, 40.698788], [-8.522962, 40.699823], [-8.522763, 40.701449], [-8.522116, 40.704618], [-8.52174, 40.706674], [-8.521622, 40.7077], [-8.521544, 40.708728], [-8.521531, 40.709799], [-8.521722, 40.71246], [-8.522053, 40.714956], [-8.522274, 40.717393], [-8.522305, 40.719425], [-8.522081, 40.724573], [-8.522158, 40.727058], [-8.522342, 40.728875], [-8.522673, 40.731048], [-8.52303, 40.732735], [-8.523609, 40.734934], [-8.523667, 40.735099], [-8.523694, 40.735178], [-8.524387, 40.73717], [-8.525371, 40.739509], [-8.526213, 40.741227], [-8.526389, 40.741551], [-8.52686, 40.742421], [-8.528192, 40.744639], [-8.529673, 40.746782], [-8.530445, 40.747788], [-8.531017, 40.748496], [-8.53234, 40.750193], [-8.532747, 40.750715], [-8.533375, 40.751572], [-8.533742, 40.752104], [-8.534181, 40.75274], [-8.534632, 40.753436], [-8.536467, 40.756264], [-8.537646, 40.758089], [-8.537956, 40.758572], [-8.539281, 40.760607], [-8.542467, 40.765583], [-8.542994, 40.76652], [-8.543291, 40.767196], [-8.543391, 40.767529], [-8.543446, 40.767715], [-8.54363, 40.768649], [-8.543669, 40.769301], [-8.54367, 40.769834], [-8.543428, 40.772291], [-8.543332, 40.77376], [-8.543314, 40.775575], [-8.543349, 40.776349], [-8.543383, 40.776673], [-8.543408, 40.777271], [-8.543502, 40.778137], [-8.543643, 40.778839], [-8.543872, 40.779789], [-8.544274, 40.78125], [-8.544518, 40.781925], [-8.544804, 40.782738], [-8.545129, 40.783494], [-8.545326, 40.78395], [-8.545936, 40.78512], [-8.547428, 40.787839], [-8.548106, 40.789196], [-8.548653, 40.790495], [-8.549039, 40.79182], [-8.549323, 40.793311], [-8.549418, 40.794934], [-8.549309, 40.796866], [-8.548736, 40.801569], [-8.548032, 40.806876], [-8.547953, 40.808276], [-8.547992, 40.810321], [-8.548202, 40.812373], [-8.548582, 40.814022], [-8.54903, 40.815592], [-8.549667, 40.817412], [-8.552055, 40.822318], [-8.552876, 40.824261], [-8.553507, 40.826119], [-8.553905, 40.827571], [-8.554276, 40.829432], [-8.554503, 40.831546], [-8.554739, 40.836974], [-8.554894, 40.839219], [-8.555024, 40.840068], [-8.555205, 40.840891], [-8.555717, 40.842377], [-8.556904, 40.845083], [-8.557294, 40.84643], [-8.557441, 40.847747], [-8.557395, 40.848687], [-8.557192, 40.849738], [-8.556766, 40.85092], [-8.555784, 40.853177], [-8.55536, 40.854639], [-8.55526, 40.855966], [-8.555391, 40.857192], [-8.555606, 40.858103], [-8.555846, 40.858709], [-8.557089, 40.86118], [-8.558272, 40.863966], [-8.558993, 40.866083], [-8.559519, 40.868166], [-8.559925, 40.870671], [-8.560189, 40.873375], [-8.560565, 40.878708], [-8.56075, 40.879996], [-8.561177, 40.881378], [-8.561859, 40.88262], [-8.562854, 40.883767], [-8.563688, 40.884501], [-8.565247, 40.885708], [-8.566171, 40.886593], [-8.566938, 40.887611], [-8.567562, 40.888764], [-8.568042, 40.890451], [-8.568301, 40.892132], [-8.568379, 40.894017], [-8.568263, 40.895561], [-8.568013, 40.897184], [-8.567598, 40.898801], [-8.567176, 40.900612], [-8.566804, 40.902381], [-8.566714, 40.904174], [-8.56684, 40.906217], [-8.567293, 40.909119], [-8.567609, 40.911261], [-8.567706, 40.912269], [-8.567762, 40.913113], [-8.567792, 40.914833], [-8.56776, 40.916131], [-8.567699, 40.917413], [-8.567525, 40.920316], [-8.567512, 40.921719], [-8.567643, 40.923596], [-8.56782, 40.92485], [-8.56812, 40.926357], [-8.568242, 40.926698], [-8.568399, 40.92728], [-8.568665, 40.928103], [-8.568986, 40.928972], [-8.569147, 40.929394], [-8.57003, 40.93133], [-8.571237, 40.933551], [-8.572057, 40.934995], [-8.572765, 40.936511], [-8.573181, 40.937494], [-8.573524, 40.938455], [-8.573924, 40.940105], [-8.574177, 40.941794], [-8.574239, 40.943718], [-8.574177, 40.944475], [-8.573957, 40.945645], [-8.573489, 40.947018], [-8.57306, 40.948102], [-8.572884, 40.948661], [-8.572741, 40.949228], [-8.57264, 40.949803], [-8.572579, 40.950373], [-8.572512, 40.952572], [-8.572388, 40.953517], [-8.572125, 40.954547], [-8.571902, 40.95514], [-8.571654, 40.955678], [-8.571028, 40.956671], [-8.570268, 40.957593], [-8.569584, 40.958282], [-8.568959, 40.95899], [-8.568478, 40.959635], [-8.568125, 40.960279], [-8.567701, 40.9613], [-8.567548, 40.961917], [-8.567457, 40.962406], [-8.567419, 40.962937], [-8.567407, 40.963451], [-8.567469, 40.964081], [-8.567593, 40.964683], [-8.567758, 40.965261], [-8.567995, 40.965846], [-8.568282, 40.96641], [-8.568615, 40.966962], [-8.569281, 40.967797], [-8.57049, 40.969037], [-8.570878, 40.969466], [-8.571231, 40.96993], [-8.571573, 40.97043], [-8.572397, 40.971992], [-8.57295, 40.972873], [-8.573906, 40.974023], [-8.574999, 40.975183], [-8.575614, 40.976211], [-8.576087, 40.97746], [-8.576455, 40.979261], [-8.576634, 40.97986], [-8.576853, 40.980441], [-8.57713, 40.981018], [-8.577469, 40.981594], [-8.578306, 40.982727], [-8.579109, 40.983538], [-8.580271, 40.984392], [-8.581935, 40.985455], [-8.583206, 40.986484], [-8.584369, 40.987759], [-8.585073, 40.988966], [-8.585446, 40.990059], [-8.585572, 40.991153], [-8.585554, 40.992464], [-8.585196, 40.993719], [-8.583948, 40.996313], [-8.583585, 40.997684], [-8.583285, 41.000212], [-8.583137, 41.000954], [-8.582807, 41.002357], [-8.582525, 41.003636], [-8.582473, 41.004007], [-8.582367, 41.004664], [-8.582296, 41.005253], [-8.582242, 41.006309], [-8.582278, 41.007391], [-8.582311, 41.007946], [-8.582376, 41.008535], [-8.582717, 41.010709], [-8.582827, 41.011571], [-8.582829, 41.012142], [-8.582794, 41.012794], [-8.582661, 41.013592], [-8.582458, 41.014417], [-8.581775, 41.016278], [-8.580807, 41.019261], [-8.580636, 41.019635], [-8.580196, 41.020349], [-8.579531, 41.021152], [-8.579014, 41.021654], [-8.578295, 41.022233], [-8.576492, 41.023477], [-8.575784, 41.02403], [-8.575119, 41.024669], [-8.573261, 41.026838], [-8.572808, 41.027507], [-8.572384, 41.02832], [-8.572152, 41.028924], [-8.571988, 41.029506], [-8.571879, 41.03013], [-8.571826, 41.030943], [-8.57185, 41.031645], [-8.57203, 41.032946], [-8.572049, 41.033477], [-8.572018, 41.034021], [-8.571931, 41.034718], [-8.571786, 41.035266], [-8.571335, 41.036359], [-8.570732, 41.037442], [-8.570206, 41.038545], [-8.569868, 41.039709], [-8.56978, 41.040835], [-8.569899, 41.042016], [-8.570143, 41.042942], [-8.570745, 41.044829], [-8.57096, 41.045914], [-8.571096, 41.047911], [-8.571174, 41.048546], [-8.571384, 41.049322], [-8.571539, 41.049768], [-8.571669, 41.050074], [-8.571982, 41.050666], [-8.572271, 41.051093], [-8.572411, 41.051318], [-8.572616, 41.051593], [-8.573068, 41.052065], [-8.574059, 41.052967], [-8.575367, 41.053952], [-8.576391, 41.054901], [-8.577185, 41.055942], [-8.577648, 41.056771], [-8.578031, 41.057769], [-8.578411, 41.059309], [-8.578955, 41.061072], [-8.580364, 41.064207], [-8.580519, 41.06455], [-8.580977, 41.06553], [-8.581186, 41.065985], [-8.581594, 41.067033], [-8.581663, 41.06729], [-8.581778, 41.067813], [-8.581872, 41.068154], [-8.581926, 41.068871], [-8.581904, 41.069472], [-8.581827, 41.070216], [-8.581675, 41.070856], [-8.581528, 41.071324], [-8.581022, 41.072548], [-8.580971, 41.072662], [-8.580843, 41.072931], [-8.580776, 41.073072], [-8.5805, 41.073636], [-8.580247, 41.074117], [-8.579825, 41.074743], [-8.578563, 41.076281], [-8.578149, 41.076773], [-8.577876, 41.077123], [-8.577636, 41.077376], [-8.576934, 41.078222], [-8.576282, 41.079171], [-8.576083, 41.079539], [-8.575639, 41.080537], [-8.575485, 41.081055], [-8.575315, 41.08194], [-8.575281, 41.082379], [-8.575273, 41.08275], [-8.575298, 41.083137], [-8.575359, 41.083672], [-8.575737, 41.08693], [-8.575724, 41.087038], [-8.575754, 41.087571], [-8.575758, 41.087735], [-8.575717, 41.088273], [-8.575659, 41.088678], [-8.575565, 41.089018], [-8.575522, 41.089235], [-8.575406, 41.089584], [-8.575169, 41.090154], [-8.57469, 41.091105], [-8.574525, 41.09144], [-8.574437, 41.091607], [-8.573977, 41.092597], [-8.573881, 41.092829], [-8.573411, 41.093938], [-8.573162, 41.094883], [-8.572697, 41.096808], [-8.572475, 41.097573], [-8.572155, 41.098362], [-8.571976, 41.098632], [-8.571779, 41.098928], [-8.571247, 41.099548], [-8.57062, 41.100099], [-8.568571, 41.10158], [-8.568128, 41.101954], [-8.567729, 41.102339], [-8.567267, 41.102895], [-8.567064, 41.103194], [-8.566642, 41.104022], [-8.566281, 41.104786], [-8.566031, 41.105323], [-8.565742, 41.105985], [-8.565564, 41.106594], [-8.565495, 41.106939], [-8.565447, 41.107325], [-8.565447, 41.107726], [-8.565487, 41.108131], [-8.565629, 41.108773], [-8.56567, 41.108913], [-8.565932, 41.109511], [-8.566069, 41.109758], [-8.5665, 41.110402], [-8.567762, 41.111772], [-8.56837, 41.11246], [-8.569575, 41.113779], [-8.570232, 41.114513], [-8.570764, 41.115097], [-8.571156, 41.115592], [-8.571381, 41.115972], [-8.571566, 41.116336], [-8.571751, 41.116819], [-8.571842, 41.117179], [-8.572041, 41.118771], [-8.572109, 41.119409], [-8.57219, 41.119943], [-8.572383, 41.120698], [-8.5734, 41.123887], [-8.573707, 41.124884], [-8.573905, 41.125485], [-8.574211, 41.12632], [-8.574524, 41.12699], [-8.574909, 41.127719], [-8.575422, 41.128705], [-8.575726, 41.129344], [-8.575804, 41.129548], [-8.575972, 41.130256], [-8.57607, 41.130961], [-8.576318, 41.13282], [-8.576455, 41.133394], [-8.576667, 41.133899], [-8.576931, 41.134333], [-8.57731, 41.134793], [-8.577467, 41.134941], [-8.577712, 41.135171], [-8.578053, 41.135428], [-8.578957, 41.135979], [-8.579536, 41.136379], [-8.5799, 41.136694], [-8.5802, 41.137061], [-8.580435, 41.137475], [-8.580551, 41.137753], [-8.580606, 41.137926], [-8.580669, 41.138415], [-8.580628, 41.138689], [-8.580636, 41.138858], [-8.580642, 41.139037], [-8.58067, 41.140011], [-8.580848, 41.143572], [-8.580979, 41.145275], [-8.580982, 41.145858], [-8.58094, 41.146234], [-8.580788, 41.146635], [-8.58066, 41.1469], [-8.580501, 41.147155], [-8.579377, 41.148368], [-8.579212, 41.148599], [-8.578979, 41.14899], [-8.578863, 41.149305], [-8.578807, 41.149511], [-8.578781, 41.149836], [-8.578814, 41.15013], [-8.578918, 41.150567], [-8.578998, 41.150759], [-8.579097, 41.150937], [-8.579281, 41.151201], [-8.579497, 41.151453], [-8.580176, 41.152076], [-8.580516, 41.152345], [-8.580665, 41.152462], [-8.580842, 41.152713], [-8.581198, 41.153082], [-8.581461, 41.153445], [-8.581643, 41.153816], [-8.581684, 41.153941], [-8.581693, 41.154034], [-8.581603, 41.154351], [-8.581588, 41.154486], [-8.581602, 41.154522], [-8.581798, 41.154725], [-8.581865, 41.154821], [-8.581989, 41.155043], [-8.582096, 41.155429], [-8.582142, 41.155634], [-8.582174, 41.1558], [-8.582297, 41.15636], [-8.582363, 41.156414], [-8.582604, 41.156676], [-8.582735, 41.15693], [-8.582728, 41.157155], [-8.582522, 41.157658], [-8.582112, 41.158651], [-8.582137, 41.158721], [-8.582231, 41.15871], [-8.582944, 41.158887], [-8.583007, 41.158879], [-8.58314, 41.158832], [-8.583057, 41.159253], [-8.583097, 41.159469], [-8.583373, 41.15967], [-8.583416, 41.159671], [-8.583478, 41.159628], [-8.58358, 41.159503], [-8.583732, 41.159267], [-8.583818, 41.159172], [-8.583904, 41.159174], [-8.584125, 41.159248], [-8.584224, 41.159249], [-8.584285, 41.159295], [-8.58436, 41.15932], [-8.584913, 41.159926], [-8.585658, 41.160762], [-8.585768, 41.160904], [-8.58591, 41.161163], [-8.586022, 41.161495], [-8.586169, 41.16149], [-8.586214, 41.161541], [-8.586213, 41.161761], [-8.586168, 41.161923], [-8.586257, 41.161927], [-8.587461, 41.161442], [-8.587734, 41.161228], [-8.588839, 41.161716], [-8.590355, 41.162413], [-8.590693, 41.162593], [-8.590662, 41.162633], [-8.590659, 41.162681], [-8.590376, 41.163069], [-8.590131, 41.16337], [-8.589792, 41.163743], [-8.589556, 41.164015], [-8.58935, 41.164041], [-8.589153, 41.164021], [-8.587418, 41.163439], [-8.585403, 41.162757], [-8.585115, 41.162758], [-8.584297, 41.162978]]}}], "metadata": {"attribution": "openrouteservice.org | OpenStreetMap contributors", "service": "routing", "timestamp": 1781022391379, "query": {"coordinates": [[-8.409922, 40.193131], [-8.5837492, 41.1618235]], "profile": "driving-car", "profileName": "driving-car", "preference": "shortest", "format": "geojson"}, "engine": {"version": "9.9.0", "build_date": "2026-04-20T10:23:42Z", "graph_date": "2026-05-22T15:45:45Z", "osm_date": "2026-05-11T00:00:00Z"}}}