{"type": "FeatureCollection", "bbox": [-8.61482, 40.192602, -8.409922, 40.429423], "features": [{"bbox": [-8.61482, 40.192602, -8.409922, 40.429423], "type": "Feature", "properties": {"segments": [{"distance": 40759.0, "duration": 29346.3, "steps": [{"distance": 78.2, "duration": 56.3, "type": 11, "instruction": "Head west", "name": "-", "way_points": [0, 1]}, {"distance": 5.9, "duration": 4.2, "type": 1, "instruction": "Turn right", "name": "-", "way_points": [1, 3]}, {"distance": 24.3, "duration": 17.5, "type": 0, "instruction": "Turn left onto Rua Pedro Nunes", "name": "Rua Pedro Nunes", "way_points": [3, 4]}, {"distance": 28.9, "duration": 20.8, "type": 6, "instruction": "Continue straight onto Rua Pedro Nunes", "name": "Rua Pedro Nunes", "way_points": [4, 5]}, {"distance": 3.6, "duration": 2.6, "type": 7, "instruction": "Enter the roundabout and take the 1st exit onto Rua Pedro Nunes", "name": "Rua Pedro Nunes", "exit_number": 1, "way_points": [5, 6]}, {"distance": 203.4, "duration": 146.4, "type": 6, "instruction": "Continue straight onto Rua Pedro Nunes", "name": "Rua Pedro Nunes", "way_points": [6, 15]}, {"distance": 26.0, "duration": 18.8, "type": 1, "instruction": "Turn right", "name": "-", "way_points": [15, 17]}, {"distance": 132.4, "duration": 95.3, "type": 0, "instruction": "Turn left", "name": "-", "way_points": [17, 21]}, {"distance": 51.8, "duration": 37.3, "type": 4, "instruction": "Turn slight left", "name": "-", "way_points": [21, 23]}, {"distance": 36.6, "duration": 26.4, "type": 1, "instruction": "Turn right", "name": "-", "way_points": [23, 28]}, {"distance": 116.2, "duration": 83.7, "type": 1, "instruction": "Turn right", "name": "-", "way_points": [28, 34]}, {"distance": 118.8, "duration": 85.6, "type": 13, "instruction": "Keep right", "name": "-", "way_points": [34, 38]}, {"distance": 22.0, "duration": 15.8, "type": 13, "instruction": "Keep right", "name": "-", "way_points": [38, 39]}, {"distance": 38.0, "duration": 27.4, "type": 1, "instruction": "Turn right", "name": "-", "way_points": [39, 42]}, {"distance": 257.0, "duration": 185.0, "type": 0, "instruction": "Turn left", "name": "-", "way_points": [42, 58]}, {"distance": 22.1, "duration": 15.9, "type": 0, "instruction": "Turn left", "name": "-", "way_points": [58, 61]}, {"distance": 560.6, "duration": 403.6, "type": 1, "instruction": "Turn right", "name": "-", "way_points": [61, 72]}, {"distance": 297.6, "duration": 214.3, "type": 13, "instruction": "Keep right", "name": "-", "way_points": [72, 77]}, {"distance": 13.3, "duration": 9.6, "type": 0, "instruction": "Turn left", "name": "-", "way_points": [77, 80]}, {"distance": 274.6, "duration": 197.7, "type": 1, "instruction": "Turn right", "name": "-", "way_points": [80, 88]}, {"distance": 39.9, "duration": 28.8, "type": 1, "instruction": "Turn right", "name": "-", "way_points": [88, 89]}, {"distance": 32.2, "duration": 23.2, "type": 0, "instruction": "Turn left", "name": "-", "way_points": [89, 93]}, {"distance": 279.0, "duration": 200.9, "type": 13, "instruction": "Keep right", "name": "-", "way_points": [93, 100]}, {"distance": 122.7, "duration": 88.3, "type": 13, "instruction": "Keep right", "name": "-", "way_points": [100, 104]}, {"distance": 94.8, "duration": 68.2, "type": 1, "instruction": "Turn right", "name": "-", "way_points": [104, 115]}, {"distance": 226.0, "duration": 162.7, "type": 5, "instruction": "Turn slight right", "name": "-", "way_points": [115, 126]}, {"distance": 441.9, "duration": 318.2, "type": 5, "instruction": "Turn slight right onto Avenida Fern\u00e3o de Magalh\u00e3es", "name": "Avenida Fern\u00e3o de Magalh\u00e3es", "way_points": [126, 141]}, {"distance": 53.2, "duration": 38.3, "type": 0, "instruction": "Turn left", "name": "-", "way_points": [141, 142]}, {"distance": 33.1, "duration": 23.9, "type": 1, "instruction": "Turn right", "name": "-", "way_points": [142, 144]}, {"distance": 76.7, "duration": 55.2, "type": 1, "instruction": "Turn right", "name": "-", "way_points": [144, 146]}, {"distance": 56.7, "duration": 40.8, "type": 0, "instruction": "Turn left onto Rua do Arnado", "name": "Rua do Arnado", "way_points": [146, 148]}, {"distance": 95.0, "duration": 68.4, "type": 1, "instruction": "Turn right", "name": "-", "way_points": [148, 150]}, {"distance": 16.5, "duration": 11.9, "type": 13, "instruction": "Keep right", "name": "-", "way_points": [150, 151]}, {"distance": 189.5, "duration": 136.5, "type": 0, "instruction": "Turn left onto Rua Abel Dias Urbano", "name": "Rua Abel Dias Urbano", "way_points": [151, 157]}, {"distance": 146.4, "duration": 105.4, "type": 0, "instruction": "Turn left onto Rua Padre Estev\u00e3o Cabral", "name": "Rua Padre Estev\u00e3o Cabral", "way_points": [157, 164]}, {"distance": 61.9, "duration": 44.5, "type": 6, "instruction": "Continue straight", "name": "-", "way_points": [164, 167]}, {"distance": 51.7, "duration": 37.2, "type": 12, "instruction": "Keep left", "name": "-", "way_points": [167, 170]}, {"distance": 22.1, "duration": 15.9, "type": 13, "instruction": "Keep right", "name": "-", "way_points": [170, 171]}, {"distance": 21.0, "duration": 15.1, "type": 13, "instruction": "Keep right", "name": "-", "way_points": [171, 172]}, {"distance": 3.4, "duration": 2.5, "type": 5, "instruction": "Turn slight right", "name": "-", "way_points": [172, 173]}, {"distance": 18.7, "duration": 13.4, "type": 12, "instruction": "Keep left", "name": "-", "way_points": [173, 175]}, {"distance": 5.4, "duration": 3.9, "type": 0, "instruction": "Turn left", "name": "-", "way_points": [175, 176]}, {"distance": 21.5, "duration": 15.5, "type": 1, "instruction": "Turn right", "name": "-", "way_points": [176, 177]}, {"distance": 330.3, "duration": 237.8, "type": 0, "instruction": "Turn left", "name": "-", "way_points": [177, 188]}, {"distance": 129.5, "duration": 93.2, "type": 0, "instruction": "Turn left", "name": "-", "way_points": [188, 193]}, {"distance": 1977.6, "duration": 1423.8, "type": 12, "instruction": "Keep left", "name": "-", "way_points": [193, 210]}, {"distance": 1556.7, "duration": 1120.8, "type": 12, "instruction": "Keep left", "name": "-", "way_points": [210, 216]}, {"distance": 25.5, "duration": 18.4, "type": 1, "instruction": "Turn right", "name": "-", "way_points": [216, 220]}, {"distance": 566.7, "duration": 408.0, "type": 0, "instruction": "Turn left", "name": "-", "way_points": [220, 224]}, {"distance": 1963.9, "duration": 1414.0, "type": 1, "instruction": "Turn right", "name": "-", "way_points": [224, 231]}, {"distance": 1048.4, "duration": 754.8, "type": 5, "instruction": "Turn slight right", "name": "-", "way_points": [231, 240]}, {"distance": 133.9, "duration": 96.4, "type": 12, "instruction": "Keep left", "name": "-", "way_points": [240, 246]}, {"distance": 74.3, "duration": 53.5, "type": 1, "instruction": "Turn right onto EN 111", "name": "EN 111", "way_points": [246, 247]}, {"distance": 1431.5, "duration": 1030.7, "type": 0, "instruction": "Turn left", "name": "-", "way_points": [247, 281]}, {"distance": 322.4, "duration": 232.2, "type": 4, "instruction": "Turn slight left", "name": "-", "way_points": [281, 288]}, {"distance": 542.5, "duration": 390.6, "type": 12, "instruction": "Keep left", "name": "-", "way_points": [288, 305]}, {"distance": 455.2, "duration": 327.8, "type": 3, "instruction": "Turn sharp right", "name": "-", "way_points": [305, 317]}, {"distance": 387.0, "duration": 278.6, "type": 12, "instruction": "Keep left", "name": "-", "way_points": [317, 332]}, {"distance": 414.5, "duration": 298.5, "type": 12, "instruction": "Keep left", "name": "-", "way_points": [332, 349]}, {"distance": 241.1, "duration": 173.6, "type": 13, "instruction": "Keep right", "name": "-", "way_points": [349, 359]}, {"distance": 369.4, "duration": 266.0, "type": 0, "instruction": "Turn left", "name": "-", "way_points": [359, 365]}, {"distance": 372.8, "duration": 268.4, "type": 3, "instruction": "Turn sharp right", "name": "-", "way_points": [365, 379]}, {"distance": 91.9, "duration": 66.1, "type": 0, "instruction": "Turn left", "name": "-", "way_points": [379, 385]}, {"distance": 831.8, "duration": 598.9, "type": 13, "instruction": "Keep right", "name": "-", "way_points": [385, 417]}, {"distance": 239.7, "duration": 172.6, "type": 0, "instruction": "Turn left", "name": "-", "way_points": [417, 429]}, {"distance": 486.2, "duration": 350.1, "type": 0, "instruction": "Turn left", "name": "-", "way_points": [429, 436]}, {"distance": 1759.6, "duration": 1266.9, "type": 13, "instruction": "Keep right", "name": "-", "way_points": [436, 494]}, {"distance": 1189.1, "duration": 856.2, "type": 5, "instruction": "Turn slight right", "name": "-", "way_points": [494, 519]}, {"distance": 94.5, "duration": 68.0, "type": 0, "instruction": "Turn left", "name": "-", "way_points": [519, 523]}, {"distance": 591.9, "duration": 426.2, "type": 12, "instruction": "Keep left", "name": "-", "way_points": [523, 541]}, {"distance": 87.9, "duration": 63.3, "type": 1, "instruction": "Turn right", "name": "-", "way_points": [541, 544]}, {"distance": 106.0, "duration": 76.4, "type": 0, "instruction": "Turn left", "name": "-", "way_points": [544, 548]}, {"distance": 6.6, "duration": 4.8, "type": 3, "instruction": "Turn sharp right onto EM 584", "name": "EM 584", "way_points": [548, 549]}, {"distance": 133.3, "duration": 96.0, "type": 0, "instruction": "Turn left", "name": "-", "way_points": [549, 551]}, {"distance": 1763.8, "duration": 1269.9, "type": 5, "instruction": "Turn slight right", "name": "-", "way_points": [551, 598]}, {"distance": 404.1, "duration": 290.9, "type": 0, "instruction": "Turn left", "name": "-", "way_points": [598, 611]}, {"distance": 475.8, "duration": 342.6, "type": 13, "instruction": "Keep right", "name": "-", "way_points": [611, 627]}, {"distance": 142.5, "duration": 102.6, "type": 13, "instruction": "Keep right", "name": "-", "way_points": [627, 633]}, {"distance": 1939.1, "duration": 1396.2, "type": 4, "instruction": "Turn slight left", "name": "-", "way_points": [633, 668]}, {"distance": 14.1, "duration": 10.2, "type": 7, "instruction": "Enter the roundabout and take the 2nd exit", "name": "-", "exit_number": 2, "way_points": [668, 671]}, {"distance": 283.4, "duration": 204.1, "type": 6, "instruction": "Continue straight", "name": "-", "way_points": [671, 673]}, {"distance": 35.5, "duration": 25.5, "type": 12, "instruction": "Keep left", "name": "-", "way_points": [673, 674]}, {"distance": 741.0, "duration": 533.5, "type": 13, "instruction": "Keep right", "name": "-", "way_points": [674, 682]}, {"distance": 695.3, "duration": 500.6, "type": 6, "instruction": "Continue straight", "name": "-", "way_points": [682, 697]}, {"distance": 89.2, "duration": 64.2, "type": 0, "instruction": "Turn left", "name": "-", "way_points": [697, 700]}, {"distance": 19.6, "duration": 14.1, "type": 1, "instruction": "Turn right", "name": "-", "way_points": [700, 701]}, {"distance": 75.0, "duration": 54.0, "type": 1, "instruction": "Turn right onto Rua Doutor Silva Pereira", "name": "Rua Doutor Silva Pereira", "way_points": [701, 702]}, {"distance": 570.2, "duration": 410.6, "type": 0, "instruction": "Turn left", "name": "-", "way_points": [702, 712]}, {"distance": 22.6, "duration": 16.3, "type": 3, "instruction": "Turn sharp right", "name": "-", "way_points": [712, 714]}, {"distance": 20.1, "duration": 14.4, "type": 12, "instruction": "Keep left", "name": "-", "way_points": [714, 715]}, {"distance": 298.8, "duration": 215.1, "type": 0, "instruction": "Turn left", "name": "-", "way_points": [715, 720]}, {"distance": 17.4, "duration": 12.5, "type": 0, "instruction": "Turn left onto Largo Conselheiro Ferreira Freire, EN 335", "name": "Largo Conselheiro Ferreira Freire, EN 335", "way_points": [720, 721]}, {"distance": 110.1, "duration": 79.3, "type": 1, "instruction": "Turn right", "name": "-", "way_points": [721, 723]}, {"distance": 502.2, "duration": 361.6, "type": 1, "instruction": "Turn right", "name": "-", "way_points": [723, 733]}, {"distance": 74.3, "duration": 53.5, "type": 1, "instruction": "Turn right onto Rua Ant\u00f3nio Lopes", "name": "Rua Ant\u00f3nio Lopes", "way_points": [733, 735]}, {"distance": 12.7, "duration": 9.2, "type": 7, "instruction": "Enter the roundabout and take the 1st exit", "name": "-", "exit_number": 1, "way_points": [735, 737]}, {"distance": 220.6, "duration": 158.8, "type": 6, "instruction": "Continue straight", "name": "-", "way_points": [737, 741]}, {"distance": 14.4, "duration": 10.4, "type": 12, "instruction": "Keep left", "name": "-", "way_points": [741, 743]}, {"distance": 143.4, "duration": 103.2, "type": 4, "instruction": "Turn slight left", "name": "-", "way_points": [743, 746]}, {"distance": 249.9, "duration": 179.9, "type": 12, "instruction": "Keep left", "name": "-", "way_points": [746, 748]}, {"distance": 21.1, "duration": 15.2, "type": 1, "instruction": "Turn right", "name": "-", "way_points": [748, 750]}, {"distance": 39.4, "duration": 28.4, "type": 0, "instruction": "Turn left onto EN 234", "name": "EN 234", "way_points": [750, 752]}, {"distance": 9.9, "duration": 7.1, "type": 7, "instruction": "Enter the roundabout and take the 1st exit onto EM 335", "name": "EM 335", "exit_number": 1, "way_points": [752, 753]}, {"distance": 80.4, "duration": 57.9, "type": 6, "instruction": "Continue straight onto EM 335", "name": "EM 335", "way_points": [753, 757]}, {"distance": 1371.1, "duration": 987.2, "type": 0, "instruction": "Turn left", "name": "-", "way_points": [757, 778]}, {"distance": 62.2, "duration": 44.8, "type": 0, "instruction": "Turn left onto CM 1033", "name": "CM 1033", "way_points": [778, 779]}, {"distance": 431.2, "duration": 310.5, "type": 1, "instruction": "Turn right", "name": "-", "way_points": [779, 784]}, {"distance": 1177.8, "duration": 848.0, "type": 1, "instruction": "Turn right", "name": "-", "way_points": [784, 801]}, {"distance": 31.7, "duration": 22.8, "type": 1, "instruction": "Turn right", "name": "-", "way_points": [801, 802]}, {"distance": 2563.4, "duration": 1845.7, "type": 0, "instruction": "Turn left", "name": "-", "way_points": [802, 841]}, {"distance": 960.0, "duration": 691.2, "type": 12, "instruction": "Keep left", "name": "-", "way_points": [841, 862]}, {"distance": 53.5, "duration": 38.5, "type": 6, "instruction": "Continue straight onto Rua 10 de Junho", "name": "Rua 10 de Junho", "way_points": [862, 866]}, {"distance": 648.2, "duration": 466.7, "type": 6, "instruction": "Continue straight", "name": "-", "way_points": [866, 879]}, {"distance": 158.5, "duration": 114.1, "type": 0, "instruction": "Turn left", "name": "-", "way_points": [879, 886]}, {"distance": 223.0, "duration": 160.6, "type": 5, "instruction": "Turn slight right", "name": "-", "way_points": [886, 892]}, {"distance": 1097.2, "duration": 790.0, "type": 1, "instruction": "Turn right", "name": "-", "way_points": [892, 915]}, {"distance": 198.9, "duration": 143.2, "type": 5, "instruction": "Turn slight right", "name": "-", "way_points": [915, 921]}, {"distance": 314.0, "duration": 226.1, "type": 0, "instruction": "Turn left", "name": "-", "way_points": [921, 931]}, {"distance": 0.0, "duration": 0.0, "type": 10, "instruction": "Arrive at your destination, on the right", "name": "-", "way_points": [931, 931]}]}], "way_points": [0, 931], "summary": {"distance": 40759.0, "duration": 29346.3}}, "geometry": {"type": "LineString", "coordinates": [[-8.409922, 40.193146], [-8.410843, 40.193129], [-8.410843, 40.19315], [-8.410844, 40.193182], [-8.41113, 40.19318], [-8.41147, 40.193175], [-8.411513, 40.193173], [-8.411817, 40.193188], [-8.412219, 40.193184], [-8.41241, 40.193181], [-8.412528, 40.19318], [-8.412766, 40.193176], [-8.413659, 40.193168], [-8.413747, 40.193158], [-8.413815, 40.193129], [-8.413867, 40.193082], [-8.413965, 40.193119], [-8.414161, 40.193132], [-8.414159, 40.19309], [-8.414159, 40.193046], [-8.415056, 40.193051], [-8.415605, 40.193054], [-8.415994, 40.192781], [-8.416033, 40.192727], [-8.416089, 40.192734], [-8.416139, 40.192742], [-8.416312, 40.192673], [-8.416343, 40.192646], [-8.4164, 40.192602], [-8.416557, 40.192658], [-8.416768, 40.192705], [-8.417012, 40.192727], [-8.417547, 40.192721], [-8.41769, 40.192708], [-8.41774, 40.192703], [-8.417971, 40.192693], [-8.418207, 40.192711], [-8.418698, 40.192695], [-8.419136, 40.192676], [-8.419395, 40.192673], [-8.419396, 40.192727], [-8.419402, 40.192991], [-8.419403, 40.193015], [-8.419481, 40.193014], [-8.419719, 40.193034], [-8.419874, 40.193113], [-8.419957, 40.1932], [-8.419999, 40.193336], [-8.420319, 40.193694], [-8.420366, 40.193766], [-8.420405, 40.19378], [-8.42049, 40.193815], [-8.420531, 40.193859], [-8.420507, 40.193919], [-8.420494, 40.193951], [-8.420568, 40.193985], [-8.420658, 40.194074], [-8.420718, 40.194254], [-8.420752, 40.194797], [-8.42082, 40.194795], [-8.420943, 40.194789], [-8.421012, 40.194786], [-8.421045, 40.19557], [-8.421073, 40.196304], [-8.421104, 40.196837], [-8.421144, 40.197185], [-8.421211, 40.197606], [-8.421273, 40.197838], [-8.421388, 40.198079], [-8.421494, 40.19822], [-8.421597, 40.198314], [-8.42266, 40.199092], [-8.422931, 40.199327], [-8.423021, 40.199433], [-8.423388, 40.199946], [-8.423886, 40.200798], [-8.424001, 40.200966], [-8.42437, 40.20176], [-8.424433, 40.201743], [-8.424476, 40.201732], [-8.424518, 40.20172], [-8.424688, 40.202041], [-8.424789, 40.202239], [-8.424865, 40.202342], [-8.425047, 40.202634], [-8.425303, 40.202954], [-8.425619, 40.20332], [-8.426078, 40.203788], [-8.42613, 40.203847], [-8.425751, 40.204059], [-8.425765, 40.204077], [-8.425818, 40.20417], [-8.425836, 40.204199], [-8.425967, 40.20429], [-8.426485, 40.204653], [-8.426803, 40.204888], [-8.427122, 40.205117], [-8.427541, 40.205413], [-8.427929, 40.20569], [-8.428352, 40.205985], [-8.428371, 40.206], [-8.428803, 40.206312], [-8.428901, 40.206383], [-8.429197, 40.206603], [-8.429448, 40.20673], [-8.429421, 40.206782], [-8.429379, 40.206857], [-8.429308, 40.206921], [-8.42928, 40.206945], [-8.429242, 40.206979], [-8.429231, 40.206988], [-8.429354, 40.207061], [-8.429627, 40.207209], [-8.429677, 40.207236], [-8.429736, 40.207268], [-8.429807, 40.207304], [-8.4299, 40.207386], [-8.429928, 40.20741], [-8.430138, 40.207625], [-8.430332, 40.207805], [-8.430673, 40.208156], [-8.43085, 40.208429], [-8.430982, 40.208571], [-8.431065, 40.208695], [-8.431175, 40.20885], [-8.431248, 40.208953], [-8.431272, 40.208991], [-8.431247, 40.209046], [-8.431264, 40.209097], [-8.431453, 40.209453], [-8.431508, 40.209567], [-8.431565, 40.209666], [-8.43164, 40.209795], [-8.431776, 40.210049], [-8.431908, 40.210293], [-8.432022, 40.210505], [-8.432081, 40.210615], [-8.432191, 40.210815], [-8.432231, 40.21089], [-8.432515, 40.21142], [-8.433118, 40.212514], [-8.433204, 40.212664], [-8.43373, 40.212404], [-8.433758, 40.212437], [-8.433942, 40.212654], [-8.43389, 40.212714], [-8.434335, 40.213231], [-8.434884, 40.212998], [-8.434919, 40.212983], [-8.435376, 40.213617], [-8.435381, 40.213748], [-8.435251, 40.213857], [-8.43583, 40.214425], [-8.435917, 40.21451], [-8.436257, 40.214867], [-8.436429, 40.215044], [-8.436481, 40.21517], [-8.436457, 40.215251], [-8.436542, 40.21528], [-8.436622, 40.215332], [-8.437169, 40.215689], [-8.437303, 40.215778], [-8.437368, 40.215817], [-8.437514, 40.215904], [-8.43779, 40.216083], [-8.43796, 40.216191], [-8.438054, 40.216277], [-8.438176, 40.216536], [-8.438407, 40.216618], [-8.438644, 40.216645], [-8.438758, 40.216638], [-8.439016, 40.216612], [-8.439212, 40.216726], [-8.439227, 40.216755], [-8.439294, 40.216813], [-8.439338, 40.216897], [-8.439398, 40.21688], [-8.439491, 40.21706], [-8.439712, 40.217044], [-8.439814, 40.217036], [-8.439914, 40.21702], [-8.440128, 40.217017], [-8.440281, 40.217055], [-8.440926, 40.217542], [-8.44151, 40.217916], [-8.441816, 40.218083], [-8.442, 40.218275], [-8.442188, 40.218403], [-8.442469, 40.2187], [-8.442532, 40.218669], [-8.442655, 40.218667], [-8.443003, 40.218725], [-8.443441, 40.218841], [-8.443897, 40.219012], [-8.444068, 40.218998], [-8.44484, 40.219285], [-8.445101, 40.219339], [-8.445729, 40.219462], [-8.446237, 40.219519], [-8.446558, 40.219569], [-8.446906, 40.219626], [-8.447152, 40.219666], [-8.449398, 40.220048], [-8.453481, 40.220683], [-8.455261, 40.220835], [-8.456479, 40.220904], [-8.458459, 40.220932], [-8.459982, 40.220871], [-8.461796, 40.22074], [-8.46451, 40.220367], [-8.466779, 40.219966], [-8.467438, 40.219851], [-8.468994, 40.219581], [-8.472739, 40.218925], [-8.475255, 40.21851], [-8.48362, 40.217074], [-8.48467, 40.216909], [-8.484676, 40.216928], [-8.484706, 40.217028], [-8.484715, 40.217056], [-8.484738, 40.217133], [-8.485434, 40.216999], [-8.487354, 40.216648], [-8.490471, 40.216142], [-8.491261, 40.216069], [-8.491272, 40.216743], [-8.491316, 40.216865], [-8.491403, 40.216909], [-8.496584, 40.216898], [-8.499044, 40.217521], [-8.506278, 40.219332], [-8.512551, 40.220875], [-8.512588, 40.220913], [-8.514061, 40.222445], [-8.514355, 40.222743], [-8.516151, 40.224605], [-8.518739, 40.227285], [-8.518743, 40.227306], [-8.51876, 40.227392], [-8.518449, 40.228604], [-8.518397, 40.228719], [-8.518374, 40.228768], [-8.518449, 40.22921], [-8.518596, 40.229565], [-8.518615, 40.229611], [-8.518705, 40.229747], [-8.518786, 40.229865], [-8.518, 40.230157], [-8.518046, 40.230226], [-8.518084, 40.230382], [-8.518031, 40.230914], [-8.518079, 40.231287], [-8.518573, 40.231766], [-8.518927, 40.23229], [-8.519227, 40.232843], [-8.519248, 40.23315], [-8.519243, 40.233424], [-8.519141, 40.233732], [-8.518964, 40.233916], [-8.518782, 40.23419], [-8.518782, 40.234465], [-8.518991, 40.23591], [-8.519114, 40.23609], [-8.519468, 40.236332], [-8.519644, 40.236476], [-8.520291, 40.236645], [-8.520826, 40.236918], [-8.521717, 40.237301], [-8.522511, 40.23769], [-8.523138, 40.238042], [-8.523466, 40.238233], [-8.523709, 40.238302], [-8.523949, 40.238298], [-8.52425, 40.238227], [-8.524438, 40.238223], [-8.524626, 40.238264], [-8.524938, 40.238442], [-8.525357, 40.238626], [-8.525558, 40.238803], [-8.525755, 40.238875], [-8.526109, 40.238949], [-8.526495, 40.239072], [-8.526579, 40.239066], [-8.527197, 40.239327], [-8.527904, 40.239547], [-8.5283, 40.239739], [-8.528518, 40.239941], [-8.528965, 40.240602], [-8.529223, 40.240892], [-8.52925, 40.240922], [-8.529396, 40.240968], [-8.529664, 40.241089], [-8.530262, 40.241452], [-8.530738, 40.241601], [-8.530969, 40.241722], [-8.531112, 40.241831], [-8.531233, 40.24246], [-8.531242, 40.242805], [-8.531326, 40.242898], [-8.531527, 40.243023], [-8.531882, 40.243458], [-8.532102, 40.243639], [-8.532274, 40.243818], [-8.532608, 40.244105], [-8.5328, 40.244285], [-8.532962, 40.244504], [-8.532481, 40.244541], [-8.532325, 40.244591], [-8.531945, 40.244831], [-8.531736, 40.244911], [-8.531738, 40.244962], [-8.531841, 40.245093], [-8.53236, 40.245559], [-8.533046, 40.246221], [-8.533193, 40.246581], [-8.533514, 40.246952], [-8.533937, 40.247225], [-8.53406, 40.247324], [-8.534199, 40.247416], [-8.534472, 40.247552], [-8.534688, 40.247789], [-8.534844, 40.247913], [-8.534951, 40.248113], [-8.53509, 40.248256], [-8.535191, 40.248463], [-8.5354, 40.24859], [-8.535505, 40.248622], [-8.535601, 40.248743], [-8.535564, 40.248876], [-8.535472, 40.248999], [-8.535421, 40.249276], [-8.535429, 40.249473], [-8.535738, 40.250268], [-8.535885, 40.2506], [-8.536334, 40.251134], [-8.536404, 40.251256], [-8.536418, 40.251342], [-8.536349, 40.251637], [-8.53626, 40.251775], [-8.536433, 40.251826], [-8.536521, 40.251822], [-8.536704, 40.251783], [-8.536837, 40.251947], [-8.536977, 40.25205], [-8.537252, 40.252193], [-8.537239, 40.252289], [-8.537131, 40.252415], [-8.537005, 40.25268], [-8.537176, 40.253006], [-8.53739, 40.253183], [-8.537596, 40.253319], [-8.537956, 40.253704], [-8.537975, 40.253788], [-8.537983, 40.254084], [-8.538035, 40.254208], [-8.538192, 40.254342], [-8.538303, 40.254603], [-8.538433, 40.254776], [-8.538465, 40.254914], [-8.538464, 40.255096], [-8.539502, 40.255723], [-8.539384, 40.256333], [-8.53911, 40.256872], [-8.539113, 40.257658], [-8.53915, 40.257739], [-8.539471, 40.257746], [-8.539374, 40.257898], [-8.539223, 40.258074], [-8.539155, 40.258343], [-8.539124, 40.25875], [-8.539126, 40.25937], [-8.539196, 40.259452], [-8.539322, 40.259552], [-8.539448, 40.259627], [-8.539481, 40.259684], [-8.53936, 40.260076], [-8.539346, 40.260343], [-8.539262, 40.26055], [-8.539182, 40.26082], [-8.53913, 40.260897], [-8.539219, 40.260954], [-8.539447, 40.261041], [-8.539672, 40.261069], [-8.539866, 40.261128], [-8.539999, 40.261182], [-8.540094, 40.261243], [-8.540156, 40.261327], [-8.540369, 40.261505], [-8.540621, 40.261769], [-8.540649, 40.261863], [-8.540821, 40.262181], [-8.540963, 40.262305], [-8.541046, 40.262343], [-8.541296, 40.262409], [-8.541484, 40.262414], [-8.542032, 40.262357], [-8.542196, 40.262355], [-8.542362, 40.262393], [-8.542476, 40.262449], [-8.54267, 40.262623], [-8.542892, 40.262938], [-8.54296, 40.263277], [-8.543422, 40.263937], [-8.543499, 40.263989], [-8.543847, 40.264135], [-8.544161, 40.2644], [-8.544272, 40.264469], [-8.544827, 40.264633], [-8.545132, 40.264821], [-8.545171, 40.264861], [-8.54528, 40.265028], [-8.545403, 40.265146], [-8.54556, 40.265256], [-8.545804, 40.26535], [-8.546115, 40.265538], [-8.546306, 40.265625], [-8.546712, 40.26587], [-8.546839, 40.26591], [-8.546885, 40.265893], [-8.547119, 40.265874], [-8.547183, 40.265881], [-8.547209, 40.265884], [-8.547273, 40.266422], [-8.547242, 40.266667], [-8.547264, 40.266773], [-8.547313, 40.266888], [-8.547578, 40.267193], [-8.547766, 40.267339], [-8.547979, 40.267464], [-8.548034, 40.267529], [-8.548349, 40.267493], [-8.549186, 40.267772], [-8.549808, 40.268197], [-8.550474, 40.268983], [-8.551139, 40.269294], [-8.55189, 40.269327], [-8.552795, 40.269343], [-8.553047, 40.269505], [-8.553291, 40.269605], [-8.553452, 40.269769], [-8.553546, 40.269898], [-8.55365, 40.270236], [-8.553637, 40.27034], [-8.553648, 40.270457], [-8.553742, 40.270631], [-8.553747, 40.271073], [-8.553637, 40.271701], [-8.55361, 40.272127], [-8.553548, 40.272317], [-8.553548, 40.272401], [-8.553503, 40.272505], [-8.553728, 40.273362], [-8.553827, 40.27353], [-8.55405, 40.273738], [-8.55411, 40.273837], [-8.554156, 40.274078], [-8.554336, 40.274502], [-8.554085, 40.274742], [-8.553852, 40.275028], [-8.553799, 40.275169], [-8.553802, 40.275277], [-8.553873, 40.275536], [-8.55382, 40.275582], [-8.553296, 40.27589], [-8.552722, 40.27627], [-8.55274, 40.276324], [-8.55302, 40.276697], [-8.553098, 40.276913], [-8.553211, 40.277142], [-8.553229, 40.277402], [-8.553087, 40.277593], [-8.552946, 40.277704], [-8.552619, 40.277891], [-8.552403, 40.277969], [-8.55224, 40.278046], [-8.552175, 40.278131], [-8.552092, 40.278326], [-8.552038, 40.278628], [-8.551991, 40.278893], [-8.552027, 40.279504], [-8.551953, 40.279659], [-8.551719, 40.280037], [-8.551843, 40.2805], [-8.55183, 40.280604], [-8.551676, 40.281013], [-8.551605, 40.281123], [-8.551612, 40.281323], [-8.551568, 40.281525], [-8.551538, 40.281866], [-8.55159, 40.282221], [-8.551741, 40.282752], [-8.551944, 40.283083], [-8.552006, 40.283218], [-8.55208, 40.283462], [-8.551998, 40.283536], [-8.551347, 40.283605], [-8.551121, 40.28359], [-8.550497, 40.283621], [-8.549013, 40.283451], [-8.548857, 40.283502], [-8.548748, 40.283585], [-8.548712, 40.283688], [-8.548682, 40.283989], [-8.548681, 40.284027], [-8.548678, 40.28414], [-8.548616, 40.284284], [-8.548471, 40.284393], [-8.546846, 40.284862], [-8.546735, 40.284947], [-8.546506, 40.285209], [-8.546107, 40.285665], [-8.54558, 40.28617], [-8.545469, 40.286347], [-8.545129, 40.287098], [-8.544799, 40.288261], [-8.544683, 40.288499], [-8.544854, 40.288963], [-8.544841, 40.289176], [-8.544557, 40.289769], [-8.544179, 40.290261], [-8.544229, 40.290322], [-8.544339, 40.290537], [-8.544334, 40.290684], [-8.54426, 40.29108], [-8.544627, 40.291446], [-8.544996, 40.291637], [-8.545964, 40.291861], [-8.546053, 40.292131], [-8.546136, 40.292252], [-8.546276, 40.292371], [-8.546463, 40.292456], [-8.546549, 40.292513], [-8.546832, 40.293044], [-8.546817, 40.293176], [-8.546751, 40.293409], [-8.546755, 40.293738], [-8.546644, 40.293961], [-8.54631, 40.294179], [-8.546061, 40.294586], [-8.546045, 40.29468], [-8.546088, 40.294766], [-8.546444, 40.295112], [-8.546273, 40.295318], [-8.546064, 40.295415], [-8.54564, 40.295572], [-8.545675, 40.295826], [-8.545476, 40.29609], [-8.545457, 40.296264], [-8.545576, 40.296464], [-8.545498, 40.296468], [-8.545734, 40.297133], [-8.545586, 40.29763], [-8.545522, 40.297671], [-8.545409, 40.297794], [-8.545313, 40.298029], [-8.5452, 40.298731], [-8.545117, 40.298976], [-8.54511, 40.299254], [-8.545218, 40.299699], [-8.54551, 40.300479], [-8.545662, 40.300674], [-8.545974, 40.301002], [-8.546183, 40.301144], [-8.546719, 40.301455], [-8.547041, 40.301684], [-8.547284, 40.3019], [-8.547524, 40.302058], [-8.547893, 40.302276], [-8.548232, 40.302449], [-8.54837, 40.302518], [-8.54852, 40.302596], [-8.548755, 40.302697], [-8.549272, 40.302983], [-8.549371, 40.303156], [-8.549421, 40.303351], [-8.549668, 40.303653], [-8.549711, 40.303896], [-8.550525, 40.304846], [-8.550667, 40.305094], [-8.55102, 40.305467], [-8.551537, 40.305866], [-8.55195, 40.30622], [-8.552044, 40.306305], [-8.553199, 40.307353], [-8.554044, 40.30816], [-8.554669, 40.308797], [-8.554964, 40.309165], [-8.555147, 40.309341], [-8.555265, 40.309361], [-8.555372, 40.309349], [-8.555447, 40.309284], [-8.555485, 40.309226], [-8.555656, 40.30923], [-8.555759, 40.309214], [-8.555944, 40.309185], [-8.556043, 40.309169], [-8.55615, 40.309177], [-8.556257, 40.309247], [-8.556475, 40.309439], [-8.556602, 40.309427], [-8.556825, 40.309349], [-8.557163, 40.309296], [-8.557533, 40.309271], [-8.557876, 40.309296], [-8.558284, 40.309374], [-8.558396, 40.30941], [-8.558632, 40.309545], [-8.558772, 40.309578], [-8.55933, 40.309578], [-8.559732, 40.309701], [-8.560623, 40.310077], [-8.560953, 40.310129], [-8.561365, 40.310518], [-8.56135, 40.310614], [-8.561123, 40.311014], [-8.560971, 40.311282], [-8.560923, 40.311409], [-8.560939, 40.311499], [-8.561017, 40.311569], [-8.561106, 40.311619], [-8.561856, 40.311782], [-8.562084, 40.311892], [-8.562515, 40.312215], [-8.562762, 40.312514], [-8.563035, 40.312895], [-8.563114, 40.313082], [-8.563136, 40.31323], [-8.563206, 40.313383], [-8.563042, 40.313639], [-8.563017, 40.313739], [-8.563022, 40.313837], [-8.563076, 40.31396], [-8.563117, 40.314504], [-8.563162, 40.314621], [-8.563267, 40.314703], [-8.563781, 40.314841], [-8.564108, 40.314904], [-8.564774, 40.314789], [-8.565055, 40.314665], [-8.565722, 40.3145], [-8.565874, 40.314523], [-8.566113, 40.314657], [-8.566498, 40.314941], [-8.566865, 40.315126], [-8.567527, 40.315283], [-8.568222, 40.315607], [-8.569284, 40.316682], [-8.570405, 40.317477], [-8.57116, 40.317921], [-8.571332, 40.318154], [-8.571409, 40.318449], [-8.571756, 40.318611], [-8.572374, 40.319126], [-8.572934, 40.319509], [-8.574525, 40.321103], [-8.57476, 40.321284], [-8.575232, 40.321521], [-8.575806, 40.321591], [-8.576235, 40.321787], [-8.57638, 40.321828], [-8.576463, 40.321834], [-8.576557, 40.32184], [-8.57704, 40.321988], [-8.577555, 40.322405], [-8.578, 40.322793], [-8.578628, 40.323161], [-8.579282, 40.323607], [-8.579986, 40.32424], [-8.580216, 40.324561], [-8.580184, 40.324609], [-8.580203, 40.324635], [-8.580259, 40.324644], [-8.581453, 40.326174], [-8.581904, 40.326862], [-8.582065, 40.327156], [-8.581898, 40.327814], [-8.581963, 40.328191], [-8.582773, 40.329732], [-8.583014, 40.330305], [-8.583068, 40.330869], [-8.583159, 40.331115], [-8.584162, 40.33255], [-8.584767, 40.333329], [-8.585139, 40.333705], [-8.585443, 40.334043], [-8.586041, 40.334842], [-8.586523, 40.33539], [-8.586974, 40.335938], [-8.58731, 40.3363], [-8.587521, 40.336617], [-8.587875, 40.337018], [-8.588111, 40.337206], [-8.588262, 40.337353], [-8.58854, 40.337508], [-8.588787, 40.337713], [-8.588873, 40.337958], [-8.588872, 40.338441], [-8.588787, 40.338564], [-8.588951, 40.338866], [-8.589122, 40.3392], [-8.589266, 40.339161], [-8.589408, 40.339301], [-8.588735, 40.339738], [-8.589306, 40.34032], [-8.589573, 40.340592], [-8.590004, 40.341078], [-8.590491, 40.341588], [-8.591021, 40.342145], [-8.591354, 40.342544], [-8.59144, 40.342681], [-8.591653, 40.343162], [-8.591907, 40.343917], [-8.591963, 40.344158], [-8.591899, 40.344116], [-8.591718, 40.344106], [-8.591482, 40.344124], [-8.591511, 40.344273], [-8.591738, 40.344615], [-8.5919, 40.34544], [-8.592004, 40.346128], [-8.592141, 40.346745], [-8.592337, 40.346698], [-8.592606, 40.347206], [-8.592859, 40.347604], [-8.592718, 40.347714], [-8.592387, 40.347959], [-8.592189, 40.348278], [-8.59218, 40.348367], [-8.592161, 40.348504], [-8.592153, 40.34873], [-8.592108, 40.349404], [-8.592082, 40.349591], [-8.591423, 40.350967], [-8.591028, 40.351791], [-8.590356, 40.351606], [-8.590194, 40.351615], [-8.590129, 40.351661], [-8.590068, 40.35166], [-8.589935, 40.351755], [-8.589078, 40.352152], [-8.587967, 40.352666], [-8.587866, 40.352713], [-8.587833, 40.352796], [-8.587817, 40.352837], [-8.588085, 40.353298], [-8.588466, 40.353895], [-8.588506, 40.354013], [-8.588628, 40.354111], [-8.589929, 40.355975], [-8.589833, 40.356033], [-8.589727, 40.356086], [-8.589774, 40.356157], [-8.589785, 40.356432], [-8.589781, 40.35652], [-8.589609, 40.356807], [-8.589521, 40.356907], [-8.589443, 40.357006], [-8.589353, 40.357164], [-8.590472, 40.357397], [-8.59059, 40.357465], [-8.590804, 40.35774], [-8.591359, 40.358532], [-8.592241, 40.359729], [-8.592952, 40.360591], [-8.593711, 40.361351], [-8.594279, 40.361867], [-8.595513, 40.362848], [-8.596655, 40.363647], [-8.597052, 40.363896], [-8.597401, 40.364075], [-8.598089, 40.364475], [-8.599247, 40.365107], [-8.599659, 40.365355], [-8.599684, 40.365459], [-8.599665, 40.365565], [-8.599621, 40.365634], [-8.59953, 40.365704], [-8.599272, 40.36581], [-8.599274, 40.365898], [-8.600007, 40.365891], [-8.599985, 40.366043], [-8.59996, 40.369504], [-8.600014, 40.369585], [-8.600102, 40.369632], [-8.600206, 40.369675], [-8.59996, 40.370046], [-8.59984, 40.370264], [-8.599581, 40.371256], [-8.59947, 40.371813], [-8.599467, 40.371969], [-8.599266, 40.373794], [-8.599072, 40.374903], [-8.599026, 40.375051], [-8.598875, 40.375201], [-8.598758, 40.375353], [-8.598621, 40.375729], [-8.598422, 40.376422], [-8.598191, 40.377103], [-8.597868, 40.378534], [-8.597832, 40.37891], [-8.59784, 40.379075], [-8.59807, 40.380003], [-8.597703, 40.380055], [-8.598476, 40.381742], [-8.598899, 40.382975], [-8.599122, 40.383526], [-8.599357, 40.383874], [-8.59974, 40.384616], [-8.600023, 40.385261], [-8.600258, 40.385931], [-8.600566, 40.386579], [-8.601585, 40.388942], [-8.601737, 40.389333], [-8.601964, 40.390019], [-8.602169, 40.390514], [-8.602485, 40.391149], [-8.602895, 40.392213], [-8.603028, 40.392503], [-8.603357, 40.392936], [-8.603669, 40.393844], [-8.603746, 40.394039], [-8.604143, 40.394775], [-8.604233, 40.395048], [-8.604233, 40.39537], [-8.604417, 40.395738], [-8.604724, 40.396444], [-8.604934, 40.396685], [-8.605053, 40.396988], [-8.605135, 40.397404], [-8.605276, 40.397766], [-8.605468, 40.398192], [-8.605617, 40.398439], [-8.605925, 40.399266], [-8.605996, 40.399388], [-8.606374, 40.399936], [-8.606498, 40.400233], [-8.606528, 40.400617], [-8.606679, 40.400935], [-8.606776, 40.401137], [-8.606951, 40.401596], [-8.607117, 40.401769], [-8.607217, 40.401813], [-8.607412, 40.401899], [-8.607647, 40.401974], [-8.607904, 40.402032], [-8.608263, 40.402029], [-8.608656, 40.40199], [-8.608899, 40.402003], [-8.609032, 40.402068], [-8.609523, 40.402823], [-8.60984, 40.403259], [-8.610305, 40.40364], [-8.610861, 40.40404], [-8.61134, 40.404476], [-8.612045, 40.405271], [-8.612336, 40.405509], [-8.612468, 40.405602], [-8.613612, 40.406759], [-8.614031, 40.407181], [-8.614241, 40.407408], [-8.614398, 40.40762], [-8.614466, 40.407732], [-8.614486, 40.407859], [-8.614491, 40.408015], [-8.614471, 40.408104], [-8.614437, 40.40822], [-8.614354, 40.408317], [-8.61426, 40.408456], [-8.614093, 40.408829], [-8.61396, 40.409158], [-8.613903, 40.409418], [-8.613936, 40.409593], [-8.61408, 40.409998], [-8.61465, 40.411481], [-8.614645, 40.411723], [-8.614328, 40.41232], [-8.614185, 40.412601], [-8.613963, 40.412927], [-8.61342, 40.413375], [-8.613045, 40.413603], [-8.613376, 40.414033], [-8.61347, 40.414313], [-8.613451, 40.414494], [-8.613405, 40.414656], [-8.613433, 40.414706], [-8.61347, 40.414772], [-8.613633, 40.414879], [-8.613659, 40.415064], [-8.613804, 40.415449], [-8.61408, 40.415902], [-8.6141, 40.416015], [-8.614211, 40.416132], [-8.61482, 40.416605], [-8.614774, 40.416713], [-8.614565, 40.417], [-8.614405, 40.417166], [-8.614196, 40.417424], [-8.613787, 40.418229], [-8.613662, 40.418362], [-8.613533, 40.418428], [-8.613459, 40.418465], [-8.613003, 40.418516], [-8.612815, 40.418596], [-8.611929, 40.420004], [-8.611723, 40.420406], [-8.611412, 40.421248], [-8.611195, 40.421473], [-8.61107, 40.421924], [-8.611093, 40.422116], [-8.611076, 40.422421], [-8.611012, 40.422773], [-8.610942, 40.423329], [-8.610969, 40.423909], [-8.611081, 40.424631], [-8.611087, 40.425011], [-8.61133, 40.425456], [-8.611265, 40.425629], [-8.611362, 40.425963], [-8.611313, 40.426223], [-8.611135, 40.426508], [-8.610874, 40.426867], [-8.610619, 40.427065], [-8.610726, 40.427212], [-8.610871, 40.427686], [-8.611306, 40.427735], [-8.611466, 40.4278], [-8.611591, 40.428292], [-8.611767, 40.428989], [-8.611837, 40.429103], [-8.611965, 40.429246], [-8.61203, 40.429376], [-8.612039, 40.429423]]}}], "metadata": {"attribution": "openrouteservice.org | OpenStreetMap contributors", "service": "routing", "timestamp": 1780955379425, "query": {"coordinates": [[-8.409922, 40.193131], [-8.6119096, 40.4294373]], "profile": "foot-walking", "profileName": "foot-walking", "preference": "recommended", "format": "geojson"}, "engine": {"version": "9.9.0", "build_date": "2026-04-20T10:23:42Z", "graph_date": "2026-05-05T20:04:18Z", "osm_date": "2026-04-26T23:59:57Z"}}}